WKT,latitude,longitude,street,postalcode,city,description
"POINT (4.71169 52.03336)",52.03336,4.71169,Plaswijckweg, 2804 LS, Gouda,https://waarneming.nl/observation/337664531/
"POINT (4.4007 51.92428)",51.92428,4.40070,Johan Braakensiekstraat, 3119 NL, Schiedam,https://waarneming.nl/observation/345832820/
"POINT (4.50901 52.06553)",52.06553,4.50901,Vuurdoornpark, 2724 HG, Zoetermeer,https://waarneming.nl/observation/347449123/
"POINT (4.47877 52.03894)",52.03894,4.47877,Camee, 2719 RM, Zoetermeer,https://waarneming.nl/observation/347708135/
"POINT (4.25975 51.92606)",51.92606,4.25975,Touwbaan, 3142 BV, Maassluis,https://waarneming.nl/observation/354125584/
"POINT (4.31395 51.90764)",51.90764,4.31395,van Maerlantlaan, 3132 PP, Vlaardingen,https://waarneming.nl/observation/359202491/
"POINT (4.34185 52.09039)",52.09039,4.34185,Cornelis van der Lijnstraat, 2593 NC, Den Haag,https://waarneming.nl/observation/368044200/
"POINT (4.39975 51.92244)",51.92244,4.39975,Jan van Zutphenstraat, 3119 BP, Schiedam,https://waarneming.nl/observation/367219903/
"POINT (4.32736 52.08623)",52.08623,4.32736,Zuiderpad, 2594 NC, Den Haag,https://waarneming.nl/observation/368228411/
"POINT (4.51572 52.03969)",52.03969,4.51572,Lansingpad, 2718 RH, Zoetermeer,https://waarneming.nl/observation/367444288/
"POINT (4.3352 51.91529)",51.91529,4.33520,Engelsche Boomgaert, 3131 NN, Vlaardingen,https://waarneming.nl/observation/367506636/
"POINT (4.38621 51.91145)",51.91145,4.38621,Vondellaan, 3117 PS, Schiedam,https://waarneming.nl/observation/368162509/
"POINT (4.24473 51.92279)",51.92279,4.24473,P.J. Troelstraweg, 3144 CW, Maassluis,https://waarneming.nl/observation/368192636/
"POINT (4.25402 51.921)",51.92100,4.25402,Zuiddijk, 3143 AS, Maassluis,https://waarneming.nl/observation/368297078/
"POINT (4.31325 52.09809)",52.09809,4.31325,Van Nijenrodestraat, 2597 RJ, Den Haag,https://waarneming.nl/observation/368781486/
"POINT (4.3893 51.9282)",51.92820,4.38930,Ganzenpad, 3121 KK, Schiedam,https://waarneming.nl/observation/369165841/
"POINT (4.36487 52.12677)",52.12677,4.36487,Kievietslaan, 2243 GB, Wassenaar,https://waarneming.nl/observation/369460887/
"POINT (4.26711 51.91212)",51.91212,4.26711,Vlaardingsedijk, 3143 LN, Maassluis,https://waarneming.nl/observation/369622524/
"POINT (4.49593 52.25508)",52.25508,4.49593,Sperwerkroft, 2211 LN, Noordwijkerhout,https://waarneming.nl/observation/370550307/
"POINT (4.49312 52.26975)",52.26975,4.49312,'t Hoogtlaan, 2212 TR, Noordwijkerhout,https://waarneming.nl/observation/370550515/
"POINT (4.21231 52.04625)",52.04625,4.21231,Max Euweweg, 2553 PT, Den Haag,https://waarneming.nl/observation/370724418/
"POINT (4.29885 51.90269)",51.90269,4.29885,Maassluissedijk, 3133 KA, Vlaardingen,https://waarneming.nl/observation/370852087/
"POINT (4.39835 51.90484)",51.90484,4.39835,Westfrankelandsedijk, 3114 VX, Schiedam,https://waarneming.nl/observation/370897503/
"POINT (4.40123 51.91321)",51.91321,4.40123,Gerrit Verboonstraat, 3111 AA, Schiedam,https://waarneming.nl/observation/371162316/
"POINT (4.40258 51.9134)",51.91340,4.40258,Tuinlaan, 3111 AX, Schiedam,https://waarneming.nl/observation/371162323/
"POINT (4.35228 51.91527)",51.91527,4.35228,Anthony Knottenbeltsingel, 3135 HL, Vlaardingen,https://waarneming.nl/observation/371626023/
"POINT (4.4895 52.26172)",52.26172,4.48950,Victoriberg, 2211 DH, Noordwijkerhout,https://waarneming.nl/observation/371626849/
"POINT (4.2974 52.0449)",52.04490,4.29740,Guntersteinweg, 2532 VZ, Den Haag,https://waarneming.nl/observation/371589597/
"POINT (4.31098 51.91165)",51.91165,4.31098,Buys-Ballotlaan, 3132 SC, Vlaardingen,https://waarneming.nl/observation/371625274/
"POINT (4.46024 52.05519)",52.05519,4.46024,Herikerberg, 2716 EV, Zoetermeer,https://waarneming.nl/observation/371757970/
"POINT (4.25735 51.9248)",51.92480,4.25735,Glanzerij, 3142 BC, Maassluis,https://waarneming.nl/observation/372460226/
"POINT (4.46619 52.0542)",52.05420,4.46619,Fivelingo, 2716 BB, Zoetermeer,https://waarneming.nl/observation/372722091/
"POINT (4.70467 52.0355)",52.03550,4.70467,Oosthoef, 2804 ST, Gouda,https://waarneming.nl/observation/372874880/
"POINT (4.45251 52.06585)",52.06585,4.45251,Buytenparklaan, 2716 NP, Zoetermeer,https://waarneming.nl/observation/373745527/
"POINT (4.36685 52.09821)",52.09821,4.36685,Isabellaland, 2591 SX, Den Haag,https://waarneming.nl/observation/373847834/
"POINT (4.24175 52.07761)",52.07761,4.24175,Laan van Poot, 2566 DL, Den Haag,https://waarneming.nl/observation/373943899/
"POINT (4.23303 52.03974)",52.03974,4.23303,Thomas Mannsingel, 2553 DA, Den Haag,https://waarneming.nl/observation/374025935/
"POINT (4.69959 52.0224)",52.02240,4.69959,Abel Tasmanlaan, 2803 GL, Gouda,https://waarneming.nl/observation/374201014/
"POINT (4.37826 51.92264)",51.92264,4.37826,Sportpad, 3118 JC, Schiedam,https://waarneming.nl/observation/374404985/
"POINT (4.27756 52.09975)",52.09975,4.27756,Van Dorpstraat, 2584 AH, Den Haag,https://waarneming.nl/observation/374756524/
"POINT (4.23722 52.04652)",52.04652,4.23722,Karperdaal, 2553 PG, Den Haag,https://waarneming.nl/observation/374932826/
"POINT (4.3967 52.14533)",52.14533,4.39670,Van Zuylen van Nijeveltstraat, 2242 LE, Wassenaar,https://waarneming.nl/observation/374932911/
"POINT (4.69845 52.02223)",52.02223,4.69845,Willem Bontekoesingel, 2803 XM, Gouda,https://waarneming.nl/observation/374904967/
"POINT (4.48383 52.25032)",52.25032,4.48383,De Vlashoven, 2211 WL, Noordwijkerhout,https://waarneming.nl/observation/374933409/
"POINT (4.24948 52.08067)",52.08067,4.24948,Laan van Poot, 2566 TE, Den Haag,https://waarneming.nl/observation/375043853/
"POINT (4.70135 52.02653)",52.02653,4.70135,Burgemeester van Reenensingel, 2803 EA, Gouda,https://waarneming.nl/observation/375408500/
"POINT (4.30771 52.09249)",52.09249,4.30771,Balistraat, 2585 XX, Den Haag,https://waarneming.nl/observation/375449076/
"POINT (4.35819 52.11233)",52.11233,4.35819,Groot Hoefijzerlaan, 2244 GG, Wassenaar,https://waarneming.nl/observation/375495717/
"POINT (4.21281 52.03292)",52.03292,4.21281,Madepolderweg, 2553 EG, Den Haag,https://waarneming.nl/observation/375633100/
"POINT (4.37518 51.91767)",51.91767,4.37518,Dijk, 3118 JM, Schiedam,https://waarneming.nl/observation/375802810/
"POINT (4.2649 52.04376)",52.04376,4.26490,Ruimzicht, 2543 RJ, Den Haag,https://waarneming.nl/observation/376390437/
"POINT (4.36294 52.12468)",52.12468,4.36294,Emmalaan, 2243 HC, Wassenaar,https://waarneming.nl/observation/376434736/
"POINT (4.33824 51.93411)",51.93411,4.33824,Bingelkruid, 3137 WE, Vlaardingen,https://waarneming.nl/observation/377601803/
"POINT (4.23208 52.05428)",52.05428,4.23208,Ouverturestraat, 2553 VP, Den Haag,https://waarneming.nl/observation/376494570/
"POINT (4.36568 52.12119)",52.12119,4.36568,Schouwweg, 2243 BP, Wassenaar,https://waarneming.nl/observation/376565754/
"POINT (4.70526 52.02546)",52.02546,4.70526,Heempad, 2804 AC, Gouda,https://waarneming.nl/observation/376563844/
"POINT (4.25396 51.91813)",51.91813,4.25396,Jan van Galenstraat, 3143 KC, Maassluis,https://waarneming.nl/observation/376806777/
"POINT (4.31809 52.09844)",52.09844,4.31809,Van Hogenhoucklaan, 2596 TE, Den Haag,https://waarneming.nl/observation/377077364/
"POINT (4.52046 52.07408)",52.07408,4.52046,Mien Ruyspad, 2728 BR, Zoetermeer,https://waarneming.nl/observation/377076780/
"POINT (4.71212 52.01799)",52.01799,4.71212,Graaf Florisweg, 2805 AL, Gouda,https://waarneming.nl/observation/377168481/
"POINT (4.25004 52.0697)",52.06970,4.25004,Pioenweg, 2565 AX, Den Haag,https://waarneming.nl/observation/377368453/
"POINT (4.71309 52.00407)",52.00407,4.71309,Gouderaksedijk, 2808 ND, Gouda,https://waarneming.nl/observation/377350850/
"POINT (4.27737 52.09898)",52.09898,4.27737,Johan van Oldenbarneveltlaan, 2582 NM, Den Haag,https://waarneming.nl/observation/377603817/
"POINT (4.7106 52.03061)",52.03061,4.71060,Weerestein, 2804 GG, Gouda,https://waarneming.nl/observation/377425788/
"POINT (4.3046 52.10264)",52.10264,4.30460,Duinroospad, 2597 KB, Den Haag,https://waarneming.nl/observation/377740596/
"POINT (4.35359 52.11309)",52.11309,4.35359,Laan van Koot, 2244 AV, Wassenaar,https://waarneming.nl/observation/379365708/
"POINT (4.28836 52.09953)",52.09953,4.28836,Hogeweg, 2585 JD, Den Haag,https://waarneming.nl/observation/379317948/
"POINT (4.4961 52.27725)",52.27725,4.49610,Langevelderweg, 2211 AD, Noordwijkerhout,https://waarneming.nl/observation/379353406/
"POINT (4.69305 52.02432)",52.02432,4.69305,Wilde Wingerdlaan, 2803 WC, Gouda,https://waarneming.nl/observation/379377253/
"POINT (4.3972 52.13746)",52.13746,4.39720,Prinses Marielaan, 2242 CJ, Wassenaar,https://waarneming.nl/observation/380228923/
"POINT (4.31037 51.93248)",51.93248,4.31037,Broekpolderpad, 3155 EZ, Vlaardingen,https://waarneming.nl/observation/379971191/
"POINT (4.31764 52.05195)",52.05195,4.31764,Prudens van Duysestraat, 2524 EA, Den Haag,https://waarneming.nl/observation/380096422/
"POINT (4.38282 52.1324)",52.13240,4.38282,Schouwweg, 2243 BG, Wassenaar,https://waarneming.nl/observation/380229220/
"POINT (4.7058 52.01443)",52.01443,4.70580,De Blaauwe Haan, 2801 AW, Gouda,https://waarneming.nl/observation/380384040/
"POINT (4.3854 52.14263)",52.14263,4.38540,Duinrell, 2242 SX, Wassenaar,https://waarneming.nl/observation/380414275/
"POINT (4.29008 52.05215)",52.05215,4.29008,Melis Stokelaan, 2533 CT, Den Haag,https://waarneming.nl/observation/380406279/
"POINT (4.3879 52.15836)",52.15836,4.38790,Van Bronckhorstlaan, 2242 PX, Wassenaar,https://waarneming.nl/observation/380454246/
"POINT (4.26514 51.91468)",51.91468,4.26514,Vlaardingsedijk, 3143 LT, Maassluis,https://waarneming.nl/observation/380485039/
"POINT (4.39513 51.90789)",51.90789,4.39513,Prins Bernhardlaan, 3116 HE, Schiedam,https://waarneming.nl/observation/380520647/
"POINT (4.23182 52.0625)",52.06250,4.23182,Laan van Meerdervoort, 2555 SH, Den Haag,https://waarneming.nl/observation/380810573/
"POINT (4.32057 51.92728)",51.92728,4.32057,Bronstijdpad, 3138 HE, Vlaardingen,https://waarneming.nl/observation/380718717/
"POINT (4.28401 52.08698)",52.08698,4.28401,Alexander Gogelweg, 2517 JD, Den Haag,https://waarneming.nl/observation/380884108/
"POINT (4.47589 52.24255)",52.24255,4.47589,Leeweg, 2211 XZ, Noordwijkerhout,https://waarneming.nl/observation/381063281/
"POINT (4.30412 52.09824)",52.09824,4.30412,Sint Hubertusweg, 2597 JG, Den Haag,https://waarneming.nl/observation/383580647/
"POINT (4.72661 52.00789)",52.00789,4.72661,Zuider IJsseldijk, 2808 PB, Gouda,https://waarneming.nl/observation/381156502/
"POINT (4.71171 52.00807)",52.00807,4.71171,Peperstraat, 2801 RH, Gouda,https://waarneming.nl/observation/381158806/
"POINT (4.33779 51.90958)",51.90958,4.33779,Markgraaflaan, 3131 VR, Vlaardingen,https://waarneming.nl/observation/381303617/
"POINT (4.48295 52.05189)",52.05189,4.48295,Stadhoudersring, 2713 GA, Zoetermeer,https://waarneming.nl/observation/381342529/
"POINT (4.31201 51.9312)",51.93120,4.31201,Vlaardingen-cultuurpad, 3155 EZ, Vlaardingen,https://waarneming.nl/observation/381491549/
"POINT (4.37156 52.11703)",52.11703,4.37156,Van der Oudermeulenlaan, 2243 CR, Wassenaar,https://waarneming.nl/observation/381649868/
"POINT (4.3184 52.09701)",52.09701,4.31840,Goetlijfstraat, 2596 RM, Den Haag,https://waarneming.nl/observation/381775886/
"POINT (4.33684 52.08369)",52.08369,4.33684,Juliana van Stolberglaan, 2595 HH, Den Haag,https://waarneming.nl/observation/381960657/
"POINT (4.73486 52.01816)",52.01816,4.73486,Goudse Houtsingel, 2805 KL, Gouda,https://waarneming.nl/observation/381971756/
"POINT (4.28844 51.90817)",51.90817,4.28844,Rijksweg nr 24, 3133 KB, Vlaardingen,https://waarneming.nl/observation/382007685/
"POINT (4.26966 51.91354)",51.91354,4.26966,Vlaardingsedijk, 3143 LT, Maassluis,https://waarneming.nl/observation/382542438/
"POINT (4.28316 52.09869)",52.09869,4.28316,Scheveningseweg, 2517 KX, Den Haag,https://waarneming.nl/observation/382424455/
"POINT (4.23817 52.04207)",52.04207,4.23817,Mien van Breepad, 2553 NE, Den Haag,https://waarneming.nl/observation/382644380/
"POINT (4.48976 52.0656)",52.06560,4.48976,Zwaardslootseweg, 2726 BR, Zoetermeer,https://waarneming.nl/observation/382692275/
"POINT (4.27194 52.08395)",52.08395,4.27194,Segbroeklaan, 2566 LA, Den Haag,https://waarneming.nl/observation/375846253/
"POINT (4.39225 52.09829)",52.09829,4.39225,Duivenvoorde, 2261 AL, Leidschendam,https://waarneming.nl/observation/369065183/
"POINT (4.3794 52.0862)",52.08620,4.37940,Via Verdi, 2272 WE, Voorburg,https://waarneming.nl/observation/373494976/
"POINT (4.35268 52.0609)",52.06090,4.35268,Fonteynenburghlaan, 2275 CX, Voorburg,https://waarneming.nl/observation/375534819/
"POINT (4.34905 52.08085)",52.08085,4.34905,Nicolaas Beetslaan, 2273 TR, Voorburg,https://waarneming.nl/observation/377370718/
"POINT (4.37453 52.07198)",52.07198,4.37453,Oosteinde, 2271 EV, Voorburg,https://waarneming.nl/observation/377607205/
"POINT (4.40129 52.10135)",52.10135,4.40129,Teylingen, 2261 XR, Leidschendam,https://waarneming.nl/observation/380228716/
"POINT (4.35357 52.06994)",52.06994,4.35357,Koningin Wilhelminalaan, 2274 AB, Voorburg,https://waarneming.nl/observation/380600610/
"POINT (4.42042 52.19472)",52.19472,4.42042,Vinkeweg, 2223 JH, Katwijk,https://waarneming.nl/observation/372696300/
"POINT (4.49481 52.13355)",52.13355,4.49481,Boerenpad, 2322 LA, Leiden,https://waarneming.nl/observation/373986099/
"POINT (4.50511 52.17215)",52.17215,4.50511,Havikpad, 2317 AL, Leiden,https://waarneming.nl/observation/380860330/
"POINT (4.46229 52.2405)",52.24050,4.46229,Gooweg, 2203 AB, Noordwijk,https://waarneming.nl/observation/372435923/
"POINT (4.43402 52.2399)",52.23990,4.43402,Emmaweg, 2202 CP, Noordwijk,https://waarneming.nl/observation/373788310/
"POINT (4.68024 52.15144)",52.15144,4.68024,Elzekrulzoom, 2403 SK, Alphen aan den Rijn,https://waarneming.nl/observation/343763197/
"POINT (4.54476 52.00407)",52.00407,4.54476,Beukenlaan, 2665 DX, Bleiswijk,https://waarneming.nl/observation/369913270/
"POINT (4.67609 52.13828)",52.13828,4.67609,President Kennedylaan, 2406 LJ, Alphen aan den Rijn,https://waarneming.nl/observation/371975947/
"POINT (4.24469 52.02865)",52.02865,4.24469,Wenpad, 2685 SJ, Poeldijk,https://waarneming.nl/observation/372632061/
"POINT (4.22363 52.02327)",52.02327,4.22363,De Backerstraat, 2685 TB, Poeldijk,https://waarneming.nl/observation/373635336/
"POINT (4.66142 52.15579)",52.15579,4.66142,Alida de Jongstraat, 2401 KT, Alphen aan den Rijn,https://waarneming.nl/observation/374771825/
"POINT (4.58222 52.00877)",52.00877,4.58222,Wethouder Kreftlaan, 2761 TZ, Zevenhuizen,https://waarneming.nl/observation/377416131/
"POINT (4.70079 52.11523)",52.11523,4.70079,Kortsteekterweg, 2407 AH, Alphen aan den Rijn,https://waarneming.nl/observation/377888350/
"POINT (4.65463 52.07051)",52.07051,4.65463,Kersengaarde, 2771 PR, Boskoop,https://waarneming.nl/observation/377888421/
"POINT (4.67608 52.13892)",52.13892,4.67608,Edelsteensingel, 2403 AA, Alphen aan den Rijn,https://waarneming.nl/observation/377888225/
"POINT (4.66796 52.07727)",52.07727,4.66796,Rozenlaan, 2771 DC, Boskoop,https://waarneming.nl/observation/379205803/
"POINT (4.65665 52.14917)",52.14917,4.65665,Vliestroom, 2401 VP, Alphen aan den Rijn,https://waarneming.nl/observation/379414203/
"POINT (4.69185 52.14479)",52.14479,4.69185,Ooievaarspad, 2403 GL, Alphen aan den Rijn,https://waarneming.nl/observation/379991735/
"POINT (4.6523 52.144)",52.14400,4.65230,Groenoord, 2401 AJ, Alphen aan den Rijn,https://waarneming.nl/observation/381158590/
"POINT (4.66194 52.15491)",52.15491,4.66194,Zegerpad, 2402 ZM, Alphen aan den Rijn,https://waarneming.nl/observation/381204579/
"POINT (4.65682 52.15102)",52.15102,4.65682,Klompenmaker, 2401 PW, Alphen aan den Rijn,https://waarneming.nl/observation/381758551/
"POINT (4.66393 52.07555)",52.07555,4.66393,A.P. van Neslaan, 2771 DE, Boskoop,https://waarneming.nl/observation/368921729/
"POINT (4.4826 52.18678)",52.18678,4.48260,Vincent van Goghlaan, 2343 RR, Oegstgeest,https://waarneming.nl/observation/373806217/
"POINT (4.45377 52.13556)",52.13556,4.45377,Schubertplantsoen, 2253 SL, Voorschoten,https://waarneming.nl/observation/372193406/
"POINT (4.24296 52.07401)",52.07401,4.24296,Kraaienlaan, 2566 RK, Den Haag, https://waarneming.nl/observation/374111963/
"POINT (4.38729 52.03105)",52.03105,4.38729,Veenwortel, 2498 EK, Den Haag,https://waarneming.nl/observation/370688004/
"POINT (4.27331 51.93009)",51.93009,4.27331,Haagwinde, 3155 WB, Maasland,https://waarneming.nl/observation/365198029/
"POINT (4.2719 51.93043)",51.93043,4.27190,Ingeland, 3155 GC, Maasland,https://waarneming.nl/observation/371265972/
"POINT (4.63518 52.16778)",52.16778,4.63518,Bateweg, 2481 AN, Woubrugge,https://waarneming.nl/observation/347843991/
"POINT (4.63748 52.16857)",52.16857,4.63748,Comriekade, 2481 AE, Woubrugge,https://waarneming.nl/observation/356119579/
"POINT (4.70891 52.19336)",52.19336,4.70891,F.J. Nuijensplein, 2461 RX, Langeraar,https://waarneming.nl/observation/368525142/
"POINT (4.64382 52.20988)",52.20988,4.64382,Praam, 2377 BW, Oude Wetering,https://waarneming.nl/observation/372035622/
"POINT (4.22876 51.95128)",51.95128,4.22876,Bandijkweg, 2676 LH, Maasdijk,https://waarneming.nl/observation/380872106/
"POINT (4.34877 51.93367)",51.93367,4.34877,Lepelaarsingel, 3136 NL, Vlaardingen,https://waarneming.nl/observation/380705227/
"POINT (4.3475 51.94114)",51.94114,4.34750,Wilgendreef, 3137 CZ, Vlaardingen,https://waarneming.nl/observation/381389526/
"POINT (4.39789 51.90833)",51.90833,4.39789,Stadhouderslaan, 3116 HK, Schiedam,https://waarneming.nl/observation/377599158/
"POINT (4.48519 52.05179)",52.05179,4.48519,Graaf Janstraat, 2713 CH, Zoetermeer,https://waarneming.nl/observation/384715884/
"POINT (4.3394 51.9405)",51.94050,4.33940,Begraafplaats, 3137 CR, Vlaardingen,https://waarneming.nl/observation/385511939/
"POINT (4.32421 51.93371)",51.93371,4.32421,Broekpolderpad, ,Vlaardingen,https://waarneming.nl/observation/385512195/
"POINT (4.32421 51.93371)",51.93371,4.32421,Fonteinkruid, 3137 WL, Vlaardingen,https://waarneming.nl/observation/385512195/
"POINT (4.74521 52.0752)",52.07520,4.74521,Emmakade, 2411 JH, Bodegraven,https://waarneming.nl/observation/372866388/
"POINT (4.74609 52.08872)",52.08872,4.74609,Sportlaan, 2411 XD, Bodegraven,https://waarneming.nl/observation/379287488/
"POINT (4.4087 52.14519)",52.14519,4.40870,Van Montfortlaan, 2241 JK, Wassenaar,https://waarneming.nl/observation/385723882/
"POINT (4.370863 52.118849)",52.118849,4.370863,Oud Wassenaarseweg, 2243 BT, Wassenaar,https://waarneming.nl/observation/385723975/
