WKT,latitude,longitude,street,postalcode,city,description
"POINT (4.0233 51.25107)",51.25107,4.02330,Pastoor Doensstraat, 4566 AM, Heikant,https://waarneming.nl/observation/336305057/
"POINT (4.1171 51.43211)",51.43211,4.11710,Doelstraat, 4413 BG, Krabbendijke,https://waarneming.nl/observation/336903402/
"POINT (3.51528 51.47675)",51.47675,3.51528,Strand Koudekerke, 4371 XZ, Koudekerke,https://waarneming.nl/observation/336261802/
"POINT (3.65657 51.55184)",51.55184,3.65657,Patrijzenlaan, 4351 RW, Zanddijk,https://waarneming.nl/observation/336446480/
"POINT (3.92034 51.49107)",51.49107,3.92034,Oostmolenweg, 4481 PK, Kloetinge,https://waarneming.nl/observation/336422269/
"POINT (3.62419 51.50164)",51.50164,3.62419,Dampoortstraat, 4332 AV, Middelburg,https://waarneming.nl/observation/336693107/
"POINT (3.52532 51.47161)",51.47161,3.52532,Verlengde Dishoekseweg, 4371 NV, Koudekerke,https://waarneming.nl/observation/336699241/
"POINT (3.74241 51.7085)",51.70850,3.74241,Vroonweg, 4328 ER, Burgh-Haamstede,https://waarneming.nl/observation/336750672/
"POINT (3.87537 51.28107)",51.28107,3.87537,Kruisweg, 4571 SH, Sluiskil,https://waarneming.nl/observation/336750973/
"POINT (3.73232 51.33544)",51.33544,3.73232,Braakmanweg, 4521 RD, Biervliet,https://waarneming.nl/observation/336867228/
"POINT (3.54774 51.45728)",51.45728,3.54774,Westduinpad, 4384 LT, Vlissingen,https://waarneming.nl/observation/337103624/
"POINT (3.54579 51.45738)",51.45738,3.54579,Westduinpad, 4384 LT, Vlissingen,https://waarneming.nl/observation/337109406/
"POINT (3.61303 51.58557)",51.58557,3.61303,Hesselbergshoofd, 4354 PB, Vrouwenpolder,https://waarneming.nl/observation/337323202/
"POINT (3.61403 51.58698)",51.58698,3.61403,Hopman de Rijklaan, 4354 NS, Vrouwenpolder,https://waarneming.nl/observation/368312851/
"POINT (3.87676 51.28074)",51.28074,3.87676,Graaf Jansdijk, 4571 SH, Axel,https://waarneming.nl/observation/337449288/
"POINT (3.5455 51.45813)",51.45813,3.54550,Burgemeester van Woelderenlaan, 4384 KK, Vlissingen,https://waarneming.nl/observation/337588356/
"POINT (3.65291 51.54834)",51.54834,3.65291,Ravelijn, 4351 TB, Zanddijk,https://waarneming.nl/observation/337628587/
"POINT (3.54755 51.45704)",51.45704,3.54755,Westduinpad, 4384 LT, Vlissingen,https://waarneming.nl/observation/337706509/
"POINT (3.83772 51.32823)",51.32823,3.83772,Zuidlandstraat, 4532 CG, Terneuzen,https://waarneming.nl/observation/337758061/
"POINT (3.73297 51.33706)",51.33706,3.73297,Braakmanweg, 4521 RD, Biervliet,https://waarneming.nl/observation/337999032/
"POINT (3.86199 51.50147)",51.50147,3.86199,Plein, 4472 AV, 's-Heer Hendrikskinderen,https://waarneming.nl/observation/338055680/
"POINT (3.56629 51.45552)",51.45552,3.56629,President Rooseveltlaan, 4383 BZ, Vlissingen,https://waarneming.nl/observation/338442029/
"POINT (3.51427 51.48633)",51.48633,3.51427,Vroonweg, 4373 RL, Biggekerke,https://waarneming.nl/observation/338572744/
"POINT (3.89337 51.50869)",51.50869,3.89337,Albert Joachimikade, 4461 BG, Goes,https://waarneming.nl/observation/338653607/
"POINT (3.65314 51.54774)",51.54774,3.65314,Ravelijn, 4351 TB, Zanddijk,https://waarneming.nl/observation/338741237/
"POINT (3.97626 51.34729)",51.34729,3.97626,Zuiddijk, 4585 PP, Hengstdijk,https://waarneming.nl/observation/338902381/
"POINT (4.22634 51.54014)",51.54014,4.22634,Nieuwe Postweg, 4691 SM, Tholen,https://waarneming.nl/observation/339746677/
"POINT (3.77066 51.73326)",51.73326,3.77066,Oude Moolweg, 4325 BZ, Renesse,https://waarneming.nl/observation/339627672/
"POINT (3.54872 51.45732)",51.45732,3.54872,Westduinpad, 4384 LT, Vlissingen,https://waarneming.nl/observation/339740584/
"POINT (4.22596 51.53958)",51.53958,4.22596,Nieuwe Postweg, 4691 SM, Tholen,https://waarneming.nl/observation/339742221/
"POINT (3.72374 51.32583)",51.32583,3.72374,Braakmanweg, 4521 PV, Biervliet,https://waarneming.nl/observation/340067405/
"POINT (4.2254 51.53986)",51.53986,4.22540,Nieuwe Postweg, 4691 SM, Tholen,https://waarneming.nl/observation/340118117/
"POINT (3.87625 51.27858)",51.27858,3.87625,Graaf Jansdijk, 4571 SG, Axel,https://waarneming.nl/observation/340203211/
"POINT (3.56489 51.45981)",51.45981,3.56489,Sloeweg, 4385 KL, Vlissingen,https://waarneming.nl/observation/340878704/
"POINT (3.50823 51.54499)",51.54499,3.50823,Prelaatweg, 4363 NE, Aagtekerke,https://waarneming.nl/observation/340945388/
"POINT (3.88213 51.29599)",51.29599,3.88213,Spui, 4571 SL, Axel,https://waarneming.nl/observation/341202421/
"POINT (3.47124 51.32505)",51.32505,3.47124,Noordelijke Brugsevaartdijkweg, 4501 NM, Oostburg,https://waarneming.nl/observation/341396740/
"POINT (3.50005 51.56465)",51.56465,3.50005,Park Loverendale, 4357 BZ, Domburg,https://waarneming.nl/observation/341408612/
"POINT (3.89265 51.50907)",51.50907,3.89265,Albert Joachimikade, 4461 BG, Goes,https://waarneming.nl/observation/341670580/
"POINT (3.88802 51.49675)",51.49675,3.88802,van Hertumweg, 4462 EV, Goes,https://waarneming.nl/observation/342793291/
"POINT (3.74469 51.33709)",51.33709,3.74469,Wevelswaaldijk, 4542 SN, Hoek,https://waarneming.nl/observation/343441702/
"POINT (4.03407 51.48975)",51.48975,4.03407,Breeweg, 4401 BN, Yerseke,https://waarneming.nl/observation/343883247/
"POINT (3.48622 51.32329)",51.32329,3.48622,Nieuwstraat, 4501 BE, Oostburg,https://waarneming.nl/observation/344034058/
"POINT (3.90114 51.23422)",51.23422,3.90114,Boekweitstraat, 4574 RH, Zuiddorpe,https://waarneming.nl/observation/344191628/
"POINT (3.48325 51.32739)",51.32739,3.48325,Zuidzandsestraat, 4501 AM, Oostburg,https://waarneming.nl/observation/344250114/
"POINT (3.87485 51.28208)",51.28208,3.87485,Tractaatweg, 4571 SH, Sluiskil,https://waarneming.nl/observation/344310270/
"POINT (3.82327 51.33526)",51.33526,3.82327,Klaassenstraat, 4531 AD, Terneuzen,https://waarneming.nl/observation/344354757/
"POINT (4.05738 51.26)",51.26000,4.05738,De Verrekijker, 4564 DA, Sint Jansteen,https://waarneming.nl/observation/344381496/
"POINT (3.54524 51.4569)",51.45690,3.54524,Westduinpad, 4384 LT, Vlissingen,https://waarneming.nl/observation/344386702/
"POINT (3.84114 51.32992)",51.32992,3.84114,Aagje Dekenstraat, 4532 CT, Terneuzen,https://waarneming.nl/observation/344981115/
"POINT (4.1788 51.41639)",51.41639,4.17880,Oostkilstraat, 4411 AA, Rilland,https://waarneming.nl/observation/344826056/
"POINT (4.047 51.28993)",51.28993,4.04700,Clausstraat, 4561 JC, Hulst,https://waarneming.nl/observation/344895075/
"POINT (4.0494 51.29409)",51.29409,4.04940,Kievitstraat, 4561 KK, Hulst,https://waarneming.nl/observation/344896223/
"POINT (3.88149 51.50398)",51.50398,3.88149,Bankertstraat, 4461 XL, Goes,https://waarneming.nl/observation/344893449/
"POINT (4.18468 51.41711)",51.41711,4.18468,Swaanhilstraat, 4411 BL, Rilland,https://waarneming.nl/observation/345001312/
"POINT (3.85349 51.33198)",51.33198,3.85349,Swammerdamstraat, 4532 KT, Terneuzen,https://waarneming.nl/observation/345180389/
"POINT (3.92262 51.26606)",51.26606,3.92262,Sint Maartenlaan, 4571 CT, Axel,https://waarneming.nl/observation/345151243/
"POINT (3.85446 51.24966)",51.24966,3.85446,Graafjansdijk B, 4554 LG, Westdorpe,https://waarneming.nl/observation/345213549/
"POINT (4.03299 51.2506)",51.25060,4.03299,Vlasstraat, 4566 BC, Heikant,https://waarneming.nl/observation/345352126/
"POINT (3.60591 51.50949)",51.50949,3.60591,Noordweg, 4333 GD, Middelburg,https://waarneming.nl/observation/345281383/
"POINT (3.38607 51.34643)",51.34643,3.38607,Prins Mauritsstraat, 4525 AJ, Retranchement,https://waarneming.nl/observation/345553741/
"POINT (4.01838 51.37431)",51.37431,4.01838,Trompstraat, 4587 ER, Kloosterzande,https://waarneming.nl/observation/345695980/
"POINT (4.06164 51.26094)",51.26094,4.06164,Roskamstraat, 4564 EK, Sint Jansteen,https://waarneming.nl/observation/345643424/
"POINT (3.86312 51.33455)",51.33455,3.86312,Robijnboog, 4533 BA, Terneuzen,https://waarneming.nl/observation/345843071/
"POINT (3.62447 51.48992)",51.48992,3.62447,Papisland, 4337 CZ, Middelburg,https://waarneming.nl/observation/345907401/
"POINT (3.9069 51.26314)",51.26314,3.90690,Zuidsingel, 4571 HP, Axel,https://waarneming.nl/observation/345917121/
"POINT (3.39101 51.30752)",51.30752,3.39101,Pater Brugmanstraat, 4524 AW, Sluis,https://waarneming.nl/observation/345918310/
"POINT (4.16394 51.61708)",51.61708,4.16394,Schoolstraat, 4675 BL, Sint Philipsland,https://waarneming.nl/observation/345945714/
"POINT (4.15999 51.55033)",51.55033,4.15999,Kadijk, 4691 PL, Poortvliet,https://waarneming.nl/observation/346045585/
"POINT (3.91259 51.30712)",51.30712,3.91259,Axelsestraat, 4543 CG, Zaamslag,https://waarneming.nl/observation/346099795/
"POINT (3.90298 51.49489)",51.49489,3.90298,Joannaplantsoen, 4462 AV, Goes,https://waarneming.nl/observation/345991550/
"POINT (3.84863 51.73727)",51.73727,3.84863,De Achthoek, 4322 DA, Scharendijke,https://waarneming.nl/observation/346010549/
"POINT (3.60161 51.52699)",51.52699,3.60161,Burgemeester Baaslaan, 4333 LJ, Sint Laurens,https://waarneming.nl/observation/346028857/
"POINT (4.02221 51.47073)",51.47073,4.02221,Kamperweg, 4417 PC, Hansweert,https://waarneming.nl/observation/346122097/
"POINT (3.50797 51.51522)",51.51522,3.50797,Boogerdswegeling, 4365 BE, Meliskerke,https://waarneming.nl/observation/346238297/
"POINT (3.83446 51.23244)",51.23244,3.83446,Schuttersweide, 4554 CX, Westdorpe,https://waarneming.nl/observation/346214011/
"POINT (4.03665 51.25276)",51.25276,4.03665,Vlasstraat, 4566 BC, Heikant,https://waarneming.nl/observation/346204797/
"POINT (3.91791 51.49686)",51.49686,3.91791,Schimmelpenninckstraat, 4481 AJ, Kloetinge,https://waarneming.nl/observation/347255481/
"POINT (3.9662 51.48796)",51.48796,3.96620,Vroonlandseweg, 4421 GK, Biezelinge,https://waarneming.nl/observation/346324836/
"POINT (4.05216 51.283)",51.28300,4.05216,Walmolenstraat, 4561 BE, Hulst,https://waarneming.nl/observation/346348019/
"POINT (3.59398 51.49532)",51.49532,3.59398,Voorborch, 4335 AW, Middelburg,https://waarneming.nl/observation/349346055/
"POINT (3.60377 51.46084)",51.46084,3.60377,De Deckerestraat, 4388 HV, Oost-Souburg,https://waarneming.nl/observation/349345907/
"POINT (4.11452 51.42599)",51.42599,4.11452,Oude Rijksweg, 4413 NK, Krabbendijke,https://waarneming.nl/observation/349345666/
"POINT (3.59092 51.46803)",51.46803,3.59092,Tuinstraat, 4386 BB, Vlissingen,https://waarneming.nl/observation/349345150/
"POINT (4.10271 51.4352)",51.43520,4.10271,Rosierlaan, 4413 HC, Krabbendijke,https://waarneming.nl/observation/346489262/
"POINT (4.05137 51.29336)",51.29336,4.05137,Leeuwerikstraat, 4561 KM, Hulst,https://waarneming.nl/observation/346396380/
"POINT (3.79828 51.70041)",51.70041,3.79828,Serooskerkseweg, 4327 SE, Serooskerke,https://waarneming.nl/observation/347869477/
"POINT (3.55586 51.3928)",51.39280,3.55586,Dokter Broodmanstraat, 4511 EP, Breskens,https://waarneming.nl/observation/346529421/
"POINT (3.88966 51.21307)",51.21307,3.88966,Zuiddorpseweg, 4575 NK, Overslag,https://waarneming.nl/observation/346544192/
"POINT (3.49624 51.32985)",51.32985,3.49624,Bredestraat, 4501 EB, Oostburg,https://waarneming.nl/observation/346522850/
"POINT (4.06894 51.56933)",51.56933,4.06894,Koekoeksweg, 4695 RP, Sint-Maartensdijk,https://waarneming.nl/observation/346567907/
"POINT (4.04441 51.28449)",51.28449,4.04441,Saxhavenstraat, 4561 HB, Hulst,https://waarneming.nl/observation/346753638/
"POINT (4.05254 51.25832)",51.25832,4.05254,Heerstraat, 4564 EC, Sint Jansteen,https://waarneming.nl/observation/346752986/
"POINT (3.6452 51.34033)",51.34033,3.64520,Nieuwlandseweg, 4522 GX, Biervliet,https://waarneming.nl/observation/346756710/
"POINT (3.46259 51.2462)",51.24620,3.46259,Biezenstraat, 4529 JK, Eede,https://waarneming.nl/observation/347045840/
"POINT (3.90779 51.48986)",51.48986,3.90779,Simon Vestdijklaan, 4481 DM, Kloetinge,https://waarneming.nl/observation/346949894/
"POINT (3.91267 51.7239)",51.72390,3.91267,Zuiddijkstraat, 4318 BE, Brouwershaven,https://waarneming.nl/observation/346717063/
"POINT (3.45705 51.38719)",51.38719,3.45705,Baanstpoldersedijk, 4504 RR, Nieuwvliet,https://waarneming.nl/observation/346794215/
"POINT (3.85767 51.30798)",51.30798,3.85767,Everingen, 4535 JC, Terneuzen,https://waarneming.nl/observation/346870285/
"POINT (3.57806 51.45426)",51.45426,3.57806,Tooroplaan, 4382 VR, Vlissingen,https://waarneming.nl/observation/347253227/
"POINT (4.21816 51.53876)",51.53876,4.21816,Jan van Beaumontstraat, 4691 JB, Tholen,https://waarneming.nl/observation/346810981/
"POINT (3.91351 51.31065)",51.31065,3.91351,Brouwerijstraat, 4543 CX, Zaamslag,https://waarneming.nl/observation/346812354/
"POINT (3.91635 51.26603)",51.26603,3.91635,Polenstraat, 4571 BZ, Axel,https://waarneming.nl/observation/346942499/
"POINT (3.61493 51.5715)",51.57150,3.61493,Schoolstraat, 4354 AK, Vrouwenpolder,https://waarneming.nl/observation/346991539/
"POINT (3.86391 51.50375)",51.50375,3.86391,Humphreyshof, 4472 BN, 's-Heer Hendrikskinderen,https://waarneming.nl/observation/347264963/
"POINT (3.79579 51.22947)",51.22947,3.79579,Glacisstraat, 4551 AM, Sas van Gent,https://waarneming.nl/observation/347219433/
"POINT (3.60882 51.50487)",51.50487,3.60882,Seislaan, 4333 GX, Middelburg,https://waarneming.nl/observation/347099664/
"POINT (3.85777 51.31947)",51.31947,3.85777,Langs de Kreek, 4535 CA, Terneuzen,https://waarneming.nl/observation/347137892/
"POINT (3.83866 51.48208)",51.48208,3.83866,Oude Hoeveweg, 4444 SR, 's-Heer Abtskerke,https://waarneming.nl/observation/347177263/
"POINT (3.83141 51.28041)",51.28041,3.83141,Regentenstraat, 4541 EZ, Sluiskil,https://waarneming.nl/observation/347156537/
"POINT (3.92062 51.26619)",51.26619,3.92062,Bachstraat, 4571 XT, Axel,https://waarneming.nl/observation/347215207/
"POINT (3.65653 51.54036)",51.54036,3.65653,Veerseweg, 4351 NA, Zanddijk,https://waarneming.nl/observation/347429610/
"POINT (3.82999 51.33317)",51.33317,3.82999,Tramstraat, 4537 PC, Terneuzen,https://waarneming.nl/observation/347493137/
"POINT (3.90279 51.23411)",51.23411,3.90279,Hoofdweg Zuid, 4574 RT, Zuiddorpe,https://waarneming.nl/observation/347264261/
"POINT (3.82453 51.4919)",51.49190,3.82453,Wissekerkseweg, 4458 BJ, 's-Heer Arendskerke,https://waarneming.nl/observation/347297878/
"POINT (3.78027 51.30764)",51.30764,3.78027,Margrietstraat, 4542 AT, Hoek,https://waarneming.nl/observation/347439779/
"POINT (4.11977 51.43108)",51.43108,4.11977,Watervliet, 4413 GD, Krabbendijke,https://waarneming.nl/observation/347323434/
"POINT (3.90031 51.64906)",51.64906,3.90031,Zeehondenplaat, 4301 WV, Zierikzee,https://waarneming.nl/observation/347322423/
"POINT (3.89982 51.6477)",51.64770,3.89982,Mantelmeeuwstraat, 4301 WT, Zierikzee,https://waarneming.nl/observation/347332003/
"POINT (3.7484 51.42645)",51.42645,3.74840,Monsterweg, 4454 AC, Borssele,https://waarneming.nl/observation/347464538/
"POINT (3.63646 51.48257)",51.48257,3.63646,Bluesroute, 4337 WC, Middelburg,https://waarneming.nl/observation/347507497/
"POINT (3.93738 51.69154)",51.69154,3.93738,Maria de Potterestraat, 4317 BC, Noordgouwe,https://waarneming.nl/observation/347518014/
"POINT (4.05233 51.49879)",51.49879,4.05233,ten Houtenstraat, 4401 KV, Yerseke,https://waarneming.nl/observation/348043160/
"POINT (3.9152 51.3149)",51.31490,3.91520,Heer Janstraat, 4543 AM, Zaamslag,https://waarneming.nl/observation/347619103/
"POINT (3.4899 51.32462)",51.32462,3.48990,Burgemeester I. van Houtestraat, 4501 CE, Oostburg,https://waarneming.nl/observation/347753352/
"POINT (3.85638 51.31602)",51.31602,3.85638,Michiel de Ruijtersingel, 4535 AZ, Terneuzen,https://waarneming.nl/observation/348114006/
"POINT (3.44479 51.27533)",51.27533,3.44479,Peurssensstraat, 4527 BL, Aardenburg,https://waarneming.nl/observation/348089392/
"POINT (3.49357 51.27241)",51.27241,3.49357,Sint Pietersdijk, 4528 EE, Sint Kruis,https://waarneming.nl/observation/347825152/
"POINT (3.55031 51.38833)",51.38833,3.55031,Oude Rijksweg, 4511 HW, Breskens,https://waarneming.nl/observation/347829416/
"POINT (3.50311 51.32571)",51.32571,3.50311,Weegschaal, 4501 HS, Oostburg,https://waarneming.nl/observation/348024218/
"POINT (3.96793 51.22918)",51.22918,3.96793,Wouterij, 4576 AG, Koewacht,https://waarneming.nl/observation/348000064/
"POINT (3.60963 51.33289)",51.33289,3.60963,Zachariasweg, 4515 MC, IJzendijke,https://waarneming.nl/observation/348000222/
"POINT (4.04912 51.27331)",51.27331,4.04912,Steensedijk, 4561 GL, Hulst,https://waarneming.nl/observation/347994965/
"POINT (3.82118 51.49913)",51.49913,3.82118,Noordweegseweg, 4458 AT, 's-Heer Arendskerke,https://waarneming.nl/observation/348169814/
"POINT (3.39809 51.38009)",51.38009,3.39809,Boulevard de Wielingen, 4506 JH, Cadzand-Bad,https://waarneming.nl/observation/347965272/
"POINT (3.57517 51.4615)",51.46150,3.57517,Prattenburg, 4385 EV, Vlissingen,https://waarneming.nl/observation/348546278/
"POINT (3.44696 51.27243)",51.27243,3.44696,Burchtstraat, 4527 CH, Aardenburg,https://waarneming.nl/observation/348090460/
"POINT (3.68687 51.32876)",51.32876,3.68687,Burgemeester Maarleveldstraat, 4521 BJ, Biervliet,https://waarneming.nl/observation/348185730/
"POINT (3.61538 51.3258)",51.32580,3.61538,Stevinstraat, 4515 GB, IJzendijke,https://waarneming.nl/observation/348289622/
"POINT (3.98227 51.35089)",51.35089,3.98227,Plattedijk, 4585 PT, Hengstdijk,https://waarneming.nl/observation/348313809/
"POINT (3.57783 51.46417)",51.46417,3.57783,Zuilenburg, 4385 GV, Vlissingen,https://waarneming.nl/observation/348510258/
"POINT (3.95424 51.4875)",51.48750,3.95424,Sterappelstraat, 4421 LE, Biezelinge,https://waarneming.nl/observation/348718859/
"POINT (3.90667 51.50992)",51.50992,3.90667,Stadhouderslaan, 4461 TT, Goes,https://waarneming.nl/observation/354058325/
"POINT (3.96108 51.48415)",51.48415,3.96108,Alexanderstraat, 4421 CG, Biezelinge,https://waarneming.nl/observation/354058018/
"POINT (3.90917 51.25856)",51.25856,3.90917,Kinderdijk, 4571 SW, Axel,https://waarneming.nl/observation/348945671/
"POINT (3.53742 51.32637)",51.32637,3.53742,Steenhovensedijk, 4508 KA, Waterlandkerkje,https://waarneming.nl/observation/349116971/
"POINT (3.95325 51.22767)",51.22767,3.95325,Nieuwe Karnemelkstraat, 4576 BT, Koewacht,https://waarneming.nl/observation/348978265/
"POINT (4.21835 51.53919)",51.53919,4.21835,Maria van Vlaanderenstraat, 4691 JC, Tholen,https://waarneming.nl/observation/349051872/
"POINT (4.0213 51.25034)",51.25034,4.02130,Julianastraat, 4566 AG, Heikant,https://waarneming.nl/observation/349134029/
"POINT (3.78381 51.74033)",51.74033,3.78381,Laone, 4325 EJ, Renesse,https://waarneming.nl/observation/349222703/
"POINT (4.08805 51.66146)",51.66146,4.08805,'t Hoefje, 4311 EZ, Bruinisse,https://waarneming.nl/observation/349669359/
"POINT (3.59605 51.38149)",51.38149,3.59605,Nummer Eén, 4513 KR, Hoofdplaat,https://waarneming.nl/observation/349302120/
"POINT (4.15412 51.41854)",51.41854,4.15412,Rijksweg A58, 4411 RH, Rilland,https://waarneming.nl/observation/349637930/
"POINT (3.48694 51.3243)",51.32430,3.48694,Nieuwstraat, 4501 BC, Oostburg,https://waarneming.nl/observation/349916187/
"POINT (3.88614 51.4081)",51.40810,3.88614,Torenstraat, 4435 AL, Baarland,https://waarneming.nl/observation/349693622/
"POINT (3.55475 51.39391)",51.39391,3.55475,Dorpsstraat, 4511 EC, Breskens,https://waarneming.nl/observation/350844333/
"POINT (3.91248 51.51698)",51.51698,3.91248,Karrelanden, 4464 JH, Goes,https://waarneming.nl/observation/349777865/
"POINT (3.50644 51.37671)",51.37671,3.50644,Jonkheer Meester de Casembrootstraat, 4503 AM, Groede,https://waarneming.nl/observation/349828810/
"POINT (3.849 51.33151)",51.33151,3.84900,Madame Curiehof, 4532 HX, Terneuzen,https://waarneming.nl/observation/350056363/
"POINT (3.66317 51.36946)",51.36946,3.66317,Oostlangeweg, 4513 KB, Hoofdplaat,https://waarneming.nl/observation/351753098/
"POINT (3.8078 51.55823)",51.55823,3.80780,Soetelaer, 4484 DB, Kortgene,https://waarneming.nl/observation/350035449/
"POINT (3.81638 51.38924)",51.38924,3.81638,Zomerstraat, 4437 AD, Ellewoutsdijk,https://waarneming.nl/observation/350048903/
"POINT (3.83352 51.27012)",51.27012,3.83352,Kanaalzicht, 4541 CJ, Sluiskil,https://waarneming.nl/observation/350181720/
"POINT (3.59425 51.49297)",51.49297,3.59425,Kruisweg, 4335 CT, Middelburg,https://waarneming.nl/observation/350152476/
"POINT (3.55697 51.48307)",51.48307,3.55697,Middelburgsestraat, 4371 ET, Koudekerke,https://waarneming.nl/observation/350164942/
"POINT (4.07529 51.29122)",51.29122,4.07529,Koekoeksbloem, 4561 TL, Hulst,https://waarneming.nl/observation/350276864/
"POINT (3.49941 51.32932)",51.32932,3.49941,Schorpioen, 4501 HA, Oostburg,https://waarneming.nl/observation/350248988/
"POINT (3.91765 51.26285)",51.26285,3.91765,Robertstraat, 4571 AS, Axel,https://waarneming.nl/observation/350356134/
"POINT (4.03867 51.44651)",51.44651,4.03867,Molenmeet, 4416 BX, Kruiningen,https://waarneming.nl/observation/350388445/
"POINT (3.82879 51.28114)",51.28114,3.82879,Drostlaan, 4541 ER, Sluiskil,https://waarneming.nl/observation/350478074/
"POINT (3.49964 51.32878)",51.32878,3.49964,Schorpioen, 4501 HA, Oostburg,https://waarneming.nl/observation/350595288/
"POINT (3.95469 51.24229)",51.24229,3.95469,Matthijsstraat, 4576 CN, Koewacht,https://waarneming.nl/observation/350621904/
"POINT (3.42382 51.2696)",51.26960,3.42382,Plaatweg, 4524 KK, Sluis,https://waarneming.nl/observation/351063864/
"POINT (3.77802 51.30212)",51.30212,3.77802,Mauritsfort, 4542 LA, Hoek,https://waarneming.nl/observation/350910748/
"POINT (3.83316 51.27632)",51.27632,3.83316,Canisvlietstraat, 4541 BE, Sluiskil,https://waarneming.nl/observation/351123076/
"POINT (3.97842 51.22524)",51.22524,3.97842,Tragel, 4576 EP, Koewacht,https://waarneming.nl/observation/351108180/
"POINT (3.77378 51.45287)",51.45287,3.77378,van Zijlstraat, 4453 BA, 's-Heerenhoek,https://waarneming.nl/observation/351291821/
"POINT (3.90809 51.26888)",51.26888,3.90809,Stationsstraat, 4571 LB, Axel,https://waarneming.nl/observation/351365996/
"POINT (3.81267 51.32413)",51.32413,3.81267,Wulpenbek, 4542 PS, Hoek,https://waarneming.nl/observation/351467631/
"POINT (3.77707 51.27969)",51.27969,3.77707,Seydelitzbuitendijk, 4553 NK, Philippine,https://waarneming.nl/observation/351441247/
"POINT (4.17244 51.41685)",51.41685,4.17244,Kempensdam, 4411 DG, Rilland,https://waarneming.nl/observation/351452483/
"POINT (3.76161 51.28399)",51.28399,3.76161,Braakmanweg, 4553 NH, Philippine,https://waarneming.nl/observation/354058502/
"POINT (3.96452 51.48694)",51.48694,3.96452,Langegracht, 4421 EZ, Biezelinge,https://waarneming.nl/observation/351546730/
"POINT (3.76572 51.28272)",51.28272,3.76572,Spuikompark, 4553 BD, Philippine,https://waarneming.nl/observation/351818101/
"POINT (3.91121 51.49043)",51.49043,3.91121,H Roland Holstlaan, 4481 DG, Kloetinge,https://waarneming.nl/observation/351826087/
"POINT (3.88612 51.56805)",51.56805,3.88612,Middenstraat, 4485 AJ, Kats,https://waarneming.nl/observation/351899921/
"POINT (3.62833 51.49464)",51.49464,3.62833,Kruitmolenlaan, 4337 KN, Middelburg,https://waarneming.nl/observation/352182367/
"POINT (3.72342 51.67993)",51.67993,3.72342,De Haaijmanweg, 4328 PV, Burgh-Haamstede,https://waarneming.nl/observation/352154378/
"POINT (4.16475 51.29508)",51.29508,4.16475,Cuwaertstraat, 4568 BJ, Nieuw Namen,https://waarneming.nl/observation/352200194/
"POINT (3.86293 51.32786)",51.32786,3.86293,Laan van Othene, 4533 DB, Terneuzen,https://waarneming.nl/observation/352244578/
"POINT (3.91261 51.31622)",51.31622,3.91261,Polderstraat, 4543 AA, Zaamslag,https://waarneming.nl/observation/352296757/
"POINT (3.90068 51.49727)",51.49727,3.90068,Ruisdaelstraat, 4462 AC, Goes,https://waarneming.nl/observation/352578398/
"POINT (4.03916 51.49601)",51.49601,4.03916,Nederhof, 4401 JX, Yerseke,https://waarneming.nl/observation/352464808/
"POINT (3.81183 51.26581)",51.26581,3.81183,Zandstraat, 4551 LH, Sas van Gent,https://waarneming.nl/observation/352672807/
"POINT (3.43006 51.34884)",51.34884,3.43006,Provincialeweg, 4505 PJ, Zuidzande,https://waarneming.nl/observation/354058724/
"POINT (3.82636 51.33496)",51.33496,3.82636,Vlooswijkstraat, 4531 CE, Terneuzen,https://waarneming.nl/observation/352759352/
"POINT (3.83543 51.2732)",51.27320,3.83543,Kanaalzicht, 4541 CG, Sluiskil,https://waarneming.nl/observation/352791546/
"POINT (3.83596 51.33187)",51.33187,3.83596,Julianastraat, 4532 AR, Terneuzen,https://waarneming.nl/observation/352881004/
"POINT (3.73847 51.46986)",51.46986,3.73847,Prinses Margrietstraat, 4455 AW, Nieuwdorp,https://waarneming.nl/observation/353007015/
"POINT (3.71795 51.67842)",51.67842,3.71795,Wissewekken, 4328 PX, Burgh-Haamstede,https://waarneming.nl/observation/353066603/
"POINT (3.79164 51.71993)",51.71993,3.79164,Wellandweg, 4326 SL, Noordwelle,https://waarneming.nl/observation/362076886/
"POINT (3.81351 51.55376)",51.55376,3.81351,Spankerlaan, 4484 RG, Kortgene,https://waarneming.nl/observation/353222505/
"POINT (4.04789 51.28798)",51.28798,4.04789,Julianalaan, 4561 JB, Hulst,https://waarneming.nl/observation/353866936/
"POINT (3.60957 51.47326)",51.47326,3.60957,Kroonjuweel, 4388 MD, Oost-Souburg,https://waarneming.nl/observation/353962623/
"POINT (3.87807 51.5151)",51.51510,3.87807,Johnsonlaan, 4463 GW, Goes,https://waarneming.nl/observation/353910465/
"POINT (3.77423 51.31562)",51.31562,3.77423,Gladiolenlaan, 4542 CZ, Hoek,https://waarneming.nl/observation/354111661/
"POINT (3.58856 51.46124)",51.46124,3.58856,Westerzicht, 4385 BM, Vlissingen,https://waarneming.nl/observation/354174245/
"POINT (4.00495 51.26835)",51.26835,4.00495,Tolweg, 4561 RL, Hulst,https://waarneming.nl/observation/354463666/
"POINT (4.05863 51.28637)",51.28637,4.05863,Zoutestraat, 4561 XA, Hulst,https://waarneming.nl/observation/354547371/
"POINT (3.83655 51.29601)",51.29601,3.83655,Frankrijkweg, 4538 BJ, Terneuzen,https://waarneming.nl/observation/354547628/
"POINT (3.714 51.31991)",51.31991,3.71400,Corinaweg, 4521 PS, Biervliet,https://waarneming.nl/observation/354580173/
"POINT (3.77582 51.31516)",51.31516,3.77582,Gladiolenlaan, 4542 CZ, Hoek,https://waarneming.nl/observation/354547820/
"POINT (4.01834 51.36142)",51.36142,4.01834,Hoek en Bosch, 4587 LC, Kloosterzande,https://waarneming.nl/observation/362077648/
"POINT (3.79764 51.22531)",51.22531,3.79764,Nico Uyt den Bogaardstraat, 4551 EC, Sas van Gent,https://waarneming.nl/observation/354728734/
"POINT (3.80479 51.22857)",51.22857,3.80479,Sportkade, 4551 CP, Sas van Gent,https://waarneming.nl/observation/354717137/
"POINT (3.72921 51.47131)",51.47131,3.72921,Havenweg, 4455 TH, Nieuwdorp,https://waarneming.nl/observation/354795564/
"POINT (3.90576 51.50696)",51.50696,3.90576,Mecklenburglaan, 4461 TH, Goes,https://waarneming.nl/observation/354899877/
"POINT (3.84731 51.31204)",51.31204,3.84731,Driewegenstraat, 4536 HJ, Terneuzen,https://waarneming.nl/observation/354938450/
"POINT (3.60161 51.48267)",51.48267,3.60161,Volkerakstraat, 4335 VH, Middelburg,https://waarneming.nl/observation/354949002/
"POINT (4.09454 51.65064)",51.65064,4.09454,Zuidweg, 4311 RG, Bruinisse,https://waarneming.nl/observation/355207402/
"POINT (3.90993 51.49214)",51.49214,3.90993,Martinus Nijhofflaan, 4481 DH, Kloetinge,https://waarneming.nl/observation/355090612/
"POINT (3.90821 51.64661)",51.64661,3.90821,Talingstraat, 4302 WB, Zierikzee,https://waarneming.nl/observation/355288448/
"POINT (3.62185 51.49494)",51.49494,3.62185,Segeersweg, 4337 LD, Middelburg,https://waarneming.nl/observation/355231328/
"POINT (3.86515 51.32706)",51.32706,3.86515,Sperwer, 4533 GL, Terneuzen,https://waarneming.nl/observation/355429441/
"POINT (3.90391 51.43649)",51.43649,3.90391,'s-Gravenpoldersestraat, 4433 RV, Hoedekenskerke,https://waarneming.nl/observation/362077494/
"POINT (4.01379 51.36985)",51.36985,4.01379,Tulpstraat, 4587 AX, Kloosterzande,https://waarneming.nl/observation/355556397/
"POINT (3.76485 51.28232)",51.28232,3.76485,Spuikompark, 4553 BD, Philippine,https://waarneming.nl/observation/355582738/
"POINT (4.05566 51.25817)",51.25817,4.05566,Sint Janshof, 4564 EZ, Sint Jansteen,https://waarneming.nl/observation/355607503/
"POINT (3.87963 51.49492)",51.49492,3.87963,Albert Plesmanweg, 4462 GC, Goes,https://waarneming.nl/observation/355614184/
"POINT (3.5975 51.45843)",51.45843,3.59750,Zuiderzeestraat, 4388 GN, Oost-Souburg,https://waarneming.nl/observation/355620585/
"POINT (3.43709 51.27059)",51.27059,3.43709,Christiaansenstraat, 4527 BA, Aardenburg,https://waarneming.nl/observation/355782139/
"POINT (3.50631 51.54354)",51.54354,3.50631,Prelaatweg, 4363 NB, Aagtekerke,https://waarneming.nl/observation/355694003/
"POINT (3.90912 51.23611)",51.23611,3.90912,Ter Duinenstraat, 4574 PT, Zuiddorpe,https://waarneming.nl/observation/355776801/
"POINT (3.55746 51.38832)",51.38832,3.55746,Ghistelkerke, 4511 JP, Breskens,https://waarneming.nl/observation/355783895/
"POINT (3.60051 51.46294)",51.46294,3.60051,Van Visvlietstraat, 4388 CT, Oost-Souburg,https://waarneming.nl/observation/355813486/
"POINT (4.04277 51.25574)",51.25574,4.04277,Wilhelminastraat, 4564 AA, Sint Jansteen,https://waarneming.nl/observation/355937919/
"POINT (3.85348 51.31526)",51.31526,3.85348,Edvard Grieghof, 4536 ET, Terneuzen,https://waarneming.nl/observation/355940527/
"POINT (3.5527 51.3529)",51.35290,3.55270,Prins Bernhardstraat, 4507 BD, Schoondijke,https://waarneming.nl/observation/356448914/
"POINT (3.38871 51.30924)",51.30924,3.38871,Sint Brandarisstraat, 4524 BH, Sluis,https://waarneming.nl/observation/356040563/
"POINT (3.6616 51.37202)",51.37202,3.66160,Monseigneur Luijpenstraat, 4513 AE, Hoofdplaat,https://waarneming.nl/observation/356979225/
"POINT (4.09333 51.5974)",51.59740,4.09333,Tjalk, 4697 HK, Sint-Annaland,https://waarneming.nl/observation/356154799/
"POINT (4.07231 51.42288)",51.42288,4.07231,Kerkweg, 4414 AD, Waarde,https://waarneming.nl/observation/356326955/
"POINT (3.92898 51.65594)",51.65594,3.92898,Frederik Hendriklaan, 4301 NZ, Zierikzee,https://waarneming.nl/observation/356339721/
"POINT (3.57708 51.46533)",51.46533,3.57708,Kalkoensprenk, 4386 DD, Vlissingen,https://waarneming.nl/observation/356613276/
"POINT (3.61641 51.51465)",51.51465,3.61641,G. de Pagterstraat, 4333 MD, Middelburg,https://waarneming.nl/observation/356632353/
"POINT (4.02386 51.25229)",51.25229,4.02386,Vylainlaan, 4566 AV, Heikant,https://waarneming.nl/observation/356658338/
"POINT (3.78459 51.31423)",51.31423,3.78459,Kreeksingel, 4542 BN, Hoek,https://waarneming.nl/observation/356645857/
"POINT (3.73991 51.46865)",51.46865,3.73991,Prinses Christinastraat, 4455 BC, Nieuwdorp,https://waarneming.nl/observation/356660623/
"POINT (3.50913 51.3783)",51.37830,3.50913,Burgemeester J.C. Everaarslaan, 4503 AB, Groede,https://waarneming.nl/observation/356681450/
"POINT (3.61245 51.49089)",51.49089,3.61245,Isaac Beeckmanstraat, 4336 DD, Middelburg,https://waarneming.nl/observation/356692925/
"POINT (3.55006 51.39933)",51.39933,3.55006,Wulpenlaan, 4511 XB, Breskens,https://waarneming.nl/observation/356837942/
"POINT (4.08917 51.27089)",51.27089,4.08917,Kennedylaan, 4567 CT, Clinge,https://waarneming.nl/observation/357123198/
"POINT (3.83872 51.32425)",51.32425,3.83872,Abeelstraat, 4537 XR, Terneuzen,https://waarneming.nl/observation/357193638/
"POINT (4.20685 51.534)",51.53400,4.20685,Dorsvloer, 4691 DL, Tholen,https://waarneming.nl/observation/357044295/
"POINT (3.9139 51.65107)",51.65107,3.91390,Varremarkt, 4301 ER, Zierikzee,https://waarneming.nl/observation/357038397/
"POINT (3.5076 51.54671)",51.54671,3.50760,Agathastraat, 4363 BD, Aagtekerke,https://waarneming.nl/observation/357065108/
"POINT (3.93337 51.65565)",51.65565,3.93337,Leverdijksepad, 4301 NR, Zierikzee,https://waarneming.nl/observation/357196820/
"POINT (3.83603 51.33519)",51.33519,3.83603,Oesterputten, 4532 AK, Terneuzen,https://waarneming.nl/observation/357194846/
"POINT (3.90021 51.65339)",51.65339,3.90021,Oesterstraat, 4301 ZK, Zierikzee,https://waarneming.nl/observation/357245326/
"POINT (3.90785 51.49365)",51.49365,3.90785,Boudewijn Büchlaan, 4481 DV, Kloetinge,https://waarneming.nl/observation/362078032/
"POINT (3.61452 51.32102)",51.32102,3.61452,Oranjestraat, 4515 CA, IJzendijke,https://waarneming.nl/observation/357306689/
"POINT (3.77101 51.45158)",51.45158,3.77101,Werrilaan, 4453 CA, 's-Heerenhoek,https://waarneming.nl/observation/357364738/
"POINT (3.99451 51.51959)",51.51959,3.99451,Bakkersboogerd, 4424 EJ, Wemeldinge,https://waarneming.nl/observation/357492184/
"POINT (3.43981 51.3654)",51.36540,3.43981,,4506 HN, Cadzand,https://waarneming.nl/observation/357981964/
"POINT (3.99362 51.51998)",51.51998,3.99362,Bakkersboogerd, 4424 EJ, Wemeldinge,https://waarneming.nl/observation/357492017/
"POINT (3.6168 51.48811)",51.48811,3.61680,Statenhove, 4336 CB, Middelburg,https://waarneming.nl/observation/357550463/
"POINT (4.02727 51.24835)",51.24835,4.02727,Magdalenastraat, 4566 BA, Heikant,https://waarneming.nl/observation/357624284/
"POINT (3.9999 51.44887)",51.44887,3.99990,Keeten, 4417 CD, Hansweert,https://waarneming.nl/observation/357665232/
"POINT (3.46722 51.37615)",51.37615,3.46722,Molenweg, 4504 AP, Nieuwvliet,https://waarneming.nl/observation/362078112/
"POINT (4.04419 51.50071)",51.50071,4.04419,Damstraat, 4401 AX, Yerseke,https://waarneming.nl/observation/357652930/
"POINT (3.9847 51.32162)",51.32162,3.98470,Bossestraat, 4581 BA, Vogelwaarde,https://waarneming.nl/observation/357687565/
"POINT (3.83867 51.33085)",51.33085,3.83867,Irenestraat, 4532 BH, Terneuzen,https://waarneming.nl/observation/357705280/
"POINT (3.46769 51.37617)",51.37617,3.46769,Sint Bavodijk, 4504 AP, Nieuwvliet,https://waarneming.nl/observation/357709967/
"POINT (3.982 51.38741)",51.38741,3.98200,Lageweg, 4589 KW, Ossenisse,https://waarneming.nl/observation/357750401/
"POINT (3.77089 51.73212)",51.73212,3.77089,Jan van Renesseweg, 4325 BZ, Renesse,https://waarneming.nl/observation/358307839/
"POINT (3.89578 51.52308)",51.52308,3.89578,Blokjesplaat, 4465 BD, Goes,https://waarneming.nl/observation/358123329/
"POINT (4.08204 51.54137)",51.54137,4.08204,Gorishoeksedijk, 4694 PJ, Scherpenisse,https://waarneming.nl/observation/362078270/
"POINT (3.56886 51.46335)",51.46335,3.56886,Assumburg, 4385 EE, Vlissingen,https://waarneming.nl/observation/362078425/
"POINT (3.79291 51.22703)",51.22703,3.79291,Westdam, 4551 GD, Sas van Gent,https://waarneming.nl/observation/358484973/
"POINT (4.02086 51.3686)",51.36860,4.02086,Hulsterweg, 4587 ED, Kloosterzande,https://waarneming.nl/observation/358421004/
"POINT (3.85109 51.3322)",51.33220,3.85109,Lorentzlaan, 4532 KM, Terneuzen,https://waarneming.nl/observation/358501176/
"POINT (3.84997 51.32116)",51.32116,3.84997,Mozarthof, 4536 AT, Terneuzen,https://waarneming.nl/observation/358614132/
"POINT (3.97307 51.32665)",51.32665,3.97307,Populierenstraat, 4581 BR, Vogelwaarde,https://waarneming.nl/observation/358667936/
"POINT (4.03569 51.44901)",51.44901,4.03569,Burgemeester Elenbaasstraat, 4416 AN, Kruiningen,https://waarneming.nl/observation/358581662/
"POINT (4.14391 51.54404)",51.54404,4.14391,Markt, 4693 CA, Poortvliet,https://waarneming.nl/observation/358679910/
"POINT (4.03115 51.45028)",51.45028,4.03115,,4416 AB, Kruiningen,https://waarneming.nl/observation/359120957/
"POINT (3.70726 51.67707)",51.67707,3.70726,Hoge Hilleweg, 4328 RA, Burgh-Haamstede,https://waarneming.nl/observation/358646003/
"POINT (3.81219 51.49904)",51.49904,3.81219,Arendstraat, 4458 AP, 's-Heer Arendskerke,https://waarneming.nl/observation/358646835/
"POINT (4.19384 51.42927)",51.42927,4.19384,Middenhof, 4411 RW, Rilland,https://waarneming.nl/observation/358765072/
"POINT (4.03135 51.44976)",51.44976,4.03135,H.P.A. Poortvlietpaadje, 4416 CD, Kruiningen,https://waarneming.nl/observation/358782169/
"POINT (3.75157 51.49726)",51.49726,3.75157,Veersemeerstraat, 4456 AZ, Lewedorp,https://waarneming.nl/observation/358974301/
"POINT (4.1448 51.54682)",51.54682,4.14480,Burgemeet, 4693 CJ, Poortvliet,https://waarneming.nl/observation/359096730/
"POINT (3.53219 51.40058)",51.40058,3.53219,Schoneveld, 4511 PL, Breskens,https://waarneming.nl/observation/359081604/
"POINT (3.87214 51.49787)",51.49787,3.87214,Ploegweg, 4462 GW, Goes,https://waarneming.nl/observation/359307970/
"POINT (4.16791 51.61746)",51.61746,4.16791,Julianastraat, 4675 CH, Sint Philipsland,https://waarneming.nl/observation/359307076/
"POINT (3.91434 51.26686)",51.26686,3.91434,Crijnssenstraat, 4571 CB, Axel,https://waarneming.nl/observation/359269755/
"POINT (4.04615 51.26304)",51.26304,4.04615,Wilgenstraat, 4564 CD, Sint Jansteen,https://waarneming.nl/observation/359290755/
"POINT (4.16828 51.61757)",51.61757,4.16828,Julianastraat, 4675 CH, Sint Philipsland,https://waarneming.nl/observation/359305339/
"POINT (4.0766 51.29232)",51.29232,4.07660,Koekoeksbloem, 4561 TL, Hulst,https://waarneming.nl/observation/359377302/
"POINT (3.94286 51.26899)",51.26899,3.94286,Hulsterseweg, 4571 RH, Axel,https://waarneming.nl/observation/359457673/
"POINT (3.38802 51.34412)",51.34412,3.38802,Killedijk, 4525 LP, Retranchement,https://waarneming.nl/observation/359523980/
"POINT (3.8987 51.27079)",51.27079,3.89870,de Savornin Lohmanlaan, 4571 KH, Axel,https://waarneming.nl/observation/359490971/
"POINT (3.43821 51.27845)",51.27845,3.43821,Draaibrugseweg, 4527 PA, Aardenburg,https://waarneming.nl/observation/359623973/
"POINT (4.01282 51.37239)",51.37239,4.01282,Churchillhof, 4587 EV, Kloosterzande,https://waarneming.nl/observation/359615162/
"POINT (4.10748 51.3535)",51.35350,4.10748,Zeestraat, 4569 TG, Graauw,https://waarneming.nl/observation/359622728/
"POINT (3.91354 51.42105)",51.42105,3.91354,Kapuinhoekweg, 4433 BK, Hoedekenskerke,https://waarneming.nl/observation/359717538/
"POINT (3.77971 51.30826)",51.30826,3.77971,Bernhardstraat, 4542 AX, Hoek,https://waarneming.nl/observation/359790879/
"POINT (3.52131 51.31448)",51.31448,3.52131,Klein Brabant, 4508 NG, Waterlandkerkje,https://waarneming.nl/observation/359833420/
"POINT (3.52007 51.31193)",51.31193,3.52007,Klein Brabant, 4508 NZ, Waterlandkerkje,https://waarneming.nl/observation/362078658/
"POINT (3.87508 51.49781)",51.49781,3.87508,Riemwagenweg, 4462 GW, Goes,https://waarneming.nl/observation/362078816/
"POINT (3.65439 51.55285)",51.55285,3.65439,Fazantenlaan, 4351 RV, Zanddijk,https://waarneming.nl/observation/359939244/
"POINT (3.55399 51.56597)",51.56597,3.55399,Pomonastraat, 4356 AK, Oostkapelle,https://waarneming.nl/observation/360023642/
"POINT (3.66018 51.36648)",51.36648,3.66018,Koningin Julianastraat, 4513 AX, Hoofdplaat,https://waarneming.nl/observation/359979341/
"POINT (3.97764 51.34733)",51.34733,3.97764,Zuiddijk, 4585 PP, Hengstdijk,https://waarneming.nl/observation/360194935/
"POINT (3.6065 51.52008)",51.52008,3.60650,Brigdamseweg, 4333 KL, Sint Laurens,https://waarneming.nl/observation/360094963/
"POINT (3.48378 51.32798)",51.32798,3.48378,Burgemeester Gratamastraat, 4501 JD, Oostburg,https://waarneming.nl/observation/360096938/
"POINT (3.92181 51.65596)",51.65596,3.92181,Lange Blokweg, 4301 NX, Zierikzee,https://waarneming.nl/observation/360307299/
"POINT (3.91697 51.4938)",51.49380,3.91697,Oostmolenweg, 4481 PL, Kloetinge,https://waarneming.nl/observation/360207190/
"POINT (3.55602 51.58003)",51.58003,3.55602,Vroonweg, 4356 EV, Oostkapelle,https://waarneming.nl/observation/360382829/
"POINT (3.99812 51.461)",51.46100,3.99812,Boomweidelaan, 4423 AN, Schore,https://waarneming.nl/observation/360307185/
"POINT (4.04507 51.49116)",51.49116,4.04507,Dahlialaan, 4401 GW, Yerseke,https://waarneming.nl/observation/360416331/
"POINT (3.78468 51.31381)",51.31381,3.78468,Kreeksingel, 4542 BN, Hoek,https://waarneming.nl/observation/369259977/
"POINT (3.77635 51.4536)",51.45360,3.77635,Patrijzenpad, 4453 BB, 's-Heerenhoek,https://waarneming.nl/observation/369259779/
"POINT (4.06724 51.30392)",51.30392,4.06724,Zeildijk, 4561 SH, Hulst,https://waarneming.nl/observation/360480631/
"POINT (4.00675 51.31731)",51.31731,4.00675,Margaretsedijk, 4585 PA, Hengstdijk,https://waarneming.nl/observation/360479835/
"POINT (4.19674 51.56645)",51.56645,4.19674,Molenweg, 4698 AW, Oud-Vossemeer,https://waarneming.nl/observation/360530648/
"POINT (3.6057 51.46415)",51.46415,3.60570,Irenestraat, 4388 KW, Oost-Souburg,https://waarneming.nl/observation/361232263/
"POINT (3.59952 51.50404)",51.50404,3.59952,Abbé de Saint Pierre-laan, 4334 AP, Middelburg,https://waarneming.nl/observation/360671621/
"POINT (3.59506 51.54871)",51.54871,3.59506,Vroonstraat, 4353 AE, Serooskerke,https://waarneming.nl/observation/360688192/
"POINT (4.10214 51.32871)",51.32871,4.10214,Rozenstraat, 4569 AV, Graauw,https://waarneming.nl/observation/361281763/
"POINT (3.81897 51.52966)",51.52966,3.81897,Dokter Vosstraat, 4471 CW, Oud-Sabbinge,https://waarneming.nl/observation/362369570/
"POINT (4.02812 51.44693)",51.44693,4.02812,Einsteinstraat, 4416 EL, Kruiningen,https://waarneming.nl/observation/361021314/
"POINT (3.62873 51.45423)",51.45423,3.62873,Rammekensweg, 4389 TZ, Ritthem,https://waarneming.nl/observation/361181611/
"POINT (4.227 51.53912)",51.53912,4.22700,Oud Vossemeersedijk, 4691 SK, Tholen,https://waarneming.nl/observation/361092507/
"POINT (3.90769 51.23661)",51.23661,3.90769,Sint Katrijnstraat, 4574 PZ, Zuiddorpe,https://waarneming.nl/observation/361280658/
"POINT (3.94718 51.70487)",51.70487,3.94718,Zuidweg, 4317 LA, Zonnemaire,https://waarneming.nl/observation/361169445/
"POINT (4.04567 51.2859)",51.28590,4.04567,Moersluisstraat, 4561 HE, Hulst,https://waarneming.nl/observation/361266476/
"POINT (3.87242 51.50519)",51.50519,3.87242,'s-Heer Hendrikskinderendijk, 4461 EC, Goes,https://waarneming.nl/observation/369260563/
"POINT (4.21712 51.53879)",51.53879,4.21712,Burgemeester Wagthoplein, 4691 JH, Tholen,https://waarneming.nl/observation/361373009/
"POINT (3.88567 51.51479)",51.51479,3.88567,Indira Gandhilaan, 4463 JG, Goes,https://waarneming.nl/observation/361430608/
"POINT (3.75417 51.49912)",51.49912,3.75417,Nieuwe Kraaijertsedijk, 4456 NP, Lewedorp,https://waarneming.nl/observation/361574421/
"POINT (3.75672 51.49887)",51.49887,3.75672,Maalweg, 4456 RM, Lewedorp,https://waarneming.nl/observation/361601506/
"POINT (3.76587 51.72264)",51.72264,3.76587,Hogezoom, 4325 CL, Renesse,https://waarneming.nl/observation/361754303/
"POINT (4.21508 51.53662)",51.53662,4.21508,Molenvlietsedijk, 4691 HS, Tholen,https://waarneming.nl/observation/361907017/
"POINT (4.00786 51.44766)",51.44766,4.00786,Berkellaan, 4417 DJ, Hansweert,https://waarneming.nl/observation/362150650/
"POINT (3.56709 51.4626)",51.46260,3.56709,Wilhelmina Druckerlaan, 4385 JA, Vlissingen,https://waarneming.nl/observation/361935005/
"POINT (3.83945 51.32153)",51.32153,3.83945,Akkerwindelaan, 4537 CH, Terneuzen,https://waarneming.nl/observation/361957508/
"POINT (3.6956 51.33028)",51.33028,3.69560,Baarsekreekweg, 4521 PZ, Biervliet,https://waarneming.nl/observation/361990038/
"POINT (3.91394 51.65077)",51.65077,3.91394,Varremarkt, 4301 ER, Zierikzee,https://waarneming.nl/observation/362044181/
"POINT (3.41421 51.37103)",51.37103,3.41421,Ringdijk Noord, 4506 HB, Cadzand,https://waarneming.nl/observation/362077098/
"POINT (3.37713 51.36839)",51.36839,3.37713,Kaapvaartstraat, 4525 NN, Retranchement,https://waarneming.nl/observation/362233039/
"POINT (3.7523 51.49159)",51.49159,3.75230,Nieuwe Kraaijertsedijk, 4456 NP, Lewedorp,https://waarneming.nl/observation/369273578/
"POINT (3.59936 51.55188)",51.55188,3.59936,De Woongaard, 4353 BZ, Serooskerke,https://waarneming.nl/observation/369261623/
"POINT (3.54921 51.56779)",51.56779,3.54921,Blauwe Reiger, 4356 DD, Oostkapelle,https://waarneming.nl/observation/362121550/
"POINT (3.56318 51.46077)",51.46077,3.56318,Rosenburglaan, 4385 KL, Vlissingen,https://waarneming.nl/observation/362145007/
"POINT (3.96917 51.32692)",51.32692,3.96917,Meulenpad, 4581 EA, Vogelwaarde,https://waarneming.nl/observation/362231294/
"POINT (3.91307 51.72416)",51.72416,3.91307,Zuiddijkstraat, 4318 BD, Brouwershaven,https://waarneming.nl/observation/362306976/
"POINT (3.89894 51.68477)",51.68477,3.89894,Kerkweg, 4321 AB, Kerkwerve,https://waarneming.nl/observation/362368127/
"POINT (3.98434 51.32291)",51.32291,3.98434,Esdoornstraat, 4581 AK, Vogelwaarde,https://waarneming.nl/observation/362391546/
"POINT (3.74597 51.42785)",51.42785,3.74597,Kaaiweg, 4454 PN, Borssele,https://waarneming.nl/observation/362458771/
"POINT (3.58577 51.46454)",51.46454,3.58577,Zuiderbaan, 4386 CK, Vlissingen,https://waarneming.nl/observation/362482254/
"POINT (3.50602 51.37928)",51.37928,3.50602,Molenstraat, 4503 BB, Groede,https://waarneming.nl/observation/362821177/
"POINT (3.7297 51.57793)",51.57793,3.72970,Bosdijk, 4493 PD, Kamperland,https://waarneming.nl/observation/362824372/
"POINT (3.89415 51.51098)",51.51098,3.89415,Houtkade, 4463 AC, Goes,https://waarneming.nl/observation/362840836/
"POINT (4.21294 51.54175)",51.54175,4.21294,Garnalenstraat, 4691 KK, Tholen,https://waarneming.nl/observation/362892717/
"POINT (4.11081 51.59742)",51.59742,4.11081,Veilingweg, 4697 RB, Sint-Annaland,https://waarneming.nl/observation/362915465/
"POINT (4.10319 51.43348)",51.43348,4.10319,Rosierlaan, 4413 HC, Krabbendijke,https://waarneming.nl/observation/362972323/
"POINT (4.06622 51.42041)",51.42041,4.06622,Parkzicht, 4414 AG, Waarde,https://waarneming.nl/observation/363068067/
"POINT (3.55031 51.399)",51.39900,3.55031,Wulpenlaan, 4511 XA, Breskens,https://waarneming.nl/observation/363062738/
"POINT (3.85443 51.3092)",51.30920,3.85443,Roerstraat, 4535 GM, Terneuzen,https://waarneming.nl/observation/363083958/
"POINT (3.51063 51.54525)",51.54525,3.51063,Het Baantje, 4363 AG, Aagtekerke,https://waarneming.nl/observation/363560412/
"POINT (4.01504 51.37088)",51.37088,4.01504,Narcisstraat, 4587 BB, Kloosterzande,https://waarneming.nl/observation/363162187/
"POINT (3.51368 51.55122)",51.55122,3.51368,Kalfhoeksepad, 4363 RE, Aagtekerke,https://waarneming.nl/observation/363298155/
"POINT (3.51346 51.55076)",51.55076,3.51346,Kalfhoeksepad, 4363 RH, Aagtekerke,https://waarneming.nl/observation/363222153/
"POINT (3.8027 51.41821)",51.41821,3.80270,van Tilburghstraat, 4438 AJ, Driewegen,https://waarneming.nl/observation/363216242/
"POINT (4.03185 51.44892)",51.44892,4.03185,Henry Dunantstraat, 4416 CL, Kruiningen,https://waarneming.nl/observation/366677180/
"POINT (3.83403 51.27098)",51.27098,3.83403,Kanaalzicht, 4541 CJ, Sluiskil,https://waarneming.nl/observation/363300086/
"POINT (3.98474 51.62393)",51.62393,3.98474,Phoenixstraat, 4305 AL, Ouwerkerk,https://waarneming.nl/observation/363363044/
"POINT (3.97537 51.32618)",51.32618,3.97537,Eikenhof, 4581 DA, Vogelwaarde,https://waarneming.nl/observation/363376148/
"POINT (4.02798 51.45132)",51.45132,4.02798,Marconistraat, 4416 DH, Kruiningen,https://waarneming.nl/observation/363410756/
"POINT (4.07876 51.44317)",51.44317,4.07876,Lavendeldijk, 4415 AK, Oostdijk,https://waarneming.nl/observation/363569698/
"POINT (3.84933 51.32431)",51.32431,3.84933,Schuberthof, 4536 AL, Terneuzen,https://waarneming.nl/observation/363527834/
"POINT (4.07376 51.2925)",51.29250,4.07376,Korenbloem, 4561 TH, Hulst,https://waarneming.nl/observation/363541808/
"POINT (3.80188 51.4165)",51.41650,3.80188,Coudorpseweg, 4438 AL, Driewegen,https://waarneming.nl/observation/363641062/
"POINT (3.89216 51.28957)",51.28957,3.89216,Magrette, 4571 SR, Axel,https://waarneming.nl/observation/364113628/
"POINT (3.89169 51.29009)",51.29009,3.89169,Magrette, 4571 ST, Axel,https://waarneming.nl/observation/364115880/
"POINT (3.80108 51.53193)",51.53193,3.80108,Ring, 4471 PT, Oud-Sabbinge,https://waarneming.nl/observation/367404517/
"POINT (4.10664 51.43113)",51.43113,4.10664,Dorpsstraat, 4413 CG, Krabbendijke,https://waarneming.nl/observation/364205285/
"POINT (3.70704 51.67543)",51.67543,3.70704,Breevosdal, 4328 RK, Burgh-Haamstede,https://waarneming.nl/observation/364218468/
"POINT (4.15321 51.54594)",51.54594,4.15321,Hogeweg, 4693 RJ, Poortvliet,https://waarneming.nl/observation/364243602/
"POINT (3.5052 51.37948)",51.37948,3.50520,Slijkstraat, 4503 BC, Groede,https://waarneming.nl/observation/364244940/
"POINT (3.99448 51.64676)",51.64676,3.99448,Vierbannenstraat, 4306 BH, Nieuwerkerk,https://waarneming.nl/observation/364306719/
"POINT (3.88458 51.51472)",51.51472,3.88458,Indira Gandhilaan, 4463 JG, Goes,https://waarneming.nl/observation/364427895/
"POINT (4.10104 51.60226)",51.60226,4.10104,Julianastraat, 4697 GJ, Sint-Annaland,https://waarneming.nl/observation/364417459/
"POINT (3.56069 51.46692)",51.46692,3.56069,Wildbaan, 4386 GE, Vlissingen,https://waarneming.nl/observation/364424270/
"POINT (3.89977 51.68611)",51.68611,3.89977,Kerkweg, 4321 AC, Kerkwerve,https://waarneming.nl/observation/364465394/
"POINT (4.05576 51.26213)",51.26213,4.05576,Inghelosenberghe, 4564 DK, Sint Jansteen,https://waarneming.nl/observation/364550111/
"POINT (3.94879 51.23264)",51.23264,3.94879,Het Zand, 4576 CC, Koewacht,https://waarneming.nl/observation/364748611/
"POINT (4.04806 51.47891)",51.47891,4.04806,Molendijk, 4401 PG, Yerseke,https://waarneming.nl/observation/364724351/
"POINT (3.92565 51.65219)",51.65219,3.92565,Mulockstraat, 4301 KV, Zierikzee,https://waarneming.nl/observation/364631435/
"POINT (3.81295 51.55591)",51.55591,3.81295,Madelievenwei, 4484 SC, Kortgene,https://waarneming.nl/observation/364751687/
"POINT (3.70998 51.67704)",51.67704,3.70998,Rooiedal, 4328 PZ, Burgh-Haamstede,https://waarneming.nl/observation/364817092/
"POINT (3.77664 51.30132)",51.30132,3.77664,Mauritsfort, 4542 LH, Hoek,https://waarneming.nl/observation/364950110/
"POINT (3.50768 51.56573)",51.56573,3.50768,Domburgseweg, 4357 NE, Domburg,https://waarneming.nl/observation/364968964/
"POINT (3.50969 51.56616)",51.56616,3.50969,Domburgseweg, 4357 NN, Domburg,https://waarneming.nl/observation/365073861/
"POINT (3.79751 51.23094)",51.23094,3.79751,Zeelandiastraat, 4551 AD, Sas van Gent,https://waarneming.nl/observation/364985926/
"POINT (3.55647 51.39529)",51.39529,3.55647,Dorpsstraat, 4511 EB, Breskens,https://waarneming.nl/observation/365023924/
"POINT (3.85407 51.45389)",51.45389,3.85407,Zuidweg, 4443 AA, Nisse,https://waarneming.nl/observation/365140650/
"POINT (3.98058 51.69066)",51.69066,3.98058,Renkumstraat, 4315 AX, Dreischor,https://waarneming.nl/observation/365365709/
"POINT (3.61022 51.4883)",51.48830,3.61022,Benensonstraat, 4336 LK, Middelburg,https://waarneming.nl/observation/365389441/
"POINT (4.06125 51.34033)",51.34033,4.06125,Roverbergsedijk, 4586 LA, Lamswaarde,https://waarneming.nl/observation/365434224/
"POINT (3.69712 51.71063)",51.71063,3.69712,Torenweg, 4328 KA, Burgh-Haamstede,https://waarneming.nl/observation/365534782/
"POINT (4.26283 51.4276)",51.42760,4.26283,Damesweg, 4411 SP, Rilland,https://waarneming.nl/observation/365611643/
"POINT (3.90916 51.31236)",51.31236,3.90916,van der Baanstraat, 4543 CA, Zaamslag,https://waarneming.nl/observation/365647275/
"POINT (3.60584 51.49246)",51.49246,3.60584,Van Heemskerckstraat, 4335 HZ, Middelburg,https://waarneming.nl/observation/365650466/
"POINT (3.89649 51.22934)",51.22934,3.89649,Hoofdweg Zuid, 4574 RZ, Zuiddorpe,https://waarneming.nl/observation/365656589/
"POINT (3.96485 51.48896)",51.48896,3.96485,Bergstraat, 4421 ER, Kapelle,https://waarneming.nl/observation/365720712/
"POINT (3.56025 51.46452)",51.46452,3.56025,Wildbaan, 4386 GE, Vlissingen,https://waarneming.nl/observation/365801825/
"POINT (3.8328 51.73762)",51.73762,3.83280,Kuijerdamseweg, 4322 NM, Scharendijke,https://waarneming.nl/observation/365805865/
"POINT (3.91285 51.50217)",51.50217,3.91285,Langeweide, 4481 CN, Kloetinge,https://waarneming.nl/observation/365867855/
"POINT (4.07571 51.4421)",51.44210,4.07571,Lavendeldijk, 4415 AK, Oostdijk,https://waarneming.nl/observation/365878777/
"POINT (4.01986 51.37126)",51.37126,4.01986,Cor Schelfhoutpad, 4587 EJ, Kloosterzande,https://waarneming.nl/observation/365920025/
"POINT (3.90227 51.34179)",51.34179,3.90227,Schenkeldijk, 4543 PJ, Zaamslag,https://waarneming.nl/observation/365965760/
"POINT (3.73261 51.68605)",51.68605,3.73261,Daleboutsweg, 4328 PN, Burgh-Haamstede,https://waarneming.nl/observation/366128360/
"POINT (3.81942 51.52844)",51.52844,3.81942,Molendijk, 4471 BN, Oud-Sabbinge,https://waarneming.nl/observation/366066538/
"POINT (3.84725 51.31078)",51.31078,3.84725,Driewegenstraat, 4536 HJ, Terneuzen,https://waarneming.nl/observation/366045041/
"POINT (3.89946 51.65428)",51.65428,3.89946,Oesterstraat, 4301 ZL, Zierikzee,https://waarneming.nl/observation/366140750/
"POINT (3.89765 51.49261)",51.49261,3.89765,Esdoornstraat, 4462 VR, Goes,https://waarneming.nl/observation/366142585/
"POINT (4.22688 51.53644)",51.53644,4.22688,Schietbaan, 4691 AB, Tholen,https://waarneming.nl/observation/366205260/
"POINT (3.90014 51.65392)",51.65392,3.90014,Oesterstraat, 4301 ZJ, Zierikzee,https://waarneming.nl/observation/366274233/
"POINT (3.90225 51.46013)",51.46013,3.90225,Goesestraatweg, 4431 CC, 's-Gravenpolder,https://waarneming.nl/observation/366281175/
"POINT (3.96538 51.48438)",51.48438,3.96538,De Doolhof, 4421 GM, Biezelinge,https://waarneming.nl/observation/366338885/
"POINT (3.69031 51.32806)",51.32806,3.69031,Tuinstraat, 4521 BR, Biervliet,https://waarneming.nl/observation/366410456/
"POINT (4.10734 51.33268)",51.33268,4.10734,Oude Kaai, 4569 AB, Graauw,https://waarneming.nl/observation/372123070/
"POINT (3.7178 51.68255)",51.68255,3.71780,Hogeweg, 4328 PK, Burgh-Haamstede,https://waarneming.nl/observation/366562403/
"POINT (4.10251 51.32836)",51.32836,4.10251,Jacintastraat, 4569 AR, Graauw,https://waarneming.nl/observation/366647211/
"POINT (3.97196 51.27815)",51.27815,3.97196,Liniedijk, 4571 PE, Axel,https://waarneming.nl/observation/366791629/
"POINT (4.03486 51.44247)",51.44247,4.03486,Achterwegje, 4416 NK, Kruiningen,https://waarneming.nl/observation/366677168/
"POINT (3.83256 51.73717)",51.73717,3.83256,Kuijerdamseweg, 4322 NM, Scharendijke,https://waarneming.nl/observation/371294590/
"POINT (4.07161 51.41998)",51.41998,4.07161,Julianastraat, 4414 AT, Waarde,https://waarneming.nl/observation/366684406/
"POINT (3.71829 51.6824)",51.68240,3.71829,Bosweg, 4328 NL, Burgh-Haamstede,https://waarneming.nl/observation/366936919/
"POINT (3.97224 51.32502)",51.32502,3.97224,Bossestraat, 4581 BG, Vogelwaarde,https://waarneming.nl/observation/366755231/
"POINT (3.80968 51.41987)",51.41987,3.80968,Schoondijksedijk, 4438 AE, Driewegen,https://waarneming.nl/observation/366814196/
"POINT (3.56243 51.3647)",51.36470,3.56243,Tragel Oost, 4507 JA, Schoondijke,https://waarneming.nl/observation/366906281/
"POINT (4.04266 51.49553)",51.49553,4.04266,Jolstraat, 4401 JC, Yerseke,https://waarneming.nl/observation/366906030/
"POINT (4.01029 51.33276)",51.33276,4.01029,Polderweg, 4585 PG, Hengstdijk,https://waarneming.nl/observation/366894403/
"POINT (3.77958 51.31503)",51.31503,3.77958,Rozenlaan, 4542 CV, Hoek,https://waarneming.nl/observation/366938684/
"POINT (3.55554 51.4801)",51.48010,3.55554,Kerkhoflaan, 4371 CC, Koudekerke,https://waarneming.nl/observation/366952904/
"POINT (4.04191 51.49562)",51.49562,4.04191,Ambachtsherenlaan, 4401 JP, Yerseke,https://waarneming.nl/observation/373804031/
"POINT (3.61216 51.4884)",51.48840,3.61216,Park De Moucheron, 4336 AZ, Middelburg,https://waarneming.nl/observation/367029057/
"POINT (3.6015 51.49338)",51.49338,3.60150,Langevieleweg, 4335 GX, Middelburg,https://waarneming.nl/observation/373796635/
"POINT (3.93764 51.68316)",51.68316,3.93764,Hanenweg, 4317 NJ, Noordgouwe,https://waarneming.nl/observation/373796261/
"POINT (3.51453 51.51466)",51.51466,3.51453,Mariekerkseweg, 4365 AA, Meliskerke,https://waarneming.nl/observation/367052479/
"POINT (3.56297 51.36601)",51.36601,3.56297,Tragel Oost, 4507 JA, Schoondijke,https://waarneming.nl/observation/367039229/
"POINT (3.90927 51.26463)",51.26463,3.90927,Nassaustraat, 4571 BK, Axel,https://waarneming.nl/observation/367014596/
"POINT (4.02436 51.25014)",51.25014,4.02436,Margrietstraat, 4566 AN, Heikant,https://waarneming.nl/observation/367428912/
"POINT (3.75534 51.49193)",51.49193,3.75534,Postweg, 4456 AB, Lewedorp,https://waarneming.nl/observation/367081590/
"POINT (3.90953 51.5048)",51.50480,3.90953,Stelleweg, 4481 NA, Kloetinge,https://waarneming.nl/observation/367071795/
"POINT (3.73491 51.42584)",51.42584,3.73491,Noordsingel, 4454 AG, Borssele,https://waarneming.nl/observation/367135501/
"POINT (4.21043 51.52981)",51.52981,4.21043,Oranjerie, 4691 LK, Tholen,https://waarneming.nl/observation/367219480/
"POINT (3.9084 51.31273)",51.31273,3.90840,Terneuzensestraat, 4543 BP, Zaamslag,https://waarneming.nl/observation/367305289/
"POINT (3.60472 51.37306)",51.37306,3.60472,Sasput, 4507 JV, Schoondijke,https://waarneming.nl/observation/367324959/
"POINT (3.73142 51.68531)",51.68531,3.73142,Daleboutsweg, 4328 PN, Burgh-Haamstede,https://waarneming.nl/observation/371294700/
"POINT (4.03127 51.37612)",51.37612,4.03127,Mariadijk, 4588 KH, Walsoorden,https://waarneming.nl/observation/367568266/
"POINT (4.17365 51.56089)",51.56089,4.17365,Roolandseweg, 4698 PL, Oud-Vossemeer,https://waarneming.nl/observation/367465104/
"POINT (4.04257 51.4875)",51.48750,4.04257,Fuchsialaan, 4401 HV, Yerseke,https://waarneming.nl/observation/367654427/
"POINT (3.77517 51.56702)",51.56702,3.77517,Calvlietlaan, 4494 NZ, Geersdijk,https://waarneming.nl/observation/367637561/
"POINT (3.98606 51.51729)",51.51729,3.98606,Hoogeweg, 4424 NM, Wemeldinge,https://waarneming.nl/observation/373804271/
"POINT (3.8831 51.50157)",51.50157,3.88310,Zuidvlietstraat, 4461 GW, Goes,https://waarneming.nl/observation/367842503/
"POINT (3.56124 51.46478)",51.46478,3.56124,Wildbaan, 4386 GD, Vlissingen,https://waarneming.nl/observation/368772540/
"POINT (3.95505 51.48963)",51.48963,3.95505,Elstarstraat, 4421 DT, Kapelle,https://waarneming.nl/observation/367859135/
"POINT (3.95542 51.48937)",51.48937,3.95542,Elstarstraat, 4421 DT, Biezelinge,https://waarneming.nl/observation/367979346/
"POINT (3.97186 51.32604)",51.32604,3.97186,Populierenstraat, 4581 BW, Vogelwaarde,https://waarneming.nl/observation/367895411/
"POINT (3.93932 51.22678)",51.22678,3.93932,Zandstraat, 4576 BV, Koewacht,https://waarneming.nl/observation/367946542/
"POINT (3.95702 51.22939)",51.22939,3.95702,Nieuwe Karnemelkstraat, 4576 BT, Koewacht,https://waarneming.nl/observation/367945296/
"POINT (3.71225 51.48567)",51.48567,3.71225,Quarlespolderweg, 4455 SN, Lewedorp,https://waarneming.nl/observation/368106144/
"POINT (3.97251 51.32421)",51.32421,3.97251,Bossestraat, 4581 BB, Vogelwaarde,https://waarneming.nl/observation/367998114/
"POINT (4.04629 51.4985)",51.49850,4.04629,Schipperstraat, 4401 AT, Yerseke,https://waarneming.nl/observation/368051597/
"POINT (4.02683 51.24913)",51.24913,4.02683,Magdalenastraat, 4566 BB, Heikant,https://waarneming.nl/observation/368068486/
"POINT (3.5533 51.39129)",51.39129,3.55330,Anker, 4511 KB, Breskens,https://waarneming.nl/observation/368071222/
"POINT (3.80495 51.22899)",51.22899,3.80495,Sportkade, 4551 CP, Sas van Gent,https://waarneming.nl/observation/368100935/
"POINT (3.90286 51.2708)",51.27080,3.90286,Emmastraat, 4571 LE, Axel,https://waarneming.nl/observation/373804654/
"POINT (3.99683 51.52094)",51.52094,3.99683,Binnendijk, 4424 NS, Wemeldinge,https://waarneming.nl/observation/373797149/
"POINT (3.89877 51.27143)",51.27143,3.89877,Singelweg, 4571 KC, Axel,https://waarneming.nl/observation/368218565/
"POINT (3.8797 51.29786)",51.29786,3.87970,Spui, 4539 PB, Spui,https://waarneming.nl/observation/368280966/
"POINT (3.80272 51.56125)",51.56125,3.80272,Molenpad, 4484 CJ, Kortgene,https://waarneming.nl/observation/368148196/
"POINT (3.79221 51.55087)",51.55087,3.79221,West-Bermweg, 4484 NR, Kortgene,https://waarneming.nl/observation/368162250/
"POINT (3.95467 51.48978)",51.48978,3.95467,Elstarstraat, 4421 DT, Kapelle,https://waarneming.nl/observation/368179979/
"POINT (3.77097 51.73028)",51.73028,3.77097,Hogezoom, 4325 BJ, Renesse,https://waarneming.nl/observation/368207477/
"POINT (3.45168 51.26976)",51.26976,3.45168,Paardenmarkt, 4527 GD, Aardenburg,https://waarneming.nl/observation/368215238/
"POINT (4.06092 51.33971)",51.33971,4.06092,Roverbergsedijk, 4586 LA, Lamswaarde,https://waarneming.nl/observation/368233925/
"POINT (3.90847 51.51055)",51.51055,3.90847,Stelleweg, 4464 AK, Kloetinge,https://waarneming.nl/observation/373810692/
"POINT (3.88372 51.50403)",51.50403,3.88372,Scheldestraat, 4461 EP, Goes,https://waarneming.nl/observation/368292913/
"POINT (3.96171 51.33109)",51.33109,3.96171,Campensedijk, 4581 BD, Vogelwaarde,https://waarneming.nl/observation/368354481/
"POINT (3.89847 51.50152)",51.50152,3.89847,Tulpstraat, 4461 PA, Goes,https://waarneming.nl/observation/368376023/
"POINT (3.59446 51.31965)",51.31965,3.59446,Turkeijeweg, 4515 RL, IJzendijke,https://waarneming.nl/observation/368362977/
"POINT (3.71812 51.52626)",51.52626,3.71812,Lamsoor, 4341 RW, Arnemuiden,https://waarneming.nl/observation/368402446/
"POINT (3.71809 51.52598)",51.52598,3.71809,Lamsoor, 4341 RW, Arnemuiden,https://waarneming.nl/observation/368402873/
"POINT (3.61113 51.49083)",51.49083,3.61113,Oude Vlissingseweg, 4336 AD, Middelburg,https://waarneming.nl/observation/368487010/
"POINT (3.60238 51.46144)",51.46144,3.60238,Van Turnhoutstraat, 4388 HR, Oost-Souburg,https://waarneming.nl/observation/372456182/
"POINT (3.91157 51.42662)",51.42662,3.91157,Kasteelhoekstraat, 4433 AJ, Hoedekenskerke,https://waarneming.nl/observation/371295192/
"POINT (3.89091 51.73732)",51.73732,3.89091,Heernisweg, 4318 TN, Brouwershaven,https://waarneming.nl/observation/371295083/
"POINT (4.06506 51.2851)",51.28510,4.06506,Abdijstraat, 4561 WX, Hulst,https://waarneming.nl/observation/373797291/
"POINT (3.88524 51.40819)",51.40819,3.88524,Slotstraat, 4435 AN, Baarland,https://waarneming.nl/observation/368661417/
"POINT (3.70472 51.57547)",51.57547,3.70472,Ruiterplaatweg, 4493 PG, Kamperland,https://waarneming.nl/observation/368680576/
"POINT (3.70754 51.57011)",51.57011,3.70754,Nieuwstraat, 4493 BA, Kamperland,https://waarneming.nl/observation/368697918/
"POINT (3.94692 51.48112)",51.48112,3.94692,Dijkwelseweg, 4421 PP, Biezelinge,https://waarneming.nl/observation/368695080/
"POINT (3.61446 51.48754)",51.48754,3.61446,Statenlaan, 4336 CM, Middelburg,https://waarneming.nl/observation/368865587/
"POINT (4.10918 51.43054)",51.43054,4.10918,Aalbessestraat, 4413 DE, Krabbendijke,https://waarneming.nl/observation/368920882/
"POINT (3.54789 51.46248)",51.46248,3.54789,Chopinlaan, 4384 JH, Vlissingen,https://waarneming.nl/observation/368849766/
"POINT (3.8191 51.49081)",51.49081,3.81910,Poldersedijk, 4458 AM, 's-Heer Arendskerke,https://waarneming.nl/observation/368829139/
"POINT (3.54092 51.57557)",51.57557,3.54092,Beukenlaan, 4356 HK, Oostkapelle,https://waarneming.nl/observation/368885187/
"POINT (4.06125 51.67525)",51.67525,4.06125,Jachthavenweg, 4311 NP, Bruinisse,https://waarneming.nl/observation/368862244/
"POINT (4.0444 51.49058)",51.49058,4.04440,Rozenlaan, 4401 HD, Yerseke,https://waarneming.nl/observation/368895254/
"POINT (4.05231 51.27837)",51.27837,4.05231,Mauritslaan, 4561 WG, Hulst,https://waarneming.nl/observation/373805605/
"POINT (3.81926 51.73676)",51.73676,3.81926,Rampweg, 4326 LM, Noordwelle,https://waarneming.nl/observation/369084993/
"POINT (3.58826 51.49084)",51.49084,3.58826,wandelpad Ter Hooge, 4335 SN, Middelburg,https://waarneming.nl/observation/369020136/
"POINT (3.88692 51.51111)",51.51111,3.88692,Geldeloozepad, 4463 AH, Goes,https://waarneming.nl/observation/369111031/
"POINT (3.79274 51.22892)",51.22892,3.79274,Vier Ambachtenstraat, 4551 HB, Sas van Gent,https://waarneming.nl/observation/369269181/
"POINT (3.95991 51.34457)",51.34457,3.95991,Campensedijk, 4581 PW, Vogelwaarde,https://waarneming.nl/observation/373804863/
"POINT (4.22511 51.54457)",51.54457,4.22511,Curieweg, 4691 ST, Tholen,https://waarneming.nl/observation/369157772/
"POINT (3.56266 51.30517)",51.30517,3.56266,Molenweg, 4508 PG, Waterlandkerkje,https://waarneming.nl/observation/369182500/
"POINT (3.87303 51.44376)",51.44376,3.87303,Lange Mairedijk, 4431 PH, 's-Gravenpolder,https://waarneming.nl/observation/369203421/
"POINT (4.19931 51.56868)",51.56868,4.19931,Prins Mauritsstraat, 4698 BJ, Oud-Vossemeer,https://waarneming.nl/observation/369208361/
"POINT (3.89871 51.27175)",51.27175,3.89871,Emmastraat, 4571 LE, Axel,https://waarneming.nl/observation/369193090/
"POINT (3.87516 51.50805)",51.50805,3.87516,Goese Poort, 4461 ED, Goes,https://waarneming.nl/observation/369194243/
"POINT (3.67726 51.30763)",51.30763,3.67726,Kapitalendam, 4522 PT, Biervliet,https://waarneming.nl/observation/369332290/
"POINT (3.70731 51.57595)",51.57595,3.70731,Ruiterplaatweg, 4493 PG, Kamperland,https://waarneming.nl/observation/373810999/
"POINT (3.90245 51.46219)",51.46219,3.90245,Goesestraatweg, 4431 CC, 's-Gravenpolder,https://waarneming.nl/observation/373810863/
"POINT (3.92526 51.64738)",51.64738,3.92526,Nieuwe Haven, 4301 DL, Zierikzee,https://waarneming.nl/observation/373797572/
"POINT (4.22733 51.53203)",51.53203,4.22733,Schelde-Rijnweg, 4691 TB, Tholen,https://waarneming.nl/observation/369463961/
"POINT (4.04434 51.4925)",51.49250,4.04434,Breeweg, 4401 BR, Yerseke,https://waarneming.nl/observation/369362979/
"POINT (4.05118 51.2636)",51.26360,4.05118,Rond de Boom, 4564 HB, Sint Jansteen,https://waarneming.nl/observation/369382491/
"POINT (4.03728 51.31682)",51.31682,4.03728,Hoofstraat, 4583 SR, Terhole,https://waarneming.nl/observation/369386100/
"POINT (4.20306 51.3244)",51.32440,4.20306,Petrusstraat, 4568 PL, Nieuw Namen,https://waarneming.nl/observation/369442480/
"POINT (3.91085 51.49143)",51.49143,3.91085,Jan Greshofflaan, 4481 DD, Kloetinge,https://waarneming.nl/observation/369415508/
"POINT (3.49556 51.55844)",51.55844,3.49556,Brouwersbuurt, 4357 HG, Domburg,https://waarneming.nl/observation/369511111/
"POINT (4.0518 51.49126)",51.49126,4.05180,Oranjehof, 4401 CN, Yerseke,https://waarneming.nl/observation/373797734/
"POINT (3.57188 51.4659)",51.46590,3.57188,Zuidbeekseweg, 4386 NC, Vlissingen,https://waarneming.nl/observation/373811145/
"POINT (3.60634 51.58571)",51.58571,3.60634,Vroondijk, 4354 NN, Vrouwenpolder,https://waarneming.nl/observation/369485643/
"POINT (3.8514 51.31451)",51.31451,3.85140,Berliozhof, 4536 EZ, Terneuzen,https://waarneming.nl/observation/369572641/
"POINT (3.87533 51.50734)",51.50734,3.87533,Goese Poort, 4463 XC, Goes,https://waarneming.nl/observation/369620947/
"POINT (4.08287 51.54951)",51.54951,4.08287,Parallelweg, 4695 BE, Sint-Maartensdijk,https://waarneming.nl/observation/369677153/
"POINT (4.14425 51.5464)",51.54640,4.14425,Burgemeet, 4693 CJ, Poortvliet,https://waarneming.nl/observation/369690399/
"POINT (3.5858 51.4666)",51.46660,3.58580,Noorderbaan, 4386 CC, Vlissingen,https://waarneming.nl/observation/369700036/
"POINT (3.83608 51.28445)",51.28445,3.83608,Pierssenspolderstraat, 4541 GN, Sluiskil,https://waarneming.nl/observation/369708493/
"POINT (3.99793 51.451)",51.45100,3.99793,Zijpe, 4417 CN, Hansweert,https://waarneming.nl/observation/369724094/
"POINT (3.87632 51.5018)",51.50180,3.87632,Fluitekruidstraat, 4461 MH, Goes,https://waarneming.nl/observation/373798427/
"POINT (3.89406 51.50666)",51.50666,3.89406,Merellaan, 4461 RH, Goes,https://waarneming.nl/observation/373798228/
"POINT (3.91039 51.49143)",51.49143,3.91039,Jan Greshofflaan, 4481 DD, Kloetinge,https://waarneming.nl/observation/371295574/
"POINT (3.79764 51.48205)",51.48205,3.79764,Hof van Zeeland, 4451 RS, Heinkenszand,https://waarneming.nl/observation/373797842/
"POINT (3.8252 51.52639)",51.52639,3.82520,Kaaidijk, 4471 AS, Wolphaartsdijk,https://waarneming.nl/observation/371295462/
"POINT (3.95778 51.32247)",51.32247,3.95778,Drie Gezustersdijk, 4581 RM, Vogelwaarde,https://waarneming.nl/observation/369791079/
"POINT (3.89526 51.4934)",51.49340,3.89526,Beukenstraat, 4462 TT, Goes,https://waarneming.nl/observation/370027984/
"POINT (3.80237 51.22696)",51.22696,3.80237,Oostkade, 4551 CM, Sas van Gent,https://waarneming.nl/observation/369816603/
"POINT (3.81795 51.4912)",51.49120,3.81795,Poldersedijk, 4458 AM, 's-Heer Arendskerke,https://waarneming.nl/observation/373798530/
"POINT (3.54048 51.57683)",51.57683,3.54048,Beukenlaan, 4356 HK, Oostkapelle,https://waarneming.nl/observation/369942526/
"POINT (3.46036 51.27095)",51.27095,3.46036,Bogaardstraat, 4527 EC, Aardenburg,https://waarneming.nl/observation/369980964/
"POINT (3.86021 51.58118)",51.58118,3.86021,Noordlangeweg, 4485 PK, Kats,https://waarneming.nl/observation/370117732/
"POINT (3.62137 51.49732)",51.49732,3.62137,Loskade, 4331 VC, Middelburg,https://waarneming.nl/observation/370146841/
"POINT (3.47321 51.50724)",51.50724,3.47321,Branding, 4374 LE, Zoutelande,https://waarneming.nl/observation/370617765/
"POINT (3.83999 51.32716)",51.32716,3.83999,Vondelstraat, 4532 EK, Terneuzen,https://waarneming.nl/observation/370189189/
"POINT (4.01143 51.5168)",51.51680,4.01143,Schoudeeweg, 4424 NB, Wemeldinge,https://waarneming.nl/observation/373811285/
"POINT (3.99902 51.45115)",51.45115,3.99902,Zijpe, 4417 CN, Hansweert,https://waarneming.nl/observation/373798669/
"POINT (3.94488 51.23905)",51.23905,3.94488,Het Zand, 4576 CC, Koewacht,https://waarneming.nl/observation/370362952/
"POINT (3.57114 51.45235)",51.45235,3.57114,Papaverlaan, 4382 PM, Vlissingen,https://waarneming.nl/observation/370314827/
"POINT (3.58977 51.49003)",51.49003,3.58977,Koudekerkseweg, 4335 SP, Middelburg,https://waarneming.nl/observation/370255682/
"POINT (3.91568 51.6518)",51.65180,3.91568,H.J. Doelemanplein, 4301 GC, Zierikzee,https://waarneming.nl/observation/370292269/
"POINT (4.02994 51.44926)",51.44926,4.02994,Hugo de Grootstraat, 4416 ED, Kruiningen,https://waarneming.nl/observation/370257318/
"POINT (3.46005 51.27071)",51.27071,3.46005,Bogaardstraat, 4527 EC, Aardenburg,https://waarneming.nl/observation/370424387/
"POINT (3.91043 51.49747)",51.49747,3.91043,Willemsstraat, 4481 AS, Kloetinge,https://waarneming.nl/observation/370318983/
"POINT (3.95011 51.30238)",51.30238,3.95011,Pouckestraat, 4571 PL, Axel,https://waarneming.nl/observation/370321335/
"POINT (3.61146 51.48838)",51.48838,3.61146,Oude Vlissingseweg, 4336 AA, Middelburg,https://waarneming.nl/observation/370328270/
"POINT (3.77445 51.45353)",51.45353,3.77445,Deken Tomaslaan, 4453 AK, 's-Heerenhoek,https://waarneming.nl/observation/370424933/
"POINT (3.81868 51.49391)",51.49391,3.81868,Arendstraat, 4458 AS, 's-Heer Arendskerke,https://waarneming.nl/observation/370425351/
"POINT (4.007 51.37067)",51.37067,4.00700,Kerklaan, 4587 CN, Kloosterzande,https://waarneming.nl/observation/370460302/
"POINT (3.81832 51.49383)",51.49383,3.81832,Arendstraat, 4458 AN, 's-Heer Arendskerke,https://waarneming.nl/observation/370420914/
"POINT (3.74569 51.58748)",51.58748,3.74569,Tuindorp, 4491 EB, Wissenkerke,https://waarneming.nl/observation/370428999/
"POINT (3.61067 51.51114)",51.51114,3.61067,Arie van Driellaan, 4333 CA, Middelburg,https://waarneming.nl/observation/370535488/
"POINT (3.55845 51.45906)",51.45906,3.55845,Van Bossestraat, 4384 BG, Vlissingen,https://waarneming.nl/observation/370474094/
"POINT (3.84593 51.32064)",51.32064,3.84593,Alvarezlaan, 4536 BD, Terneuzen,https://waarneming.nl/observation/370528418/
"POINT (3.59955 51.48843)",51.48843,3.59955,Roompotpad, 4335 TE, Middelburg,https://waarneming.nl/observation/370587968/
"POINT (3.78554 51.31338)",51.31338,3.78554,Kreeksingel, 4542 BP, Hoek,https://waarneming.nl/observation/370507725/
"POINT (3.88224 51.5021)",51.50210,3.88224,Evertsenstraat, 4461 GW, Goes,https://waarneming.nl/observation/370626895/
"POINT (3.75569 51.28436)",51.28436,3.75569,Alikruik, 4553 CG, Philippine,https://waarneming.nl/observation/370702921/
"POINT (3.97081 51.23315)",51.23315,3.97081,Emmabaan, 4576 ED, Koewacht,https://waarneming.nl/observation/371295695/
"POINT (3.8236 51.43088)",51.43088,3.82360,Mooymanstraat, 4441 BC, Ovezande,https://waarneming.nl/observation/373798766/
"POINT (3.60897 51.587)",51.58700,3.60897,Vroondijk, 4354 NN, Vrouwenpolder,https://waarneming.nl/observation/373807155/
"POINT (4.21085 51.53018)",51.53018,4.21085,Oranjerie, 4691 LK, Tholen,https://waarneming.nl/observation/377466797/
"POINT (4.02955 51.4491)",51.44910,4.02955,Hugo de Grootstraat, 4416 EE, Kruiningen,https://waarneming.nl/observation/370604332/
"POINT (4.08351 51.55271)",51.55271,4.08351,Bleekveldweg, 4695 RJ, Sint-Maartensdijk,https://waarneming.nl/observation/370604431/
"POINT (3.91252 51.313)",51.31300,3.91252,Polderstraat, 4543 AA, Zaamslag,https://waarneming.nl/observation/370670461/
"POINT (4.12797 51.63835)",51.63835,4.12797,Langeweg, 4675 RJ, Anna Jacobapolder,https://waarneming.nl/observation/370697676/
"POINT (3.62897 51.33359)",51.33359,3.62897,Krabbegatweg, 4522 GN, Biervliet,https://waarneming.nl/observation/373806600/
"POINT (3.84922 51.31176)",51.31176,3.84922,Oudelandseweg, 4536 HL, Terneuzen,https://waarneming.nl/observation/373806427/
"POINT (3.61788 51.49416)",51.49416,3.61788,Segeerssingel, 4337 LH, Middelburg,https://waarneming.nl/observation/370746968/
"POINT (3.46044 51.38877)",51.38877,3.46044,Baanstpoldersedijk, 4504 PT, Nieuwvliet,https://waarneming.nl/observation/370784030/
"POINT (3.55403 51.52165)",51.52165,3.55403,Poppendamseweg, 4364 SL, Grijpskerke,https://waarneming.nl/observation/370781761/
"POINT (4.01128 51.6466)",51.64660,4.01128,Oude Nieuwlandseweg, 4306 NN, Nieuwerkerk,https://waarneming.nl/observation/370870009/
"POINT (3.94007 51.47756)",51.47756,3.94007,Rijksweg, 4421 PT, Biezelinge,https://waarneming.nl/observation/370920311/
"POINT (3.85048 51.59317)",51.59317,3.85048,Fietspad Mol-Tol, 4486 CP, Colijnsplaat,https://waarneming.nl/observation/370889800/
"POINT (3.54741 51.57429)",51.57429,3.54741,Irislaan, 4356 JH, Oostkapelle,https://waarneming.nl/observation/370890190/
"POINT (3.45659 51.38108)",51.38108,3.45659,Lampsinsdijk, 4504 PW, Nieuwvliet,https://waarneming.nl/observation/370919836/
"POINT (3.98852 51.5137)",51.51370,3.98852,Wemeldingse Zandweg, 4424 CP, Wemeldinge,https://waarneming.nl/observation/370998034/
"POINT (4.22105 51.53516)",51.53516,4.22105,Bosstraat, 4691 BD, Tholen,https://waarneming.nl/observation/370935822/
"POINT (3.55102 51.48473)",51.48473,3.55102,Couburgstraat, 4371 GJ, Koudekerke,https://waarneming.nl/observation/370978744/
"POINT (3.83995 51.50134)",51.50134,3.83995,Terlucht, 4458 SC, 's-Heer Arendskerke,https://waarneming.nl/observation/370997642/
"POINT (3.7422 51.69426)",51.69426,3.74220,Bernhardstraat, 4328 BR, Haamstede,https://waarneming.nl/observation/371006172/
"POINT (3.6969 51.28391)",51.28391,3.69690,Isabellaweg, 4553 PB, IJzendijke,https://waarneming.nl/observation/371071178/
"POINT (4.10532 51.59927)",51.59927,4.10532,Hoenderweg, 4697 BK, Sint-Annaland,https://waarneming.nl/observation/371104643/
"POINT (3.62546 51.45536)",51.45536,3.62546,Ritthemsestraat, 4389 TL, Ritthem,https://waarneming.nl/observation/371144305/
"POINT (3.95914 51.32275)",51.32275,3.95914,Drie Gezustersdijk, 4581 RM, Vogelwaarde,https://waarneming.nl/observation/371141042/
"POINT (3.86245 51.33469)",51.33469,3.86245,Smaragdboog, 4533 AZ, Terneuzen,https://waarneming.nl/observation/371151087/
"POINT (3.84997 51.32469)",51.32469,3.84997,Rooseveltlaan, 4532 LZ, Terneuzen,https://waarneming.nl/observation/371326313/
"POINT (4.17826 51.58747)",51.58747,4.17826,Vrijberghsedijk, 4698 PJ, Oud-Vossemeer,https://waarneming.nl/observation/371348318/
"POINT (4.10195 51.54579)",51.54579,4.10195,Beatrixlaan, 4694 EG, Scherpenisse,https://waarneming.nl/observation/371266117/
"POINT (3.59698 51.48611)",51.48611,3.59698,de Krammer, 4335 XA, Middelburg,https://waarneming.nl/observation/371269256/
"POINT (4.06316 51.42812)",51.42812,4.06316,Puthoekseweg, 4414 RJ, Waarde,https://waarneming.nl/observation/371290987/
"POINT (3.93239 51.70153)",51.70153,3.93239,Weeldijk, 4316 PV, Zonnemaire,https://waarneming.nl/observation/371294770/
"POINT (3.66771 51.57039)",51.57039,3.66771,Eikenlaan, 4493 CL, Kamperland,https://waarneming.nl/observation/371317184/
"POINT (3.84999 51.32422)",51.32422,3.84999,Rooseveltlaan, 4532 LZ, Terneuzen,https://waarneming.nl/observation/371317630/
"POINT (3.81707 51.44745)",51.44745,3.81707,Nieuwlandsedijk, 4451 NG, Heinkenszand,https://waarneming.nl/observation/371329055/
"POINT (3.6126 51.51134)",51.51134,3.61260,Laan der Commando's, 4333 BV, Middelburg,https://waarneming.nl/observation/371331629/
"POINT (3.86287 51.43628)",51.43628,3.86287,Vlieguitsedijk, 4434 PV, Kwadendamme,https://waarneming.nl/observation/371335969/
"POINT (3.73192 51.6895)",51.68950,3.73192,Dreef, 4328 LX, Burgh,https://waarneming.nl/observation/371337468/
"POINT (4.178 51.58784)",51.58784,4.17800,Vrijberghsedijk, 4698 PJ, Oud-Vossemeer,https://waarneming.nl/observation/371350263/
"POINT (3.59798 51.54594)",51.54594,3.59798,Noordweg, 4353 AZ, Serooskerke,https://waarneming.nl/observation/371402559/
"POINT (3.96687 51.48574)",51.48574,3.96687,Vroonlandseweg, 4421 GK, Biezelinge,https://waarneming.nl/observation/371410270/
"POINT (3.79035 51.23187)",51.23187,3.79035,van Milstraat, 4551 TD, Sas van Gent,https://waarneming.nl/observation/371462152/
"POINT (3.49835 51.32773)",51.32773,3.49835,Grote Beer, 4501 EP, Oostburg,https://waarneming.nl/observation/372069508/
"POINT (3.83956 51.50094)",51.50094,3.83956,Nieuwe Rijksweg, 4458 SG, 's-Heer Arendskerke,https://waarneming.nl/observation/371406769/
"POINT (3.56139 51.46273)",51.46273,3.56139,Roosje Voslaan, 4385 KA, Vlissingen,https://waarneming.nl/observation/371414618/
"POINT (3.76959 51.49878)",51.49878,3.76959,Rijksweg, 4458 SN, 's-Heer Arendskerke,https://waarneming.nl/observation/371417838/
"POINT (4.05353 51.48979)",51.48979,4.05353,Zaetepolder, 4401 NP, Yerseke,https://waarneming.nl/observation/371442770/
"POINT (3.77271 51.31594)",51.31594,3.77271,Noorddijk, 4542 NA, Hoek,https://waarneming.nl/observation/371435314/
"POINT (3.81444 51.70149)",51.70149,3.81444,Dijkweg, 4327 AE, Serooskerke,https://waarneming.nl/observation/371446618/
"POINT (3.85255 51.59285)",51.59285,3.85255,Molenweg, 4486 PP, Colijnsplaat,https://waarneming.nl/observation/375610633/
"POINT (3.58836 51.47062)",51.47062,3.58836,Vrijburgstraat, 4387 AH, Vlissingen,https://waarneming.nl/observation/371506025/
"POINT (3.97594 51.47995)",51.47995,3.97594,Ambachtsherenwegeling, 4421 MZ, Biezelinge,https://waarneming.nl/observation/371487044/
"POINT (4.19679 51.53256)",51.53256,4.19679,Veerweg, 4691 PC, Tholen,https://waarneming.nl/observation/371491702/
"POINT (3.62282 51.49105)",51.49105,3.62282,Papisland, 4337 EG, Middelburg,https://waarneming.nl/observation/371500060/
"POINT (3.61055 51.47207)",51.47207,3.61055,Palts, 4388 MC, Oost-Souburg,https://waarneming.nl/observation/371506583/
"POINT (3.61117 51.47189)",51.47189,3.61117,Hof Engelenburg, 4388 MH, Oost-Souburg,https://waarneming.nl/observation/371509269/
"POINT (4.141 51.54461)",51.54461,4.14100,Julianastraat, 4693 ED, Poortvliet,https://waarneming.nl/observation/375529053/
"POINT (3.8859 51.74203)",51.74203,3.88590,Den Osse, 4318 TP, Brouwershaven,https://waarneming.nl/observation/371584633/
"POINT (3.81719 51.49136)",51.49136,3.81719,Oude Rijksweg, 4458 AL, 's-Heer Arendskerke,https://waarneming.nl/observation/371515613/
"POINT (3.59186 51.46676)",51.46676,3.59186,Steengrachtstraat, 4386 AR, Vlissingen,https://waarneming.nl/observation/371524498/
"POINT (3.95768 51.47685)",51.47685,3.95768,Gildenstraat, 4421 KZ, Biezelinge,https://waarneming.nl/observation/371523494/
"POINT (3.61126 51.46871)",51.46871,3.61126,Esdoornstraat, 4388 PK, Oost-Souburg,https://waarneming.nl/observation/371571546/
"POINT (4.02568 51.44826)",51.44826,4.02568,Einsteinstraat, 4416 EL, Kruiningen,https://waarneming.nl/observation/375623449/
"POINT (3.99803 51.51135)",51.51135,3.99803,Zwaakseweg, 4424 NE, Wemeldinge,https://waarneming.nl/observation/375623187/
"POINT (3.84882 51.59061)",51.59061,3.84882,Molenweg, 4486 PP, Colijnsplaat,https://waarneming.nl/observation/375622838/
"POINT (3.90995 51.49785)",51.49785,3.90995,Lewestraat, 4481 BC, Kloetinge,https://waarneming.nl/observation/375609925/
"POINT (4.20939 51.53557)",51.53557,4.20939,Spin, 4691 DV, Tholen,https://waarneming.nl/observation/371582246/
"POINT (3.70177 51.71367)",51.71367,3.70177,Klaproosweg, 4328 JZ, Burgh-Haamstede,https://waarneming.nl/observation/372718432/
"POINT (3.82317 51.43091)",51.43091,3.82317,Mauritsstraat, 4441 BA, Ovezande,https://waarneming.nl/observation/375615061/
"POINT (3.62689 51.45504)",51.45504,3.62689,Ritthemsestraat, 4389 TL, Ritthem,https://waarneming.nl/observation/371759273/
"POINT (4.17881 51.55019)",51.55019,4.17881,Puitsedijk, 4691 PJ, Oud-Vossemeer,https://waarneming.nl/observation/371693410/
"POINT (3.90196 51.45997)",51.45997,3.90196,Ambachtsstraat, 4431 BG, 's-Gravenpolder,https://waarneming.nl/observation/371693202/
"POINT (4.04014 51.36613)",51.36613,4.04014,Kruisdorpstraat, 4587 RB, Kloosterzande,https://waarneming.nl/observation/371710830/
"POINT (4.07281 51.66811)",51.66811,4.07281,Hoogerwerfsweg 'De elf Boompjes', 4311 NR, Bruinisse,https://waarneming.nl/observation/371814067/
"POINT (4.01722 51.28766)",51.28766,4.01722,Hogeweg, 4561 RH, Hulst,https://waarneming.nl/observation/371818563/
"POINT (3.84315 51.33287)",51.33287,3.84315,Rembrandtlaan, 4532 HP, Terneuzen,https://waarneming.nl/observation/371760059/
"POINT (3.54366 51.48261)",51.48261,3.54366,Duinstraat, 4371 PN, Koudekerke,https://waarneming.nl/observation/371780728/
"POINT (3.81784 51.49157)",51.49157,3.81784,Deestraat, 4458 AK, 's-Heer Arendskerke,https://waarneming.nl/observation/371919272/
"POINT (3.59704 51.4868)",51.48680,3.59704,Jan Campertstraat, 4335 SC, Middelburg,https://waarneming.nl/observation/371789411/
"POINT (3.49799 51.32785)",51.32785,3.49799,Grote Beer, 4501 EP, Oostburg,https://waarneming.nl/observation/371804631/
"POINT (3.99958 51.51588)",51.51588,3.99958,Prinses Beatrixweg, 4424 AB, Wemeldinge,https://waarneming.nl/observation/371811910/
"POINT (3.99729 51.51322)",51.51322,3.99729,Lindehof, 4424 DZ, Wemeldinge,https://waarneming.nl/observation/371853797/
"POINT (3.88262 51.44336)",51.44336,3.88262,Groenewegje, 4434 RG, Kwadendamme,https://waarneming.nl/observation/371849385/
"POINT (4.10424 51.32715)",51.32715,4.10424,Dorpsstraat, 4569 AJ, Graauw,https://waarneming.nl/observation/371860126/
"POINT (3.87264 51.44377)",51.44377,3.87264,Lange Mairedijk, 4434 RG, 's-Gravenpolder,https://waarneming.nl/observation/371858270/
"POINT (4.04532 51.43421)",51.43421,4.04532,Blauwhoefseweg, 4416 RC, Kruiningen,https://waarneming.nl/observation/371905345/
"POINT (3.96374 51.48729)",51.48729,3.96374,De Komme, 4421 ES, Biezelinge,https://waarneming.nl/observation/372082484/
"POINT (3.74982 51.51826)",51.51826,3.74982,Pietweg, 4471 NR, Wolphaartsdijk,https://waarneming.nl/observation/371981157/
"POINT (3.79159 51.23599)",51.23599,3.79159,Burgemeester den Boerstraat, 4551 SW, Sas van Gent,https://waarneming.nl/observation/371990846/
"POINT (3.73946 51.70244)",51.70244,3.73946,Kloostertuin, 4328 HZ, Haamstede,https://waarneming.nl/observation/372002964/
"POINT (3.58822 51.47089)",51.47089,3.58822,Handelsweg, 4387 PG, Vlissingen,https://waarneming.nl/observation/372018357/
"POINT (3.88574 51.40943)",51.40943,3.88574,Torenstraat, 4435 AL, Baarland,https://waarneming.nl/observation/372060951/
"POINT (3.97007 51.32755)",51.32755,3.97007,Kerkstraat, 4581 BW, Vogelwaarde,https://waarneming.nl/observation/372043632/
"POINT (3.83473 51.23313)",51.23313,3.83473,Schuttersweide, 4554 CX, Westdorpe,https://waarneming.nl/observation/372050042/
"POINT (4.10781 51.3325)",51.33250,4.10781,Oude Kaai, 4569 AB, Graauw,https://waarneming.nl/observation/372055331/
"POINT (4.10736 51.33195)",51.33195,4.10736,Oude Kaai, 4569 AA, Graauw,https://waarneming.nl/observation/372055594/
"POINT (4.03688 51.49021)",51.49021,4.03688,Breeweg, 4401 BS, Yerseke,https://waarneming.nl/observation/372068260/
"POINT (3.89135 51.51444)",51.51444,3.89135,Westhavendijk, 4463 AD, Goes,https://waarneming.nl/observation/375624027/
"POINT (3.97266 51.22628)",51.22628,3.97266,Schoolstraat, 4576 AA, Koewacht,https://waarneming.nl/observation/375623705/
"POINT (3.90551 51.51003)",51.51003,3.90551,Stadhouderslaan, 4461 TT, Goes,https://waarneming.nl/observation/375610927/
"POINT (3.95961 51.48774)",51.48774,3.95961,Coxstraat, 4421 DA, Biezelinge,https://waarneming.nl/observation/372188193/
"POINT (3.91274 51.42609)",51.42609,3.91274,Oostendestraat, 4433 AK, Hoedekenskerke,https://waarneming.nl/observation/372107192/
"POINT (3.90285 51.50993)",51.50993,3.90285,Ringbaan Oost, 4464 AX, Goes,https://waarneming.nl/observation/372111295/
"POINT (4.19043 51.42755)",51.42755,4.19043,Valckenisseweg, 4411 SB, Rilland,https://waarneming.nl/observation/372125290/
"POINT (4.19176 51.42957)",51.42957,4.19176,Middenhof, 4411 RZ, Rilland,https://waarneming.nl/observation/372325801/
"POINT (4.07156 51.53793)",51.53793,4.07156,Lindelaan, 4695 RT, Sint-Maartensdijk,https://waarneming.nl/observation/372120188/
"POINT (4.1054 51.60013)",51.60013,4.10540,Hoenderweg, 4697 BE, Sint-Annaland,https://waarneming.nl/observation/372136073/
"POINT (4.10943 51.42028)",51.42028,4.10943,Meiboom, 4414 RW, Krabbendijke,https://waarneming.nl/observation/372161615/
"POINT (4.14666 51.54296)",51.54296,4.14666,Schoolstraat, 4693 BE, Poortvliet,https://waarneming.nl/observation/372234926/
"POINT (3.55042 51.3904)",51.39040,3.55042,Oude Rijksweg, 4511 HW, Breskens,https://waarneming.nl/observation/372162036/
"POINT (4.03463 51.44364)",51.44364,4.03463,Achterwegje, 4416 NK, Kruiningen,https://waarneming.nl/observation/372188172/
"POINT (3.90929 51.4982)",51.49820,3.90929,Lewestraat, 4481 BG, Kloetinge,https://waarneming.nl/observation/372190303/
"POINT (3.98282 51.61742)",51.61742,3.98282,Weg van de Buitenlandse Pers, 4305 RJ, Ouwerkerk,https://waarneming.nl/observation/375615265/
"POINT (3.73778 51.47057)",51.47057,3.73778,Prinses Beatrixstraat, 4455 AR, Nieuwdorp,https://waarneming.nl/observation/372302891/
"POINT (3.88054 51.47127)",51.47127,3.88054,van de Plasschestraat, 4444 AG, 's-Heer Abtskerke,https://waarneming.nl/observation/372279845/
"POINT (3.76294 51.32146)",51.32146,3.76294,Noorddijk, 4542 NA, Hoek,https://waarneming.nl/observation/372217164/
"POINT (3.95875 51.49064)",51.49064,3.95875,Conferencestraat, 4421 DS, Kapelle,https://waarneming.nl/observation/372227256/
"POINT (3.88396 51.56541)",51.56541,3.88396,Dijkstraat, 4485 AC, Kats,https://waarneming.nl/observation/375625048/
"POINT (3.4576 51.38211)",51.38211,3.45760,Baanstpoldersedijk, 4504 PS, Nieuwvliet,https://waarneming.nl/observation/375603493/
"POINT (3.99918 51.5159)",51.51590,3.99918,Prinses Beatrixweg, 4424 AB, Wemeldinge,https://waarneming.nl/observation/375624480/
"POINT (3.72972 51.52304)",51.52304,3.72972,Muidenweg, 4341 RA, Arnemuiden,https://waarneming.nl/observation/372457038/
"POINT (3.91283 51.31282)",51.31282,3.91283,Plein, 4543 BJ, Zaamslag,https://waarneming.nl/observation/372337057/
"POINT (3.9575 51.4766)",51.47660,3.95750,Paardeweegje, 4421 KZ, Biezelinge,https://waarneming.nl/observation/372363067/
"POINT (3.96158 51.4697)",51.46970,3.96158,Rijksweg, 4421 HT, Biezelinge,https://waarneming.nl/observation/372354985/
"POINT (3.60458 51.51512)",51.51512,3.60458,Noordweg, 4333 KA, Middelburg,https://waarneming.nl/observation/372402593/
"POINT (3.99648 51.51318)",51.51318,3.99648,Bonzijweg, 4424 AR, Wemeldinge,https://waarneming.nl/observation/372435333/
"POINT (3.5205 51.38262)",51.38262,3.52050,Provincialeweg, 4503 GE, Groede,https://waarneming.nl/observation/372447575/
"POINT (3.90329 51.48967)",51.48967,3.90329,Bachlaan, 4462 JK, Goes,https://waarneming.nl/observation/372482872/
"POINT (3.56838 51.46424)",51.46424,3.56838,Assumburg, 4385 EH, Vlissingen,https://waarneming.nl/observation/372461975/
"POINT (3.90073 51.50808)",51.50808,3.90073,De Horst, 4461 RC, Goes,https://waarneming.nl/observation/372439943/
"POINT (4.02858 51.45221)",51.45221,4.02858,Fahrenheitstraat, 4416 DC, Kruiningen,https://waarneming.nl/observation/372484384/
"POINT (3.90375 51.48971)",51.48971,3.90375,Bachlaan, 4462 JK, Goes,https://waarneming.nl/observation/372501149/
"POINT (3.94878 51.5121)",51.51210,3.94878,Monnikendijk, 4474 NJ, Kattendijke,https://waarneming.nl/observation/372507210/
"POINT (3.59796 51.4877)",51.48770,3.59796,Koudekerkseweg, 4335 SL, Middelburg,https://waarneming.nl/observation/375609511/
"POINT (3.81552 51.46776)",51.46776,3.81552,Heinkenszandseweg, 4451 DH, Heinkenszand,https://waarneming.nl/observation/372595929/
"POINT (3.8141 51.46664)",51.46664,3.81410,Boomeend, 4451 DH, Heinkenszand,https://waarneming.nl/observation/372575635/
"POINT (4.04128 51.4891)",51.48910,4.04128,Moerplein, 4401 HZ, Yerseke,https://waarneming.nl/observation/375616282/
"POINT (3.70355 51.67356)",51.67356,3.70355,Kraaijensteinweg, 4328 RD, Burgh-Haamstede,https://waarneming.nl/observation/372520355/
"POINT (4.09556 51.27216)",51.27216,4.09556,Tiberghienweg, 4567 BR, Clinge,https://waarneming.nl/observation/372545957/
"POINT (3.85816 51.31363)",51.31363,3.85816,Amstelstraat, 4535 CE, Terneuzen,https://waarneming.nl/observation/372590257/
"POINT (3.83286 51.51878)",51.51878,3.83286,Heerenpolderweg, 4471 PD, Wolphaartsdijk,https://waarneming.nl/observation/372600776/
"POINT (4.01929 51.37157)",51.37157,4.01929,Cor Schelfhoutpad, 4587 EJ, Kloosterzande,https://waarneming.nl/observation/372552408/
"POINT (3.90845 51.72591)",51.72591,3.90845,Voorburglaan, 4318 BL, Brouwershaven,https://waarneming.nl/observation/372605630/
"POINT (3.58943 51.50403)",51.50403,3.58943,Laurens Stommespad, 4334 SB, Middelburg,https://waarneming.nl/observation/372566871/
"POINT (3.5489 51.39396)",51.39396,3.54890,Ringlaan, 4511 HH, Breskens,https://waarneming.nl/observation/372574427/
"POINT (3.89111 51.21228)",51.21228,3.89111,Verbindingsweg, 4575 NJ, Overslag,https://waarneming.nl/observation/372836043/
"POINT (3.89276 51.49335)",51.49335,3.89276,Notestraat, 4462 EL, Goes,https://waarneming.nl/observation/372649309/
"POINT (4.06785 51.30367)",51.30367,4.06785,Zeildijk, 4561 SJ, Hulst,https://waarneming.nl/observation/372649675/
"POINT (3.56051 51.3956)",51.39560,3.56051,Grote Kade, 4511 AT, Breskens,https://waarneming.nl/observation/372728888/
"POINT (3.90217 51.64434)",51.64434,3.90217,Oosterscheldestraat, 4302 WJ, Zierikzee,https://waarneming.nl/observation/372801565/
"POINT (3.80676 51.46457)",51.46457,3.80676,Heinkenszandseweg, 4451 NR, Heinkenszand,https://waarneming.nl/observation/372772685/
"POINT (3.5572 51.56847)",51.56847,3.55720,Noordweg, 4356 EA, Oostkapelle,https://waarneming.nl/observation/372736002/
"POINT (3.82214 51.43888)",51.43888,3.82214,Noldijk, 4441 SL, Ovezande,https://waarneming.nl/observation/372802446/
"POINT (3.90325 51.4899)",51.48990,3.90325,Bachlaan, 4462 JK, Goes,https://waarneming.nl/observation/372797487/
"POINT (3.87105 51.44968)",51.44968,3.87105,Koedijk, 4431 PH, Nisse,https://waarneming.nl/observation/372798039/
"POINT (3.55546 51.48049)",51.48049,3.55546,Kerkhoflaan, 4371 CA, Koudekerke,https://waarneming.nl/observation/372864094/
"POINT (3.51087 51.38131)",51.38131,3.51087,Voorstraat, 4503 BK, Groede,https://waarneming.nl/observation/375604187/
"POINT (3.86114 51.44467)",51.44467,3.86114,Rondepolderdijk, 4443 RG, Nisse,https://waarneming.nl/observation/372871369/
"POINT (3.72298 51.32381)",51.32381,3.72298,Braakmanweg, 4521 PV, Biervliet,https://waarneming.nl/observation/372882340/
"POINT (3.91791 51.31672)",51.31672,3.91791,Rondweg Zaamslag, 4543 NA, Zaamslag,https://waarneming.nl/observation/372878601/
"POINT (3.56861 51.46388)",51.46388,3.56861,Assumburg, 4385 EH, Vlissingen,https://waarneming.nl/observation/372894145/
"POINT (3.72801 51.68845)",51.68845,3.72801,W.G. Bootlaan, 4328 LS, Burgh,https://waarneming.nl/observation/372898476/
"POINT (3.90129 51.48689)",51.48689,3.90129,Bizetlaan, 4462 JW, Goes,https://waarneming.nl/observation/372918219/
"POINT (3.90207 51.48772)",51.48772,3.90207,Berliozlaan, 4462 JV, Goes,https://waarneming.nl/observation/372923127/
"POINT (3.77729 51.4917)",51.49170,3.77729,Postweg, 4456 RG, Lewedorp,https://waarneming.nl/observation/375617226/
"POINT (3.97202 51.22828)",51.22828,3.97202,Nieuwstraat, 4576 AM, Koewacht,https://waarneming.nl/observation/375604744/
"POINT (3.58624 51.46435)",51.46435,3.58624,Westerzichtpad, 4385 AH, Vlissingen,https://waarneming.nl/observation/372985665/
"POINT (3.9553 51.71356)",51.71356,3.95530,Oostweg, 4316 BC, Zonnemaire,https://waarneming.nl/observation/372973907/
"POINT (3.89742 51.44634)",51.44634,3.89742,Oude Hoondertsedijk, 4434 RH, Kwadendamme,https://waarneming.nl/observation/372943945/
"POINT (3.9123 51.42596)",51.42596,3.91230,Oostendestraat, 4433 AK, Hoedekenskerke,https://waarneming.nl/observation/372961164/
"POINT (3.91165 51.42628)",51.42628,3.91165,Kasteelhoekstraat, 4433 AJ, Hoedekenskerke,https://waarneming.nl/observation/372962142/
"POINT (3.96459 51.33147)",51.33147,3.96459,Schapershoekpad, 4581 PZ, Vogelwaarde,https://waarneming.nl/observation/372988443/
"POINT (3.88568 51.56929)",51.56929,3.88568,Christinastraat, 4485 AS, Kats,https://waarneming.nl/observation/372975167/
"POINT (3.88536 51.51184)",51.51184,3.88536,Geldeloozepad, 4463 AJ, Goes,https://waarneming.nl/observation/372972848/
"POINT (3.72982 51.52497)",51.52497,3.72982,Muidenweg, 4341 RA, Wolphaartsdijk,https://waarneming.nl/observation/375625395/
"POINT (3.95833 51.23268)",51.23268,3.95833,Het Zand, 4576 BS, Koewacht,https://waarneming.nl/observation/373062368/
"POINT (3.82412 51.52699)",51.52699,3.82412,Frederiksstraat, 4471 AP, Wolphaartsdijk,https://waarneming.nl/observation/375625768/
"POINT (4.03763 51.31687)",51.31687,4.03763,Hoofstraat, 4583 SP, Terhole,https://waarneming.nl/observation/375650569/
"POINT (3.85432 51.4844)",51.48440,3.85432,Rijksweg, 4458 SM, 's-Heer Arendskerke,https://waarneming.nl/observation/373031899/
"POINT (4.11466 51.42874)",51.42874,4.11466,Dorpsstraat, 4413 BK, Krabbendijke,https://waarneming.nl/observation/373035746/
"POINT (3.81902 51.22967)",51.22967,3.81902,De Baeckermat, 4554 AH, Westdorpe,https://waarneming.nl/observation/373038240/
"POINT (3.54796 51.56505)",51.56505,3.54796,Domburgseweg, 4356 NB, Oostkapelle,https://waarneming.nl/observation/373088874/
"POINT (3.96504 51.23187)",51.23187,3.96504,Vuursteen, 4576 BL, Koewacht,https://waarneming.nl/observation/373144760/
"POINT (4.1974 51.57345)",51.57345,4.19740,Philips van Dorpstraat, 4698 RV, Oud-Vossemeer,https://waarneming.nl/observation/373377235/
"POINT (3.44953 51.27175)",51.27175,3.44953,Landstraat, 4527 CX, Aardenburg,https://waarneming.nl/observation/373154390/
"POINT (3.59506 51.49364)",51.49364,3.59506,Haymanstraat, 4335 CV, Middelburg,https://waarneming.nl/observation/375618171/
"POINT (3.95336 51.71424)",51.71424,3.95336,Tuinweg, 4316 AX, Zonnemaire,https://waarneming.nl/observation/375617767/
"POINT (3.75076 51.72574)",51.72574,3.75076,Molenhoeve, 4325 HT, Renesse,https://waarneming.nl/observation/375617464/
"POINT (4.10894 51.43036)",51.43036,4.10894,Aalbessestraat, 4413 DE, Krabbendijke,https://waarneming.nl/observation/375618568/
"POINT (4.03786 51.44831)",51.44831,4.03786,Clercqswegje, 4416 BN, Kruiningen,https://waarneming.nl/observation/373293109/
"POINT (3.82053 51.42836)",51.42836,3.82053,Dreef, 4441 AL, Ovezande,https://waarneming.nl/observation/373421316/
"POINT (4.10376 51.32436)",51.32436,4.10376,Zandbergsestraat, 4569 TD, Graauw,https://waarneming.nl/observation/373404569/
"POINT (4.1046 51.32891)",51.32891,4.10460,Dorpsstraat, 4569 AK, Graauw,https://waarneming.nl/observation/373401208/
"POINT (3.88464 51.50282)",51.50282,3.88464,Rommerswalestraat, 4461 ET, Goes,https://waarneming.nl/observation/373546578/
"POINT (4.03885 51.25879)",51.25879,4.03885,Oude Drydijck, 4564 RB, Sint Jansteen,https://waarneming.nl/observation/373858281/
"POINT (3.92675 51.65056)",51.65056,3.92675,Grachtweg, 4301 KJ, Zierikzee,https://waarneming.nl/observation/375618779/
"POINT (3.94789 51.47421)",51.47421,3.94789,Rijksweg, 4421 PT, Biezelinge,https://waarneming.nl/observation/373686292/
"POINT (3.60289 51.50221)",51.50221,3.60289,Seisweg, 4334 AK, Middelburg,https://waarneming.nl/observation/373727795/
"POINT (3.60616 51.47006)",51.47006,3.60616,Oosterscheldestraat, 4388 TZ, Oost-Souburg,https://waarneming.nl/observation/374593830/
"POINT (3.51055 51.56113)",51.56113,3.51055,Zuiverseweg, 4357 NM, Domburg,https://waarneming.nl/observation/375606930/
"POINT (3.91098 51.42503)",51.42503,3.91098,Molenstraat, 4433 AB, Hoedekenskerke,https://waarneming.nl/observation/375618960/
"POINT (3.90702 51.41999)",51.41999,3.90702,Waardweg, 4433 RW, Hoedekenskerke,https://waarneming.nl/observation/375626143/
"POINT (3.77103 51.4535)",51.45350,3.77103,Deken Tomaslaan, 4453 AK, 's-Heerenhoek,https://waarneming.nl/observation/375626471/
"POINT (3.94001 51.47963)",51.47963,3.94001,Dijkwelseweg, 4421 PN, Biezelinge,https://waarneming.nl/observation/373756231/
"POINT (3.92666 51.51809)",51.51809,3.92666,Kattendijksedijk, 4464 JN, Goes,https://waarneming.nl/observation/373757903/
"POINT (3.9968 51.5135)",51.51350,3.99680,Bonzijweg, 4424 AN, Wemeldinge,https://waarneming.nl/observation/373776757/
"POINT (3.75933 51.33028)",51.33028,3.75933,Lovenweg, 4542 NZ, Hoek,https://waarneming.nl/observation/374469164/
"POINT (3.96602 51.32578)",51.32578,3.96602,Bossestraat, 4581 BC, Vogelwaarde,https://waarneming.nl/observation/373810975/
"POINT (3.9145 51.42333)",51.42333,3.91450,Spoordijk, 4433 BJ, Hoedekenskerke,https://waarneming.nl/observation/373811542/
"POINT (3.61157 51.46755)",51.46755,3.61157,Esdoornstraat, 4388 PH, Oost-Souburg,https://waarneming.nl/observation/375620805/
"POINT (3.98365 51.5145)",51.51450,3.98365,Kerkweg, 4424 NT, Wemeldinge,https://waarneming.nl/observation/373922227/
"POINT (3.92802 51.47972)",51.47972,3.92802,Abbekindersezandweg, 4421 SB, Kloetinge,https://waarneming.nl/observation/373840037/
"POINT (3.83114 51.49261)",51.49261,3.83114,Wissekerkseweg, 4458 SH, 's-Heer Arendskerke,https://waarneming.nl/observation/373852762/
"POINT (3.48181 51.39303)",51.39303,3.48181,Zeeweg, 4503 PA, Groede,https://waarneming.nl/observation/373853842/
"POINT (3.58768 51.47045)",51.47045,3.58768,Vrijburgstraat, 4387 AH, Vlissingen,https://waarneming.nl/observation/373900346/
"POINT (3.72505 51.32448)",51.32448,3.72505,Braakmanweg, 4521 PV, Biervliet,https://waarneming.nl/observation/373873784/
"POINT (4.03737 51.44286)",51.44286,4.03737,Sluisweg, 4416 HA, Kruiningen,https://waarneming.nl/observation/373863982/
"POINT (3.83111 51.73501)",51.73501,3.83111,Kuijerdamseweg, 4322 NM, Scharendijke,https://waarneming.nl/observation/373882564/
"POINT (3.88757 51.49021)",51.49021,3.88757,Elvis Presleylaan, 4462 LA, Goes,https://waarneming.nl/observation/373915536/
"POINT (3.49406 51.34901)",51.34901,3.49406,Mosterdweg, 4501 PP, Oostburg,https://waarneming.nl/observation/375620958/
"POINT (3.55427 51.35563)",51.35563,3.55427,Dorpsplein, 4507 BH, Schoondijke,https://waarneming.nl/observation/375605154/
"POINT (3.80482 51.47201)",51.47201,3.80482,Westdijk, 4451 RD, Heinkenszand,https://waarneming.nl/observation/375613355/
"POINT (4.19606 51.56919)",51.56919,4.19606,Bou Kooijmanstraat, 4698 AL, Oud-Vossemeer,https://waarneming.nl/observation/377467131/
"POINT (3.44154 51.27598)",51.27598,3.44154,Ruiterskwartier, 4527 CR, Aardenburg,https://waarneming.nl/observation/373957051/
"POINT (3.44049 51.27607)",51.27607,3.44049,Haven, 4527 AC, Aardenburg,https://waarneming.nl/observation/373956523/
"POINT (4.05899 51.34817)",51.34817,4.05899,Boudeloodijk, 4586 RZ, Lamswaarde,https://waarneming.nl/observation/373955739/
"POINT (3.57866 51.45207)",51.45207,3.57866,Beatrixlaan, 4382 XH, Vlissingen,https://waarneming.nl/observation/374079976/
"POINT (4.10983 51.43338)",51.43338,4.10983,Oosterscheldestraat, 4413 CT, Krabbendijke,https://waarneming.nl/observation/374004505/
"POINT (3.91726 51.2643)",51.26430,3.91726,Kanaalkade, 4571 CL, Axel,https://waarneming.nl/observation/375626991/
"POINT (3.92217 51.26333)",51.26333,3.92217,Zonnemare, 4571 CW, Axel,https://waarneming.nl/observation/375626709/
"POINT (3.79005 51.23219)",51.23219,3.79005,Europalaan, 4551 VA, Sas van Gent,https://waarneming.nl/observation/375613038/
"POINT (3.65901 51.35987)",51.35987,3.65901,Zuidlangeweg, 4513 KE, Hoofdplaat,https://waarneming.nl/observation/374094091/
"POINT (3.93698 51.72689)",51.72689,3.93698,Kijkuitsedijk, 4316 PN, Zonnemaire,https://waarneming.nl/observation/374077497/
"POINT (3.74167 51.69349)",51.69349,3.74167,Irenestraat, 4328 BT, Haamstede,https://waarneming.nl/observation/374203131/
"POINT (4.02611 51.45103)",51.45103,4.02611,Röntgenstraat, 4416 DP, Kruiningen,https://waarneming.nl/observation/374222111/
"POINT (3.94847 51.47418)",51.47418,3.94847,Rijksweg, 4421 PT, Biezelinge,https://waarneming.nl/observation/375621669/
"POINT (3.63167 51.48645)",51.48645,3.63167,Willie Dixonstraat, 4337 PK, Middelburg,https://waarneming.nl/observation/374256495/
"POINT (3.60723 51.50319)",51.50319,3.60723,Seissingel, 4333 GV, Middelburg,https://waarneming.nl/observation/374203920/
"POINT (4.08482 51.66049)",51.66049,4.08482,Molenweg, 4311 RN, Bruinisse,https://waarneming.nl/observation/374205564/
"POINT (4.06774 51.63836)",51.63836,4.06774,Langeweg, 4311 RB, Bruinisse,https://waarneming.nl/observation/374513589/
"POINT (3.9836 51.6921)",51.69210,3.98360,Meester Pieter Moggestraat, 4315 AB, Dreischor,https://waarneming.nl/observation/374239068/
"POINT (4.08498 51.65862)",51.65862,4.08498,Langeweg, 4311 RB, Bruinisse,https://waarneming.nl/observation/374262733/
"POINT (4.07586 51.4413)",51.44130,4.07586,Lavendeldijk, 4415 AJ, Oostdijk,https://waarneming.nl/observation/374230387/
"POINT (3.90355 51.42615)",51.42615,3.90355,Molenstraat, 4433 AD, Hoedekenskerke,https://waarneming.nl/observation/374286418/
"POINT (3.62742 51.45401)",51.45401,3.62742,Rammekensweg, 4389 TS, Ritthem,https://waarneming.nl/observation/374293729/
"POINT (3.95999 51.48754)",51.48754,3.95999,Coxstraat, 4421 CZ, Biezelinge,https://waarneming.nl/observation/374317742/
"POINT (3.82644 51.28488)",51.28488,3.82644,Sluiskilpad, 4541 PL, Sluiskil,https://waarneming.nl/observation/374459821/
"POINT (3.81704 51.43867)",51.43867,3.81704,Noldijk, 4441 SL, Ovezande,https://waarneming.nl/observation/375627993/
"POINT (4.03846 51.44293)",51.44293,4.03846,Concordia, 4416 HC, Kruiningen,https://waarneming.nl/observation/375622061/
"POINT (3.59126 51.47067)",51.47067,3.59126,Vrijburgstraat, 4387 AJ, Vlissingen,https://waarneming.nl/observation/375607286/
"POINT (3.57056 51.4523)",51.45230,3.57056,Pioenlaan, 4382 PJ, Vlissingen,https://waarneming.nl/observation/374454508/
"POINT (3.97883 51.22561)",51.22561,3.97883,Tragel, 4576 EP, Koewacht,https://waarneming.nl/observation/374467923/
"POINT (4.07636 51.29193)",51.29193,4.07636,Klaver, 4561 TM, Hulst,https://waarneming.nl/observation/374485843/
"POINT (3.38216 51.3706)",51.37060,3.38216,Westduynen, 4506 GR, Cadzand-Bad,https://waarneming.nl/observation/374486776/
"POINT (3.89229 51.4891)",51.48910,3.89229,Duke Ellingtonlaan, 4462 LE, Goes,https://waarneming.nl/observation/374503340/
"POINT (3.6215 51.51539)",51.51539,3.62150,M.H. Boassonlaan, 4333 MH, Middelburg,https://waarneming.nl/observation/374504473/
"POINT (3.87131 51.43386)",51.43386,3.87131,Vreelandsedijk, 4434 NL, Kwadendamme,https://waarneming.nl/observation/374513264/
"POINT (4.11045 51.43291)",51.43291,4.11045,Oosterscheldestraat, 4413 CT, Krabbendijke,https://waarneming.nl/observation/374528445/
"POINT (3.80696 51.46845)",51.46845,3.80696,Flamingostraat, 4451 CH, Heinkenszand,https://waarneming.nl/observation/374615034/
"POINT (3.57984 51.46498)",51.46498,3.57984,Nieuwe Zuidbeekseweg, 4385 GP, Vlissingen,https://waarneming.nl/observation/374633655/
"POINT (3.75705 51.4546)",51.45460,3.75705,Borsselsedijk, 4453 RA, 's-Heerenhoek,https://waarneming.nl/observation/374586461/
"POINT (4.07069 51.25482)",51.25482,4.07069,Stroperstraat, 4565 EX, Kapellebrug,https://waarneming.nl/observation/374621388/
"POINT (3.4917 51.50041)",51.50041,3.49170,D. Koddelaan, 4374 ES, Zoutelande,https://waarneming.nl/observation/374625602/
"POINT (3.68259 51.52643)",51.52643,3.68259,Zilverenschorweg, 4341 TD, Arnemuiden,https://waarneming.nl/observation/374652990/
"POINT (3.49248 51.49995)",51.49995,3.49248,Bosweg, 4374 EL, Zoutelande,https://waarneming.nl/observation/374625287/
"POINT (4.05255 51.28585)",51.28585,4.05255,Liduinapark, 4561 JW, Hulst,https://waarneming.nl/observation/374639699/
"POINT (4.05058 51.46428)",51.46428,4.05058,Olzendedijk, 4416 RK, Kruiningen,https://waarneming.nl/observation/374660444/
"POINT (3.82645 51.28551)",51.28551,3.82645,Sluiskilpad, 4541 PJ, Sluiskil,https://waarneming.nl/observation/374692744/
"POINT (3.84756 51.31001)",51.31001,3.84756,Hogendijk, 4538 BD, Terneuzen,https://waarneming.nl/observation/374709426/
"POINT (3.39001 51.31269)",51.31269,3.39001,Sint Pieterstraat, 4524 AG, Sluis,https://waarneming.nl/observation/374713516/
"POINT (3.81774 51.53184)",51.53184,3.81774,Vliedbergstraat, 4471 CG, Oud-Sabbinge,https://waarneming.nl/observation/374726423/
"POINT (3.8927 51.20308)",51.20308,3.89270,Dorpsstraat, 4575 NC, Overslag,https://waarneming.nl/observation/374777124/
"POINT (3.73255 51.73202)",51.73202,3.73255,Oude Hoevepad, 4328 XZ, Burgh-Haamstede,https://waarneming.nl/observation/374922605/
"POINT (3.90853 51.26892)",51.26892,3.90853,Stationsstraat, 4571 LB, Axel,https://waarneming.nl/observation/374864720/
"POINT (3.68875 51.32435)",51.32435,3.68875,Steenovenweg, 4521 PJ, Biervliet,https://waarneming.nl/observation/374887307/
"POINT (3.90892 51.49938)",51.49938,3.90892,J.Q.C. Lenshoeklaan, 4481 BS, Kloetinge,https://waarneming.nl/observation/374909957/
"POINT (3.50956 51.56211)",51.56211,3.50956,Zuiverseweg, 4357 NM, Domburg,https://waarneming.nl/observation/374919400/
"POINT (3.62384 51.50219)",51.50219,3.62384,Smidsbolwerk, 4332 AA, Middelburg,https://waarneming.nl/observation/374979140/
"POINT (4.00552 51.45014)",51.45014,4.00552,Boomdijk, 4417 BG, Hansweert,https://waarneming.nl/observation/374947530/
"POINT (3.3865 51.31233)",51.31233,3.38650,Klokstraat, 4524 EJ, Sluis,https://waarneming.nl/observation/374965931/
"POINT (3.73438 51.68986)",51.68986,3.73438,Weeldeweg, 4328 NA, Burgh,https://waarneming.nl/observation/374974346/
"POINT (3.60364 51.5867)",51.58670,3.60364,Vroondijk, 4354 NN, Vrouwenpolder,https://waarneming.nl/observation/375018709/
"POINT (3.5496 51.38473)",51.38473,3.54960,Oude Rijksweg, 4511 PJ, Breskens,https://waarneming.nl/observation/374979472/
"POINT (3.99936 51.45182)",51.45182,3.99936,Zijpe, 4417 CN, Hansweert,https://waarneming.nl/observation/375050554/
"POINT (3.54766 51.39763)",51.39763,3.54766,Singel, 4511 XG, Breskens,https://waarneming.nl/observation/375015895/
"POINT (3.5644 51.4501)",51.45010,3.56440,Prins Bernhardlaan, 4382 AT, Vlissingen,https://waarneming.nl/observation/375028083/
"POINT (3.86085 51.31421)",51.31421,3.86085,Berkelstraat, 4535 CJ, Terneuzen,https://waarneming.nl/observation/375089361/
"POINT (3.88474 51.50162)",51.50162,3.88474,Zuidvlietstraat, 4461 GV, Goes,https://waarneming.nl/observation/377363754/
"POINT (3.58859 51.46347)",51.46347,3.58859,Westerzicht, 4385 AK, Vlissingen,https://waarneming.nl/observation/375120675/
"POINT (3.90815 51.21214)",51.21214,3.90815,Kromhoekseweg, 4575 ND, Overslag,https://waarneming.nl/observation/375109802/
"POINT (4.01906 51.58705)",51.58705,4.01906,Oudelandsedijk, 4696 RS, Stavenisse,https://waarneming.nl/observation/375106392/
"POINT (3.70153 51.56831)",51.56831,3.70153,Veerweg, 4493 AP, Kamperland,https://waarneming.nl/observation/375116095/
"POINT (3.88642 51.20061)",51.20061,3.88642,De Gebuurte, 4575 NB, Overslag,https://waarneming.nl/observation/375121206/
"POINT (3.8764 51.43046)",51.43046,3.87640,Siguitsedijk, 4434 NB, Kwadendamme,https://waarneming.nl/observation/375215860/
"POINT (3.97483 51.62038)",51.62038,3.97483,Schellewitseweg, 4305 RD, Ouwerkerk,https://waarneming.nl/observation/375148153/
"POINT (3.61169 51.50048)",51.50048,3.61169,Lombardstraat, 4331 AA, Middelburg,https://waarneming.nl/observation/375156123/
"POINT (3.94157 51.26925)",51.26925,3.94157,Hulsterseweg, 4571 RH, Axel,https://waarneming.nl/observation/375211336/
"POINT (3.91082 51.46161)",51.46161,3.91082,Langeweg, 4431 RP, 's-Gravenpolder,https://waarneming.nl/observation/375169872/
"POINT (3.77487 51.42155)",51.42155,3.77487,Korte Zuidweg, 4454 PV, Borssele,https://waarneming.nl/observation/377128553/
"POINT (3.83863 51.32221)",51.32221,3.83863,Oude Vaart, 4537 CA, Terneuzen,https://waarneming.nl/observation/375211383/
"POINT (4.0366 51.45039)",51.45039,4.03660,Rijksweg, 4416 BA, Kruiningen,https://waarneming.nl/observation/375234121/
"POINT (4.10806 51.54746)",51.54746,4.10806,Langeweg, 4694 BN, Scherpenisse,https://waarneming.nl/observation/375528048/
"POINT (4.21672 51.53893)",51.53893,4.21672,Hoogaarsstraat, 4691 JR, Tholen,https://waarneming.nl/observation/375528257/
"POINT (4.16447 51.61961)",51.61961,4.16447,Zijpestraat, 4675 CV, Sint Philipsland,https://waarneming.nl/observation/375528380/
"POINT (3.60334 51.468)",51.46800,3.60334,Dintelstraat, 4388 RD, Oost-Souburg,https://waarneming.nl/observation/375245042/
"POINT (3.9121 51.72453)",51.72453,3.91210,Boerendans, 4318 GB, Brouwershaven,https://waarneming.nl/observation/375241930/
"POINT (4.02814 51.38214)",51.38214,4.02814,Walsoordensestraat, 4588 KJ, Walsoorden,https://waarneming.nl/observation/375414725/
"POINT (3.59577 51.49223)",51.49223,3.59577,Adriaen Lauwereyszstraat, 4335 EH, Middelburg,https://waarneming.nl/observation/375370606/
"POINT (3.8162 51.69883)",51.69883,3.81620,Provincialeweg, 4327 SB, Serooskerke,https://waarneming.nl/observation/375425646/
"POINT (3.38851 51.31403)",51.31403,3.38851,Klokstraat, 4524 EJ, Sluis,https://waarneming.nl/observation/375393359/
"POINT (3.39222 51.31287)",51.31287,3.39222,Klokstraat, 4524 EJ, Sluis,https://waarneming.nl/observation/375395056/
"POINT (4.10274 51.32612)",51.32612,4.10274,Irisstraat, 4569 BC, Graauw,https://waarneming.nl/observation/375467634/
"POINT (4.12517 51.43315)",51.43315,4.12517,Noorddijk, 4413 AV, Krabbendijke,https://waarneming.nl/observation/375483431/
"POINT (3.51211 51.51078)",51.51078,3.51211,Kaasboerweg, 4365 NA, Meliskerke,https://waarneming.nl/observation/375461956/
"POINT (3.7749 51.30775)",51.30775,3.77490,Molendreef, 4542 NV, Hoek,https://waarneming.nl/observation/375452632/
"POINT (4.07138 51.25583)",51.25583,4.07138,Mechelen-Terneuzenwegel, 4567 BG, Kapellebrug,https://waarneming.nl/observation/375951482/
"POINT (3.6175 51.32627)",51.32627,3.61750,Stevinstraat, 4515 GA, IJzendijke,https://waarneming.nl/observation/375516187/
"POINT (3.4975 51.49937)",51.49937,3.49750,Noordendolfer, 4374 NA, Zoutelande,https://waarneming.nl/observation/375518633/
"POINT (3.59055 51.46967)",51.46967,3.59055,Winterlouwtje, 4387 AH, Vlissingen,https://waarneming.nl/observation/375896766/
"POINT (4.20309 51.53656)",51.53656,4.20309,Luchtenburgseweg, 4691 PA, Tholen,https://waarneming.nl/observation/375549246/
"POINT (4.20383 51.53721)",51.53721,4.20383,Luchtenburgseweg, 4691 PA, Tholen,https://waarneming.nl/observation/375566845/
"POINT (4.08939 51.57888)",51.57888,4.08939,Vierde Dijk, 4695 SH, Sint-Maartensdijk,https://waarneming.nl/observation/375566909/
"POINT (4.03698 51.44267)",51.44267,4.03698,Sluisweg, 4416 HA, Kruiningen,https://waarneming.nl/observation/375587567/
"POINT (3.96767 51.61969)",51.61969,3.96767,Weg van de Buitenlandse Pers, 4305 RD, Ouwerkerk,https://waarneming.nl/observation/375635864/
"POINT (3.81881 51.2299)",51.22990,3.81881,De Baeckermat, 4554 AH, Westdorpe,https://waarneming.nl/observation/375590720/
"POINT (4.0396 51.44816)",51.44816,4.03960,Berghoekstraat, 4416 BK, Kruiningen,https://waarneming.nl/observation/375734456/
"POINT (3.97762 51.47958)",51.47958,3.97762,Dankerseweg, 4421 RL, Biezelinge,https://waarneming.nl/observation/375735274/
"POINT (3.49088 51.56237)",51.56237,3.49088,Hallehoogte, 4357 AB, Domburg,https://waarneming.nl/observation/375825666/
"POINT (4.04764 51.46869)",51.46869,4.04764,Kaasgat, 4401 NW, Yerseke,https://waarneming.nl/observation/375747322/
"POINT (3.46385 51.52411)",51.52411,3.46385,Rovers Wegeling, 4374 SB, Westkapelle,https://waarneming.nl/observation/375789847/
"POINT (3.46305 51.524)",51.52400,3.46305,Boudewijnskerke, 4374 SB, Zoutelande,https://waarneming.nl/observation/375790506/
"POINT (3.54367 51.35065)",51.35065,3.54367,Rondweg Schoondijke, 4507 KR, Schoondijke,https://waarneming.nl/observation/375782970/
"POINT (4.07083 51.25516)",51.25516,4.07083,Stroperstraat, 4565 EX, Kapellebrug,https://waarneming.nl/observation/376001977/
"POINT (4.12565 51.42731)",51.42731,4.12565,Oostpolderweg, 4413 NN, Krabbendijke,https://waarneming.nl/observation/375907636/
"POINT (4.0514 51.43348)",51.43348,4.05140,Polderweg, 4416 RP, Kruiningen,https://waarneming.nl/observation/376219010/
"POINT (3.91328 51.49269)",51.49269,3.91328,Ina Boudier-Bakkerlaan, 4481 DB, Kloetinge,https://waarneming.nl/observation/376057070/
"POINT (3.49215 51.32278)",51.32278,3.49215,Zuidwal, 4501 BW, Oostburg,https://waarneming.nl/observation/376060248/
"POINT (3.76044 51.45677)",51.45677,3.76044,Stooflaan, 4453 VM, 's-Heerenhoek,https://waarneming.nl/observation/376077570/
"POINT (3.97591 51.48115)",51.48115,3.97591,Ambachtsherenwegeling, 4421 MZ, Biezelinge,https://waarneming.nl/observation/376137815/
"POINT (3.58836 51.46313)",51.46313,3.58836,Westerzicht, 4385 AJ, Vlissingen,https://waarneming.nl/observation/376157063/
"POINT (3.9739 51.47526)",51.47526,3.97390,Hoekseweg, 4423 PH, Kapelle,https://waarneming.nl/observation/376087352/
"POINT (4.04158 51.46931)",51.46931,4.04158,Zanddijk, 4416 PR, Kruiningen,https://waarneming.nl/observation/376111518/
"POINT (3.97441 51.48197)",51.48197,3.97441,Ambachtsherenwegeling, 4421 MZ, Biezelinge,https://waarneming.nl/observation/376311590/
"POINT (4.16403 51.56065)",51.56065,4.16403,Roolandsedijk, 4691 PR, Tholen,https://waarneming.nl/observation/376229826/
"POINT (3.55146 51.56376)",51.56376,3.55146,Molenweg, 4356 AA, Oostkapelle,https://waarneming.nl/observation/376112729/
"POINT (3.84984 51.3293)",51.32930,3.84984,Madame Curiestraat, 4532 LJ, Terneuzen,https://waarneming.nl/observation/376121241/
"POINT (3.59288 51.46996)",51.46996,3.59288,Vrijburgstraat, 4387 AJ, Vlissingen,https://waarneming.nl/observation/376177473/
"POINT (3.84247 51.73779)",51.73779,3.84247,Middelplaatstraat, 4322 BJ, Scharendijke,https://waarneming.nl/observation/376184288/
"POINT (3.59336 51.46917)",51.46917,3.59336,Vrijburgstraat, 4387 AJ, Vlissingen,https://waarneming.nl/observation/376197196/
"POINT (4.10087 51.59469)",51.59469,4.10087,Hoenderweg, 4697 BM, Sint-Annaland,https://waarneming.nl/observation/376229972/
"POINT (3.8189 51.49247)",51.49247,3.81890,Oude Rijksweg, 4458 AL, 's-Heer Arendskerke,https://waarneming.nl/observation/376229815/
"POINT (3.55794 51.35543)",51.35543,3.55794,van der Slikkestraat, 4507 AC, Schoondijke,https://waarneming.nl/observation/376232968/
"POINT (3.85047 51.32708)",51.32708,3.85047,van der Waalsstraat, 4532 LA, Terneuzen,https://waarneming.nl/observation/376242667/
"POINT (4.23098 51.54024)",51.54024,4.23098,Slabbecoornweg, 4691 RZ, Tholen,https://waarneming.nl/observation/376358817/
"POINT (3.60715 51.50341)",51.50341,3.60715,Seissingel, 4333 GV, Middelburg,https://waarneming.nl/observation/377135154/
"POINT (3.89905 51.50565)",51.50565,3.89905,Valckeslotlaan, 4461 SC, Goes,https://waarneming.nl/observation/376305719/
"POINT (4.04687 51.43373)",51.43373,4.04687,Blauwhoefseweg, 4416 RE, Kruiningen,https://waarneming.nl/observation/376316702/
"POINT (4.16039 51.59819)",51.59819,4.16039,Hollaereweg, 4698 PV, Oud-Vossemeer,https://waarneming.nl/observation/376767604/
"POINT (3.88375 51.45711)",51.45711,3.88375,Koedijk, 4431 PK, 's-Gravenpolder,https://waarneming.nl/observation/376418894/
"POINT (4.09617 51.27059)",51.27059,4.09617,Kaveldreef, 4567 BW, Clinge,https://waarneming.nl/observation/376327077/
"POINT (4.05555 51.48843)",51.48843,4.05555,Molenpolderweg, 4401 NP, Yerseke,https://waarneming.nl/observation/376351145/
"POINT (3.48245 51.31854)",51.31854,3.48245,Boomkreekweg, 4501 RA, Oostburg,https://waarneming.nl/observation/376360697/
"POINT (3.58788 51.46912)",51.46912,3.58788,Bellefleur, 4386 EL, Vlissingen,https://waarneming.nl/observation/376383108/
"POINT (3.72344 51.69491)",51.69491,3.72344,W.G. Bootlaan, 4328 LS, Burgh,https://waarneming.nl/observation/376397693/
"POINT (3.90401 51.26991)",51.26991,3.90401,Beatrixstraat, 4571 VN, Axel,https://waarneming.nl/observation/376402271/
"POINT (3.43649 51.36768)",51.36768,3.43649,Knokkertweg, 4506 HN, Cadzand,https://waarneming.nl/observation/376465472/
"POINT (3.79136 51.24849)",51.24849,3.79136,Vrijestraat / Vrijstraat, 4551 LV, Sas van Gent,https://waarneming.nl/observation/376583695/
"POINT (4.04229 51.67979)",51.67979,4.04229,Dillingsweg, 4308 NV, Sirjansland,https://waarneming.nl/observation/376514716/
"POINT (3.8242 51.48971)",51.48971,3.82420,Liesbethstraat, 4458 BV, 's-Heer Arendskerke,https://waarneming.nl/observation/376522630/
"POINT (3.91029 51.26477)",51.26477,3.91029,Nassaustraat, 4571 BK, Axel,https://waarneming.nl/observation/376681952/
"POINT (3.45862 51.27018)",51.27018,3.45862,Akkerstraat, 4527 EA, Aardenburg,https://waarneming.nl/observation/377589072/
"POINT (3.58738 51.46891)",51.46891,3.58738,Kershage, 4386 EJ, Vlissingen,https://waarneming.nl/observation/376617021/
"POINT (3.82165 51.52884)",51.52884,3.82165,Molendijk, 4471 BN, Wolphaartsdijk,https://waarneming.nl/observation/376647494/
"POINT (3.47168 51.32986)",51.32986,3.47168,2e Veerhoekwegeling, 4501 NM, Oostburg,https://waarneming.nl/observation/376656800/
"POINT (3.69831 51.28455)",51.28455,3.69831,Savooyaardsweg, 4515 LN, IJzendijke,https://waarneming.nl/observation/376673441/
"POINT (3.89516 51.4938)",51.49380,3.89516,Frambozestraat, 4462 EM, Goes,https://waarneming.nl/observation/376663355/
"POINT (3.89557 51.26544)",51.26544,3.89557,Churchill-laan, 4571 HV, Axel,https://waarneming.nl/observation/376723283/
"POINT (3.58872 51.46308)",51.46308,3.58872,Westerzicht, 4385 AK, Vlissingen,https://waarneming.nl/observation/376833755/
"POINT (3.49042 51.56251)",51.56251,3.49042,Hallehoogte, 4357 AE, Domburg,https://waarneming.nl/observation/376739165/
"POINT (3.90971 51.49814)",51.49814,3.90971,Lewestraat, 4481 BE, Kloetinge,https://waarneming.nl/observation/376767657/
"POINT (3.97898 51.6869)",51.68690,3.97898,Bogerdhof, 4315 CC, Dreischor,https://waarneming.nl/observation/376932006/
"POINT (3.82819 51.49217)",51.49217,3.82819,Wissekerkseweg, 4458 CA, 's-Heer Arendskerke,https://waarneming.nl/observation/376854788/
"POINT (3.71307 51.71546)",51.71546,3.71307,Duindoornweg, 4328 JB, Burgh-Haamstede,https://waarneming.nl/observation/376857603/
"POINT (4.04547 51.63576)",51.63576,4.04547,Brede Zandweg, 4307 RP, Oosterland,https://waarneming.nl/observation/376872621/
"POINT (3.59851 51.48827)",51.48827,3.59851,de Krammer, 4335 XA, Middelburg,https://waarneming.nl/observation/376957910/
"POINT (4.01398 51.36897)",51.36897,4.01398,Anjerstraat, 4587 AZ, Kloosterzande,https://waarneming.nl/observation/376887761/
"POINT (3.89477 51.26117)",51.26117,3.89477,Lageweg, 4571 NA, Axel,https://waarneming.nl/observation/376940483/
"POINT (4.01861 51.38279)",51.38279,4.01861,Waterstraat, 4588 KL, Walsoorden,https://waarneming.nl/observation/376889967/
"POINT (3.44735 51.52778)",51.52778,3.44735,Piet Mondriaanpad, 4361 JL, Westkapelle,https://waarneming.nl/observation/376892526/
"POINT (3.78178 51.74167)",51.74167,3.78178,Duinweg, 4325 EM, Renesse,https://waarneming.nl/observation/376915362/
"POINT (3.59899 51.48822)",51.48822,3.59899,Arnelaan, 4335 TB, Middelburg,https://waarneming.nl/observation/376956902/
"POINT (3.97446 51.48145)",51.48145,3.97446,Ambachtsherenwegeling, 4421 MZ, Biezelinge,https://waarneming.nl/observation/377395043/
"POINT (3.95365 51.4883)",51.48830,3.95365,Elstarstraat, 4421 DV, Biezelinge,https://waarneming.nl/observation/376917575/
"POINT (4.04622 51.28955)",51.28955,4.04622,Tivoliweg, 4561 HM, Hulst,https://waarneming.nl/observation/376941801/
"POINT (3.50511 51.50328)",51.50328,3.50511,Werendijke, 4374 SL, Zoutelande,https://waarneming.nl/observation/377089978/
"POINT (3.54968 51.57725)",51.57725,3.54968,Dunopark, 4356 GG, Oostkapelle,https://waarneming.nl/observation/377071001/
"POINT (3.91209 51.49776)",51.49776,3.91209,Koningin Julianastraat, 4481 AW, Kloetinge,https://waarneming.nl/observation/377069001/
"POINT (4.04478 51.49182)",51.49182,4.04478,Dahlialaan, 4401 GX, Yerseke,https://waarneming.nl/observation/377019398/
"POINT (3.72305 51.32273)",51.32273,3.72305,Braakmanweg, 4521 PV, Biervliet,https://waarneming.nl/observation/377008625/
"POINT (3.98615 51.52282)",51.52282,3.98615,Hoogeweg, 4424 NM, Wemeldinge,https://waarneming.nl/observation/377011525/
"POINT (3.54864 51.39302)",51.39302,3.54864,Ringlaan, 4511 HH, Breskens,https://waarneming.nl/observation/377011964/
"POINT (3.89339 51.26206)",51.26206,3.89339,Lageweg, 4571 NA, Axel,https://waarneming.nl/observation/377028221/
"POINT (3.61362 51.3223)",51.32230,3.61362,Ravelijnstraat, 4515 BM, IJzendijke,https://waarneming.nl/observation/377027249/
"POINT (3.59933 51.48679)",51.48679,3.59933,Arnelaan, 4335 TE, Middelburg,https://waarneming.nl/observation/377029167/
"POINT (3.79761 51.42649)",51.42649,3.79761,Ruigendijk, 4438 NM, Driewegen,https://waarneming.nl/observation/377033461/
"POINT (3.95959 51.47241)",51.47241,3.95959,De Klinker, 4421 KC, Biezelinge,https://waarneming.nl/observation/377035251/
"POINT (4.09116 51.65208)",51.65208,4.09116,Rijksstraatweg, 4311 RH, Bruinisse,https://waarneming.nl/observation/377090860/
"POINT (3.97578 51.48061)",51.48061,3.97578,Ambachtsherenwegeling, 4421 MZ, Biezelinge,https://waarneming.nl/observation/377059545/
"POINT (3.73052 51.33597)",51.33597,3.73052,Braakmanweg, 4521 PV, Biervliet,https://waarneming.nl/observation/377068904/
"POINT (3.74404 51.33558)",51.33558,3.74404,Wevelswaaldijk, 4542 SN, Hoek,https://waarneming.nl/observation/377070100/
"POINT (3.93542 51.68244)",51.68244,3.93542,Hanenweg, 4317 NJ, Noordgouwe,https://waarneming.nl/observation/377101961/
"POINT (4.19452 51.43062)",51.43062,4.19452,Middenhof, 4411 RW, Rilland,https://waarneming.nl/observation/377066670/
"POINT (4.02879 51.44913)",51.44913,4.02879,Hansweertsestraatweg, 4416 ND, Kruiningen,https://waarneming.nl/observation/377075159/
"POINT (4.0413 51.44727)",51.44727,4.04130,Couwervestraat, 4416 BD, Kruiningen,https://waarneming.nl/observation/377079932/
"POINT (3.52129 51.5719)",51.57190,3.52129,Duinvlietweg, 4356 ND, Oostkapelle,https://waarneming.nl/observation/377405189/
"POINT (3.37792 51.35223)",51.35223,3.37792,Noordstraat, 4525 AA, Retranchement,https://waarneming.nl/observation/377133118/
"POINT (4.10541 51.42125)",51.42125,4.10541,,4414 NA, Waarde,https://waarneming.nl/observation/377133935/
"POINT (3.60129 51.49088)",51.49088,3.60129,Arnelaan, 4335 TA, Middelburg,https://waarneming.nl/observation/377373345/
"POINT (4.21932 51.53027)",51.53027,4.21932,Eendrachtsweg, 4691 EG, Tholen,https://waarneming.nl/observation/377466959/
"POINT (3.6967 51.71264)",51.71264,3.69670,Strandweg, 4328 KL, Burgh-Haamstede,https://waarneming.nl/observation/377726364/
"POINT (3.46764 51.52425)",51.52425,3.46764,Rovers Wegeling, 4374 SB, Westkapelle,https://waarneming.nl/observation/377144865/
"POINT (3.6171 51.58765)",51.58765,3.61710,Strand Vrouwenpolder, 4354 NH, Vrouwenpolder,https://waarneming.nl/observation/377360435/
"POINT (3.89758 51.49396)",51.49396,3.89758,Wilgenstraat, 4462 CJ, Goes,https://waarneming.nl/observation/377145381/
"POINT (3.61819 51.588)",51.58800,3.61819,Strand Vrouwenpolder, 4354 NH, Vrouwenpolder,https://waarneming.nl/observation/377187971/
"POINT (3.86349 51.31145)",51.31145,3.86349,Dommelstraat, 4535 HC, Terneuzen,https://waarneming.nl/observation/377177241/
"POINT (3.76792 51.44762)",51.44762,3.76792,'s-Heerenhoeksedijk, 4453 RB, 's-Heerenhoek,https://waarneming.nl/observation/377212188/
"POINT (3.88649 51.49023)",51.49023,3.88649,Elvis Presleylaan, 4462 LA, Goes,https://waarneming.nl/observation/377254692/
"POINT (3.50756 51.34696)",51.34696,3.50756,Maaidijk, 4501 PL, Oostburg,https://waarneming.nl/observation/377284676/
"POINT (3.89274 51.50477)",51.50477,3.89274,Oostwal, 4461 JS, Goes,https://waarneming.nl/observation/377204044/
"POINT (4.22379 51.52581)",51.52581,4.22379,Schelde-Rijnweg, 4691 BA, Tholen,https://waarneming.nl/observation/377221138/
"POINT (3.71943 51.67827)",51.67827,3.71943,Kraaijensteinweg, 4328 PP, Burgh,https://waarneming.nl/observation/377663071/
"POINT (4.14731 51.59273)",51.59273,4.14731,Hollaereweg, 4698 PH, Oud-Vossemeer,https://waarneming.nl/observation/377220768/
"POINT (3.8626 51.50169)",51.50169,3.86260,Plein, 4472 AV, 's-Heer Hendrikskinderen,https://waarneming.nl/observation/377361405/
"POINT (4.16706 51.66035)",51.66035,4.16706,Krammersluis, 4311 RS, Bruinisse,https://waarneming.nl/observation/377230341/
"POINT (3.8957 51.68564)",51.68564,3.89570,Brieskerkestraat, 4321 AX, Kerkwerve,https://waarneming.nl/observation/377236250/
"POINT (4.16647 51.63166)",51.63166,4.16647,,4675 PJ, Sint Philipsland,https://waarneming.nl/observation/377245656/
"POINT (4.08207 51.54717)",51.54717,4.08207,Keethil, 4695 CM, Sint-Maartensdijk,https://waarneming.nl/observation/377256660/
"POINT (3.99803 51.45028)",51.45028,3.99803,Zijpe, 4417 CN, Hansweert,https://waarneming.nl/observation/377258529/
"POINT (4.00422 51.44874)",51.44874,4.00422,Schoolstraat, 4417 AB, Hansweert,https://waarneming.nl/observation/377258707/
"POINT (3.68769 51.55883)",51.55883,3.68769,Marinuswerf, 4493 DJ, Kamperland,https://waarneming.nl/observation/377300539/
"POINT (4.07384 51.67024)",51.67024,4.07384,Hoogerwerfsweg 'De Tong', 4311 NP, Bruinisse,https://waarneming.nl/observation/377337629/
"POINT (3.59063 51.46991)",51.46991,3.59063,Vrijburgstraat, 4387 AH, Vlissingen,https://waarneming.nl/observation/377422200/
"POINT (3.60135 51.48316)",51.48316,3.60135,Volkerakstraat, 4335 VK, Middelburg,https://waarneming.nl/observation/377332218/
"POINT (3.60093 51.49088)",51.49088,3.60093,Arnelaan, 4335 TA, Middelburg,https://waarneming.nl/observation/377393330/
"POINT (3.92566 51.64624)",51.64624,3.92566,'s Heer Lauwendorp, 4301 RA, Zierikzee,https://waarneming.nl/observation/377373492/
"POINT (3.60927 51.50467)",51.50467,3.60927,Noordsingel, 4333 AE, Middelburg,https://waarneming.nl/observation/377379408/
"POINT (3.80869 51.26672)",51.26672,3.80869,Westenrijkweg, 4551 LE, Sas van Gent,https://waarneming.nl/observation/377495275/
"POINT (3.91032 51.50011)",51.50011,3.91032,Zomerweg, 4481 BZ, Kloetinge,https://waarneming.nl/observation/377364150/
"POINT (3.79736 51.69706)",51.69706,3.79736,Stolpweg, 4327 SG, Serooskerke,https://waarneming.nl/observation/377387440/
"POINT (3.79682 51.69719)",51.69719,3.79682,Stolpweg, 4327 SG, Serooskerke,https://waarneming.nl/observation/377366649/
"POINT (3.77708 51.73842)",51.73842,3.77708,Scholderlaan, 4325 EN, Renesse,https://waarneming.nl/observation/377371003/
"POINT (3.61859 51.32009)",51.32009,3.61859,Verlengde Molenstraat, 4515 AT, IJzendijke,https://waarneming.nl/observation/377375251/
"POINT (3.6868 51.32946)",51.32946,3.68680,Molenstraat, 4521 BL, Biervliet,https://waarneming.nl/observation/377391901/
"POINT (3.60025 51.48869)",51.48869,3.60025,Arnelaan, 4335 TB, Middelburg,https://waarneming.nl/observation/377377606/
"POINT (3.96175 51.47419)",51.47419,3.96175,Havendijkje, 4421 KB, Biezelinge,https://waarneming.nl/observation/377376516/
"POINT (3.50276 51.32565)",51.32565,3.50276,Kreeft, 4501 HV, Oostburg,https://waarneming.nl/observation/377378277/
"POINT (3.40715 51.32593)",51.32593,3.40715,Provinciale weg, 4525 LD, Retranchement,https://waarneming.nl/observation/377424486/
"POINT (3.50262 51.32536)",51.32536,3.50262,Kreeft, 4501 HV, Oostburg,https://waarneming.nl/observation/377407993/
"POINT (3.54636 51.45897)",51.45897,3.54636,Lisztlaan, 4384 KM, Vlissingen,https://waarneming.nl/observation/377406314/
"POINT (3.68888 51.32787)",51.32787,3.68888,Ter Wallestraat, 4521 AZ, Biervliet,https://waarneming.nl/observation/377409449/
"POINT (3.59935 51.48819)",51.48819,3.59935,Roompotpad, 4335 TE, Middelburg,https://waarneming.nl/observation/377407547/
"POINT (3.50921 51.307)",51.30700,3.50921,Slepersdijk, 4501 PX, Waterlandkerkje,https://waarneming.nl/observation/377449673/
"POINT (3.58047 51.46481)",51.46481,3.58047,Nieuwe Zuidbeekseweg, 4385 GP, Vlissingen,https://waarneming.nl/observation/377417177/
"POINT (3.72126 51.46038)",51.46038,3.72126,Frankrijkweg, 4455 TR, Ritthem,https://waarneming.nl/observation/377456329/
"POINT (4.21317 51.54062)",51.54062,4.21317,Garnalenstraat, 4691 KJ, Tholen,https://waarneming.nl/observation/377436990/
"POINT (3.90468 51.48564)",51.48564,3.90468,'s-Gravenpolderseweg, 4462 MV, Goes,https://waarneming.nl/observation/377439919/
"POINT (3.90651 51.64987)",51.64987,3.90651,Grevelingenstraat, 4301 XH, Zierikzee,https://waarneming.nl/observation/377443803/
"POINT (3.82865 51.48965)",51.48965,3.82865,Bewestenwege, 4458 CZ, 's-Heer Arendskerke,https://waarneming.nl/observation/377479060/
"POINT (4.19877 51.56599)",51.56599,4.19877,Oud Vossemeersedijk, 4698 PS, Oud-Vossemeer,https://waarneming.nl/observation/377467207/
"POINT (4.10072 51.54562)",51.54562,4.10072,Cloveniersplantsoen, 4694 ES, Scherpenisse,https://waarneming.nl/observation/377467546/
"POINT (3.62234 51.51489)",51.51489,3.62234,Kees Mooimanpad, 4332 DG, Middelburg,https://waarneming.nl/observation/377517735/
"POINT (3.8356 51.33596)",51.33596,3.83560,Oesterputten, 4532 AK, Terneuzen,https://waarneming.nl/observation/377492634/
"POINT (3.74866 51.57075)",51.57075,3.74866,Campvlietweg, 4494 PA, Geersdijk,https://waarneming.nl/observation/377496467/
"POINT (3.81621 51.22476)",51.22476,3.81621,Vissersverkorting, 4554 LR, Westdorpe,https://waarneming.nl/observation/377530235/
"POINT (4.11708 51.67558)",51.67558,4.11708,Rijksweg, 4311 NN, Bruinisse,https://waarneming.nl/observation/377501496/
"POINT (4.05549 51.27682)",51.27682,4.05549,Mauritslaan, 4561 WG, Hulst,https://waarneming.nl/observation/377526298/
"POINT (3.85775 51.32974)",51.32974,3.85775,Kreekzicht, 4533 PP, Terneuzen,https://waarneming.nl/observation/377557311/
"POINT (3.8961 51.28155)",51.28155,3.89610,Doorndijk, 4571 SP, Axel,https://waarneming.nl/observation/377598603/
"POINT (4.23882 51.43366)",51.43366,4.23882,Markiezaatsweg, 4411 TD, Rilland,https://waarneming.nl/observation/377578472/
"POINT (3.60736 51.50282)",51.50282,3.60736,Seissingel, 4333 GV, Middelburg,https://waarneming.nl/observation/377579846/
"POINT (3.80751 51.54581)",51.54581,3.80751,Inlaag, 4471 NH, Oud-Sabbinge,https://waarneming.nl/observation/377585039/
"POINT (3.68866 51.32323)",51.32323,3.68866,Steenovenweg, 4521 PJ, Biervliet,https://waarneming.nl/observation/377640641/
"POINT (3.98738 51.52329)",51.52329,3.98738,Hoogeweg, 4424 NM, Wemeldinge,https://waarneming.nl/observation/377600203/
"POINT (4.05467 51.27684)",51.27684,4.05467,Mauritslaan, 4561 WG, Hulst,https://waarneming.nl/observation/377639879/
"POINT (3.50536 51.32534)",51.32534,3.50536,Boogschutter, 4501 HT, Oostburg,https://waarneming.nl/observation/377612653/
"POINT (3.73042 51.52172)",51.52172,3.73042,Muidenweg, 4341 RA, Arnemuiden,https://waarneming.nl/observation/377736796/
"POINT (3.71246 51.71579)",51.71579,3.71246,Duindoornweg, 4328 JB, Burgh-Haamstede,https://waarneming.nl/observation/377640396/
"POINT (3.60747 51.50388)",51.50388,3.60747,Seissingel, 4333 GV, Middelburg,https://waarneming.nl/observation/377724532/
"POINT (3.96661 51.47584)",51.47584,3.96661,Jufferswegje, 4421 JB, Biezelinge,https://waarneming.nl/observation/377661139/
"POINT (3.8992 51.42265)",51.42265,3.89920,Haverhoekseweg, 4433 RX, Hoedekenskerke,https://waarneming.nl/observation/377682092/
"POINT (3.69394 51.71145)",51.71145,3.69394,Strandweg, 4328 KL, Burgh-Haamstede,https://waarneming.nl/observation/377725647/
"POINT (3.60333 51.49739)",51.49739,3.60333,Langevielesingel, 4335 AA, Middelburg,https://waarneming.nl/observation/377673622/
"POINT (3.61737 51.58789)",51.58789,3.61737,Strand Vrouwenpolder, 4354 NH, Vrouwenpolder,https://waarneming.nl/observation/377673406/
"POINT (3.79667 51.56428)",51.56428,3.79667,Provincialeweg, 4484 NG, Kortgene,https://waarneming.nl/observation/377673963/
"POINT (3.86161 51.50157)",51.50157,3.86161,Plein, 4472 AT, 's-Heer Hendrikskinderen,https://waarneming.nl/observation/377673670/
"POINT (4.1055 51.32922)",51.32922,4.10550,Dorpsstraat, 4569 AK, Graauw,https://waarneming.nl/observation/377682645/
"POINT (4.03156 51.25156)",51.25156,4.03156,Vylainlaan, 4566 AV, Heikant,https://waarneming.nl/observation/377685304/
"POINT (4.10463 51.59691)",51.59691,4.10463,Langeweg, 4697 BZ, Sint-Annaland,https://waarneming.nl/observation/377681970/
"POINT (3.66621 51.54172)",51.54172,3.66621,Kanaalweg Westzijde, 4351 RE, Zanddijk,https://waarneming.nl/observation/377683435/
"POINT (3.99238 51.34054)",51.34054,3.99238,Vogelweg, 4585 PL, Hengstdijk,https://waarneming.nl/observation/377793646/
"POINT (4.00918 51.47466)",51.47466,4.00918,Reeweg, 4417 PB, Hansweert,https://waarneming.nl/observation/377886738/
"POINT (3.96205 51.4737)",51.47370,3.96205,Oude Dijk, 4421 JN, Biezelinge,https://waarneming.nl/observation/377708869/
"POINT (4.03742 51.49534)",51.49534,4.03742,Schuitweg, 4401 JV, Yerseke,https://waarneming.nl/observation/377715905/
"POINT (4.04406 51.49338)",51.49338,4.04406,Breeweg, 4401 BS, Yerseke,https://waarneming.nl/observation/377726448/
"POINT (3.60897 51.50639)",51.50639,3.60897,Noordweg, 4333 GB, Middelburg,https://waarneming.nl/observation/377786676/
"POINT (3.83534 51.28934)",51.28934,3.83534,Korte Blikstraat, 4541 GL, Sluiskil,https://waarneming.nl/observation/377796806/
"POINT (3.87268 51.42782)",51.42782,3.87268,Siguitsedijk, 4434 AE, Kwadendamme,https://waarneming.nl/observation/377741248/
"POINT (3.99296 51.34348)",51.34348,3.99296,Vogelweg, 4585 PL, Hengstdijk,https://waarneming.nl/observation/377793619/
"POINT (3.60783 51.50507)",51.50507,3.60783,Sprencklaan, 4333 HD, Middelburg,https://waarneming.nl/observation/377785054/
"POINT (3.95347 51.48542)",51.48542,3.95347,Dijkwelsestraat, 4421 AH, Biezelinge,https://waarneming.nl/observation/377765860/
"POINT (3.62324 51.51455)",51.51455,3.62324,Kees Mooimanpad, 4332 DG, Middelburg,https://waarneming.nl/observation/377770910/
"POINT (3.72054 51.46026)",51.46026,3.72054,Frankrijkweg, 4455 TR, Ritthem,https://waarneming.nl/observation/377865195/
"POINT (3.64697 51.46969)",51.46969,3.64697,Trekdijk, 4339 PV, Ritthem,https://waarneming.nl/observation/377875661/
"POINT (3.63787 51.35941)",51.35941,3.63787,Wilhelminadijk, 4522 GP, Biervliet,https://waarneming.nl/observation/377792013/
"POINT (4.08076 51.53794)",51.53794,4.08076,Gorishoeksedijk, 4694 PJ, Scherpenisse,https://waarneming.nl/observation/377814686/
"POINT (4.0522 51.27095)",51.27095,4.05220,Schumannstraat, 4561 VV, Hulst,https://waarneming.nl/observation/377815008/
"POINT (3.40781 51.32614)",51.32614,3.40781,Oude Zeedijk, 4525 MB, Zuidzande,https://waarneming.nl/observation/377836326/
"POINT (3.81336 51.26524)",51.26524,3.81336,Zandstraat, 4551 LD, Sas van Gent,https://waarneming.nl/observation/377845886/
"POINT (3.7779 51.56737)",51.56737,3.77790,Calvlietlaan, 4494 NZ, Geersdijk,https://waarneming.nl/observation/377853469/
"POINT (3.80857 51.54599)",51.54599,3.80857,Inlaag, 4471 NL, Wolphaartsdijk,https://waarneming.nl/observation/377857327/
"POINT (3.87012 51.30801)",51.30801,3.87012,Kraagdijk, 4538 PN, Terneuzen,https://waarneming.nl/observation/377858498/
"POINT (3.80954 51.54526)",51.54526,3.80954,Veerweg, 4471 NC, Oud-Sabbinge,https://waarneming.nl/observation/377888187/
"POINT (3.53869 51.40162)",51.40162,3.53869,Nieuwesluisweg, 4511 RP, Breskens,https://waarneming.nl/observation/377941167/
"POINT (3.89807 51.44452)",51.44452,3.89807,Baarlandsezandweg, 4434 RH, Kwadendamme,https://waarneming.nl/observation/377936437/
"POINT (3.89431 51.49331)",51.49331,3.89431,Notestraat, 4462 TN, Goes,https://waarneming.nl/observation/377909648/
"POINT (3.8544 51.24706)",51.24706,3.85440,Graafjansdijk B, 4554 LE, Westdorpe,https://waarneming.nl/observation/377913710/
"POINT (3.83662 51.33575)",51.33575,3.83662,Oesterputten, 4532 AK, Terneuzen,https://waarneming.nl/observation/377921031/
"POINT (4.00001 51.45188)",51.45188,4.00001,Maartenbroersweg, 4417 BL, Hansweert,https://waarneming.nl/observation/377912230/
"POINT (3.6914 51.36488)",51.36488,3.69140,Dijkeputten, 4513 KA, Hoofdplaat,https://waarneming.nl/observation/377927742/
"POINT (3.84273 51.31044)",51.31044,3.84273,Meester F.J. Haarmanweg, 4538 AR, Terneuzen,https://waarneming.nl/observation/377924132/
"POINT (3.60595 51.49187)",51.49187,3.60595,Van Heemskerckstraat, 4335 HZ, Middelburg,https://waarneming.nl/observation/377946239/
"POINT (3.88129 51.50079)",51.50079,3.88129,Evertsenstraat, 4461 GW, Goes,https://waarneming.nl/observation/378380722/
"POINT (3.54393 51.35989)",51.35989,3.54393,Krabbedijk, 4503 GN, Groede,https://waarneming.nl/observation/379306320/
"POINT (3.51332 51.32175)",51.32175,3.51332,Cathalijne Schans, 4501 PW, Oostburg,https://waarneming.nl/observation/378529634/
"POINT (3.60663 51.51533)",51.51533,3.60663,Ooststraat, 4333 KP, Middelburg,https://waarneming.nl/observation/378499866/
"POINT (3.83517 51.27337)",51.27337,3.83517,Havenstraat, 4541 CK, Sluiskil,https://waarneming.nl/observation/379322203/
"POINT (3.79857 51.53255)",51.53255,3.79857,Oudelandseweg, 4471 RB, Oud-Sabbinge,https://waarneming.nl/observation/379390740/
"POINT (3.85441 51.24734)",51.24734,3.85441,Graafjansdijk B, 4554 LE, Westdorpe,https://waarneming.nl/observation/378758918/
"POINT (3.73581 51.45838)",51.45838,3.73581,Akkerweg, 4455 TP, Nieuwdorp,https://waarneming.nl/observation/378771917/
"POINT (3.80054 51.53462)",51.53462,3.80054,Bijsterweg, 4471 PS, Oud-Sabbinge,https://waarneming.nl/observation/378846580/
"POINT (4.00112 51.67589)",51.67589,4.00112,Noorddijk, 4315 NA, Dreischor,https://waarneming.nl/observation/378909990/
"POINT (4.01072 51.64704)",51.64704,4.01072,Oude Nieuwlandseweg, 4306 NN, Nieuwerkerk,https://waarneming.nl/observation/378910828/
"POINT (3.60729 51.50307)",51.50307,3.60729,Seissingel, 4333 GV, Middelburg,https://waarneming.nl/observation/378839861/
"POINT (3.76747 51.73854)",51.73854,3.76747,Oude Moolweg, 4325 GK, Renesse,https://waarneming.nl/observation/378804633/
"POINT (3.85176 51.49083)",51.49083,3.85176,Oostweg, 4458 SK, 's-Heer Arendskerke,https://waarneming.nl/observation/379240880/
"POINT (3.83566 51.28962)",51.28962,3.83566,Korte Blikstraat, 4541 GL, Sluiskil,https://waarneming.nl/observation/378813818/
"POINT (3.66647 51.54176)",51.54176,3.66647,Kanaalweg Westzijde, 4351 RE, Zanddijk,https://waarneming.nl/observation/379442746/
"POINT (3.599 51.48826)",51.48826,3.59900,Arnelaan, 4335 TB, Middelburg,https://waarneming.nl/observation/379435042/
"POINT (3.61499 51.4586)",51.45860,3.61499,Ritthemsestraat, 4389 TH, Ritthem,https://waarneming.nl/observation/378889691/
"POINT (3.82289 51.43146)",51.43146,3.82289,Oud Ovezandseweg, 4441 SH, Ovezande,https://waarneming.nl/observation/378904284/
"POINT (3.97443 51.48204)",51.48204,3.97443,Ambachtsherenwegeling, 4421 MZ, Biezelinge,https://waarneming.nl/observation/379705823/
"POINT (3.90476 51.48542)",51.48542,3.90476,'s-Gravenpolderseweg, 4462 MV, Goes,https://waarneming.nl/observation/378934342/
"POINT (3.82097 51.49303)",51.49303,3.82097,Vermetstraat, 4458 BB, 's-Heer Arendskerke,https://waarneming.nl/observation/378938302/
"POINT (3.90358 51.27001)",51.27001,3.90358,Beatrixstraat, 4571 VN, Axel,https://waarneming.nl/observation/379272874/
"POINT (3.61658 51.50173)",51.50173,3.61658,Spanjaardstraat, 4331 ES, Middelburg,https://waarneming.nl/observation/379170024/
"POINT (3.5873 51.33001)",51.33001,3.58730,Middenweg, 4515 RH, IJzendijke,https://waarneming.nl/observation/379272624/
"POINT (3.74485 51.4291)",51.42910,3.74485,Kaaiweg, 4454 PN, Borssele,https://waarneming.nl/observation/379222895/
"POINT (3.77566 51.73989)",51.73989,3.77566,Scholderlaan, 4325 EN, Renesse,https://waarneming.nl/observation/379229721/
"POINT (3.66462 51.59117)",51.59117,3.66462,Sijsjeslaan, 4493 RC, Kamperland,https://waarneming.nl/observation/379286070/
"POINT (3.59426 51.45756)",51.45756,3.59426,Buitenhavenpad, 4388 GW, Oost-Souburg,https://waarneming.nl/observation/379255296/
"POINT (3.95601 51.21964)",51.21964,3.95601,Kruispad, 4576 BW, Koewacht,https://waarneming.nl/observation/379301611/
"POINT (3.95924 51.22285)",51.22285,3.95924,Berlaersstraat, 4576 BP, Koewacht,https://waarneming.nl/observation/379301812/
"POINT (3.43828 51.36557)",51.36557,3.43828,,4506 HN, Cadzand,https://waarneming.nl/observation/379318469/
"POINT (3.50154 51.33501)",51.33501,3.50154,Maaidijk, 4501 WC, Oostburg,https://waarneming.nl/observation/379315606/
"POINT (3.46211 51.51508)",51.51508,3.46211,Grindweg, 4361 SL, Westkapelle,https://waarneming.nl/observation/379342305/
"POINT (3.91931 51.25718)",51.25718,3.91931,Langeweg, 4571 SZ, Axel,https://waarneming.nl/observation/379400294/
"POINT (3.62992 51.45424)",51.45424,3.62992,Rammekensweg, 4389 TZ, Ritthem,https://waarneming.nl/observation/379324084/
"POINT (4.21396 51.53144)",51.53144,4.21396,Hertenkamp, 4691 HG, Tholen,https://waarneming.nl/observation/379315630/
"POINT (3.79057 51.33107)",51.33107,3.79057,Herbert H. Dowweg, 4542 NR, Hoek,https://waarneming.nl/observation/379396327/
"POINT (3.89483 51.49338)",51.49338,3.89483,Beukenhof, 4462 EE, Goes,https://waarneming.nl/observation/379331198/
"POINT (4.23849 51.43357)",51.43357,4.23849,Markiezaatsweg, 4411 TD, Rilland,https://waarneming.nl/observation/379334890/
"POINT (4.10176 51.43385)",51.43385,4.10176,Westweg, 4413 HC, Krabbendijke,https://waarneming.nl/observation/379605023/
"POINT (3.82588 51.42772)",51.42772,3.82588,Pastoor Pontenagelstraat, 4441 BJ, Ovezande,https://waarneming.nl/observation/379342912/
"POINT (3.59392 51.45672)",51.45672,3.59392,Buitenhavenpad, 4382 WW, Vlissingen,https://waarneming.nl/observation/379332232/
"POINT (3.97807 51.2702)",51.27020,3.97807,Derde Verkorting, 4571 RM, Axel,https://waarneming.nl/observation/379334413/
"POINT (3.61622 51.57942)",51.57942,3.61622,Noorddijk, 4354 AG, Vrouwenpolder,https://waarneming.nl/observation/379340681/
"POINT (3.86173 51.50145)",51.50145,3.86173,Plein, 4472 AV, 's-Heer Hendrikskinderen,https://waarneming.nl/observation/379335366/
"POINT (3.88485 51.50152)",51.50152,3.88485,Zuidvlietstraat, 4461 GV, Goes,https://waarneming.nl/observation/380825945/
"POINT (3.65337 51.45583)",51.45583,3.65337,Rammekensweg, 4389 VB, Ritthem,https://waarneming.nl/observation/379348037/
"POINT (3.85718 51.41092)",51.41092,3.85718,Wildemanshoekseweg, 4436 RT, Oudelande,https://waarneming.nl/observation/379375818/
"POINT (3.5935 51.45795)",51.45795,3.59350,Bermweg, 4388 GW, Oost-Souburg,https://waarneming.nl/observation/379347520/
"POINT (3.69423 51.5612)",51.56120,3.69423,Havenweg, 4493 MT, Kamperland,https://waarneming.nl/observation/379397105/
"POINT (3.72124 51.46064)",51.46064,3.72124,Frankrijkweg, 4455 TR, Ritthem,https://waarneming.nl/observation/379357382/
"POINT (3.87823 51.27708)",51.27708,3.87823,Doorndijk, 4571 SH, Axel,https://waarneming.nl/observation/379357453/
"POINT (3.83161 51.41161)",51.41161,3.83161,Oudelandse Polderdijk, 4436 RD, Oudelande,https://waarneming.nl/observation/379375954/
"POINT (3.60135 51.48309)",51.48309,3.60135,Volkerakstraat, 4335 VG, Middelburg,https://waarneming.nl/observation/379749287/
"POINT (4.04297 51.27427)",51.27427,4.04297,Industrieweg, 4561 GH, Hulst,https://waarneming.nl/observation/379407187/
"POINT (3.60631 51.52052)",51.52052,3.60631,Noordweg, 4333 KL, Sint Laurens,https://waarneming.nl/observation/379408338/
"POINT (3.79876 51.56301)",51.56301,3.79876,Provincialeweg, 4484 NG, Kortgene,https://waarneming.nl/observation/379411707/
"POINT (3.58935 51.47038)",51.47038,3.58935,Vrijburgstraat, 4387 AH, Vlissingen,https://waarneming.nl/observation/379414765/
"POINT (3.88464 51.50277)",51.50277,3.88464,Rommerswalestraat, 4461 ET, Goes,https://waarneming.nl/observation/379759442/
"POINT (3.79695 51.56415)",51.56415,3.79695,Provincialeweg, 4484 NG, Kortgene,https://waarneming.nl/observation/379722449/
"POINT (3.66243 51.54295)",51.54295,3.66243,Veerseweg, 4351 RK, Zanddijk,https://waarneming.nl/observation/379437387/
"POINT (3.73772 51.4678)",51.46780,3.73772,Prinses Margrietstraat, 4455 AX, Nieuwdorp,https://waarneming.nl/observation/379441928/
"POINT (3.90482 51.48599)",51.48599,3.90482,'s-Gravenpolderseweg, 4462 MV, Goes,https://waarneming.nl/observation/379759193/
"POINT (3.89278 51.50475)",51.50475,3.89278,Oostwal, 4461 JS, Goes,https://waarneming.nl/observation/379442557/
"POINT (3.59692 51.46468)",51.46468,3.59692,Koopmansvoetpad, 4388 AT, Oost-Souburg,https://waarneming.nl/observation/379454663/
"POINT (3.72255 51.58989)",51.58989,3.72255,Weg 24, 4493 NM, Kamperland,https://waarneming.nl/observation/379776357/
"POINT (4.10033 51.43395)",51.43395,4.10033,Oude Rijksweg, 4413 NA, Krabbendijke,https://waarneming.nl/observation/379566871/
"POINT (4.23004 51.42411)",51.42411,4.23004,Westelijke Spuikanaalweg, 4411 TB, Rilland,https://waarneming.nl/observation/379589252/
"POINT (3.8814 51.32324)",51.32324,3.88140,Molenweg, 4543 PA, Zaamslag,https://waarneming.nl/observation/379601025/
"POINT (3.51534 51.32146)",51.32146,3.51534,Cathalijne Schans, 4501 PW, Oostburg,https://waarneming.nl/observation/379695979/
"POINT (3.99658 51.34308)",51.34308,3.99658,Meerkoetstraat, 4585 AN, Hengstdijk,https://waarneming.nl/observation/380138684/
"POINT (3.99787 51.34426)",51.34426,3.99787,Sint Josephstraat, 4585 AH, Hengstdijk,https://waarneming.nl/observation/380137135/
"POINT (3.99278 51.34373)",51.34373,3.99278,Vogelweg, 4585 PL, Hengstdijk,https://waarneming.nl/observation/380139659/
"POINT (3.98465 51.31911)",51.31911,3.98465,Rapenburg, 4581 AC, Vogelwaarde,https://waarneming.nl/observation/379691480/
"POINT (3.96894 51.32692)",51.32692,3.96894,Meulenpad, 4581 EA, Vogelwaarde,https://waarneming.nl/observation/381142340/
"POINT (3.97636 51.4796)",51.47960,3.97636,Dankerseweg, 4421 RL, Biezelinge,https://waarneming.nl/observation/379705429/
"POINT (3.97607 51.48107)",51.48107,3.97607,Ambachtsherenwegeling, 4421 MZ, Biezelinge,https://waarneming.nl/observation/379705627/
"POINT (3.89273 51.5037)",51.50370,3.89273,Oostwal, 4461 JV, Goes,https://waarneming.nl/observation/379758091/
"POINT (4.06634 51.5497)",51.54970,4.06634,Hogeweg, 4695 PC, Sint-Maartensdijk,https://waarneming.nl/observation/379759245/
"POINT (3.88792 51.46119)",51.46119,3.88792,Bergweg, 4444 NC, 's-Heer Abtskerke,https://waarneming.nl/observation/379805175/
"POINT (3.54885 51.38834)",51.38834,3.54885,Nolletjesdijk, 4511 PJ, Breskens,https://waarneming.nl/observation/379698844/
"POINT (4.07243 51.53946)",51.53946,4.07243,Lindelaan, 4695 RT, Sint-Maartensdijk,https://waarneming.nl/observation/379759308/
"POINT (3.89546 51.30069)",51.30069,3.89546,Groeneweg, 4543 RP, Zaamslag,https://waarneming.nl/observation/379722294/
"POINT (3.89929 51.44419)",51.44419,3.89929,Baarlandsezandweg, 4434 RA, Kwadendamme,https://waarneming.nl/observation/379709653/
"POINT (3.4362 51.35931)",51.35931,3.43620,Vierhonderdpolderdijk, 4506 HL, Cadzand,https://waarneming.nl/observation/379725040/
"POINT (4.0712 51.27365)",51.27365,4.07120,Alexander de Grotestraat, 4562 BJ, Hulst,https://waarneming.nl/observation/379726269/
"POINT (3.49807 51.49879)",51.49879,3.49807,Duinweg, 4374 EJ, Zoutelande,https://waarneming.nl/observation/379726868/
"POINT (3.72642 51.32318)",51.32318,3.72642,Braakmanweg, 4521 PV, Biervliet,https://waarneming.nl/observation/379823680/
"POINT (3.91213 51.50219)",51.50219,3.91213,Langeweide, 4481 CP, Kloetinge,https://waarneming.nl/observation/379752216/
"POINT (3.62374 51.50218)",51.50218,3.62374,Nederstraat, 4332 AA, Middelburg,https://waarneming.nl/observation/379818811/
"POINT (3.87388 51.42835)",51.42835,3.87388,Siguitsedijk, 4434 AE, Kwadendamme,https://waarneming.nl/observation/379824186/
"POINT (3.63052 51.4941)",51.49410,3.63052,Kruitmolenlaan, 4337 KP, Middelburg,https://waarneming.nl/observation/379837227/
"POINT (3.53613 51.40301)",51.40301,3.53613,Nieuwesluisweg, 4511 RG, Breskens,https://waarneming.nl/observation/379858363/
"POINT (3.38814 51.34029)",51.34029,3.38814,Zeedijk, 4525 LP, Retranchement,https://waarneming.nl/observation/379872112/
"POINT (3.88317 51.44785)",51.44785,3.88317,Lange Mairedijk, 4431 NL, 's-Gravenpolder,https://waarneming.nl/observation/379885726/
"POINT (3.98711 51.37614)",51.37614,3.98711,Hooglandsedijk, 4589 RW, Ossenisse,https://waarneming.nl/observation/379897962/
"POINT (3.91376 51.50167)",51.50167,3.91376,Langeweide, 4481 CN, Kloetinge,https://waarneming.nl/observation/379883685/
"POINT (3.66198 51.54034)",51.54034,3.66198,Okkerlust, 4351 SM, Zanddijk,https://waarneming.nl/observation/379904762/
"POINT (3.66316 51.54297)",51.54297,3.66316,Veerseweg, 4351 RK, Zanddijk,https://waarneming.nl/observation/379835273/
"POINT (3.85396 51.32672)",51.32672,3.85396,Rooseveltlaan, 4532 LA, Terneuzen,https://waarneming.nl/observation/382020353/
"POINT (3.69354 51.56506)",51.56506,3.69354,Ruiterplaatweg, 4493 NZ, Kamperland,https://waarneming.nl/observation/379918108/
"POINT (3.59456 51.4622)",51.46220,3.59456,Bermweg, 4388 CB, Oost-Souburg,https://waarneming.nl/observation/380028346/
"POINT (4.02868 51.44916)",51.44916,4.02868,Hansweertsestraatweg, 4416 ND, Kruiningen,https://waarneming.nl/observation/379983399/
"POINT (3.98752 51.37682)",51.37682,3.98752,Zoutlandstraat, 4587 RP, Ossenisse,https://waarneming.nl/observation/379908794/
"POINT (3.51434 51.32152)",51.32152,3.51434,Cathalijne Schans, 4501 PW, Oostburg,https://waarneming.nl/observation/380413513/
"POINT (3.61261 51.31699)",51.31699,3.61261,Middenweg, 4515 EC, IJzendijke,https://waarneming.nl/observation/379939394/
"POINT (3.63354 51.45423)",51.45423,3.63354,Ritthemsestraat, 4389 TS, Ritthem,https://waarneming.nl/observation/379910165/
"POINT (3.77445 51.73858)",51.73858,3.77445,Jonkersweegje, 4325 ER, Renesse,https://waarneming.nl/observation/379909461/
"POINT (3.69169 51.29043)",51.29043,3.69169,Isabellaweg, 4522 PV, IJzendijke,https://waarneming.nl/observation/379944952/
"POINT (3.83493 51.23294)",51.23294,3.83493,Schuttersweide, 4554 CX, Westdorpe,https://waarneming.nl/observation/379954129/
"POINT (3.48118 51.39551)",51.39551,3.48118,Cletemspolder, 4503 PC, Groede,https://waarneming.nl/observation/379970673/
"POINT (3.79396 51.28734)",51.28734,3.79396,Visartpolderdijk, 4541 PE, Sluiskil,https://waarneming.nl/observation/380051828/
"POINT (3.86167 51.31015)",51.31015,3.86167,Wielingenlaan, 4535 JN, Terneuzen,https://waarneming.nl/observation/379971732/
"POINT (3.79775 51.47808)",51.47808,3.79775,Boerendijk, 4451 RS, Heinkenszand,https://waarneming.nl/observation/380053043/
"POINT (3.76789 51.44765)",51.44765,3.76789,'s-Heerenhoeksedijk, 4453 RB, 's-Heerenhoek,https://waarneming.nl/observation/379975948/
"POINT (3.74394 51.33566)",51.33566,3.74394,Wevelswaaldijk, 4542 SN, Hoek,https://waarneming.nl/observation/379996556/
"POINT (3.97882 51.30061)",51.30061,3.97882,Nieuwe Zeedijk, 4571 PH, Hulst,https://waarneming.nl/observation/380007610/
"POINT (3.87228 51.42754)",51.42754,3.87228,Siguitsedijk, 4434 AE, Kwadendamme,https://waarneming.nl/observation/380762474/
"POINT (4.00731 51.44679)",51.44679,4.00731,Berkellaan, 4417 DJ, Hansweert,https://waarneming.nl/observation/380066892/
"POINT (4.06668 51.41857)",51.41857,4.06668,Wegeling, 4414 BM, Waarde,https://waarneming.nl/observation/380786081/
"POINT (4.10689 51.27724)",51.27724,4.10689,Blomweg, 4567 PG, Clinge,https://waarneming.nl/observation/379998762/
"POINT (3.51627 51.33657)",51.33657,3.51627,Lange Heerenstraat, 4507 KP, Schoondijke,https://waarneming.nl/observation/380004510/
"POINT (3.46284 51.52356)",51.52356,3.46284,Boudewijnskerke, 4374 SB, Zoutelande,https://waarneming.nl/observation/380046810/
"POINT (3.73793 51.46823)",51.46823,3.73793,Prinses Margrietstraat, 4455 AX, Nieuwdorp,https://waarneming.nl/observation/380021596/
"POINT (3.89801 51.44443)",51.44443,3.89801,Baarlandsezandweg, 4434 RH, Kwadendamme,https://waarneming.nl/observation/380199266/
"POINT (3.94947 51.22611)",51.22611,3.94947,Nieuwe Karnemelkstraat, 4576 BT, Koewacht,https://waarneming.nl/observation/380106975/
"POINT (3.96611 51.22585)",51.22585,3.96611,Berlaersstraat, 4576 AD, Koewacht,https://waarneming.nl/observation/380109248/
"POINT (3.98365 51.23215)",51.23215,3.98365,Tragel, 4576 EP, Koewacht,https://waarneming.nl/observation/380111037/
"POINT (4.07118 51.29169)",51.29169,4.07118,Keizersdijkdreef, 4561 TE, Hulst,https://waarneming.nl/observation/380207436/
"POINT (3.92081 51.64832)",51.64832,3.92081,Nieuwe Bogerdstraat, 4301 CV, Zierikzee,https://waarneming.nl/observation/380107988/
"POINT (3.65745 51.54912)",51.54912,3.65745,Kreekweg, 4351 TB, Zanddijk,https://waarneming.nl/observation/380176074/
"POINT (3.79148 51.45633)",51.45633,3.79148,Vlaandertsedijk, 4451 NR, Heinkenszand,https://waarneming.nl/observation/380196890/
"POINT (3.79137 51.45822)",51.45822,3.79137,Vlaandertsedijk, 4451 NR, Heinkenszand,https://waarneming.nl/observation/380084999/
"POINT (3.9006 51.5085)",51.50850,3.90060,Anna Paulownaplein, 4461 RC, Goes,https://waarneming.nl/observation/380086816/
"POINT (3.85465 51.49101)",51.49101,3.85465,Sinoutskerkseweg, 4458 SM, 's-Heer Arendskerke,https://waarneming.nl/observation/380753456/
"POINT (4.05433 51.27284)",51.27284,4.05433,Zoetevaart, 4561 VL, Hulst,https://waarneming.nl/observation/380527010/
"POINT (3.97684 51.23427)",51.23427,3.97684,Vennepad, 4576 EJ, Koewacht,https://waarneming.nl/observation/380096815/
"POINT (3.98646 51.52291)",51.52291,3.98646,Hoogeweg, 4424 NM, Wemeldinge,https://waarneming.nl/observation/380123371/
"POINT (3.74398 51.33507)",51.33507,3.74398,Wevelswaaldijk, 4542 SN, Hoek,https://waarneming.nl/observation/380106597/
"POINT (3.72733 51.69032)",51.69032,3.72733,W.G. Bootlaan, 4328 LS, Burgh,https://waarneming.nl/observation/380169391/
"POINT (4.00181 51.26531)",51.26531,4.00181,Tarweweg, 4561 PX, Hulst,https://waarneming.nl/observation/380117293/
"POINT (3.98559 51.52296)",51.52296,3.98559,Stelhoekweg, 4424 MN, Wemeldinge,https://waarneming.nl/observation/380118199/
"POINT (3.62478 51.57644)",51.57644,3.62478,Noorddijk, 4354 NB, Vrouwenpolder,https://waarneming.nl/observation/380233558/
"POINT (3.65968 51.58631)",51.58631,3.65968,Schotsmanweg, 4493 MA, Kamperland,https://waarneming.nl/observation/380194128/
"POINT (3.9361 51.2686)",51.26860,3.93610,Hulsterseweg, 4571 RH, Axel,https://waarneming.nl/observation/380143067/
"POINT (3.55298 51.39115)",51.39115,3.55298,Anker, 4511 KB, Breskens,https://waarneming.nl/observation/380139508/
"POINT (3.99471 51.34302)",51.34302,3.99471,Kievitstraat, 4585 AJ, Hengstdijk,https://waarneming.nl/observation/380141948/
"POINT (3.99254 51.3404)",51.34040,3.99254,Vogelweg, 4585 PL, Hengstdijk,https://waarneming.nl/observation/380143595/
"POINT (3.82627 51.29988)",51.29988,3.82627,Goesseweg, 4541 PA, Sluiskil,https://waarneming.nl/observation/380174067/
"POINT (4.04514 51.4685)",51.46850,4.04514,Kaasgat, 4416 PP, Kruiningen,https://waarneming.nl/observation/380244483/
"POINT (3.85784 51.32973)",51.32973,3.85784,Kreekzicht, 4533 PP, Terneuzen,https://waarneming.nl/observation/380256014/
"POINT (3.99958 51.44868)",51.44868,3.99958,Keeten, 4417 CD, Hansweert,https://waarneming.nl/observation/380261007/
"POINT (3.82083 51.23005)",51.23005,3.82083,Peerboom, 4554 BW, Westdorpe,https://waarneming.nl/observation/380280871/
"POINT (3.90486 51.51047)",51.51047,3.90486,Ringbaan Oost, 4464 AX, Goes,https://waarneming.nl/observation/382682824/
"POINT (3.74167 51.47003)",51.47003,3.74167,Coudorp, 4455 AH, Nieuwdorp,https://waarneming.nl/observation/380217056/
"POINT (3.88283 51.51117)",51.51117,3.88283,Troelstralaan, 4463 BE, Goes,https://waarneming.nl/observation/380218834/
"POINT (3.81443 51.3239)",51.32390,3.81443,Hoekseweg, 4542 PT, Hoek,https://waarneming.nl/observation/380941255/
"POINT (3.71135 51.72149)",51.72149,3.71135,Strandweg, 4328 KK, Burgh-Haamstede,https://waarneming.nl/observation/380227899/
"POINT (3.85437 51.32333)",51.32333,3.85437,Jan van Galenstraat, 4535 BX, Terneuzen,https://waarneming.nl/observation/380228848/
"POINT (4.15705 51.29271)",51.29271,4.15705,Hulsterloostraat, 4568 AE, Nieuw Namen,https://waarneming.nl/observation/380241358/
"POINT (3.72707 51.46881)",51.46881,3.72707,Westhofweg, 4455 SV, Nieuwdorp,https://waarneming.nl/observation/380251895/
"POINT (4.07141 51.27422)",51.27422,4.07141,Alexander de Grotestraat, 4562 BJ, Hulst,https://waarneming.nl/observation/380275614/
"POINT (3.88347 51.47221)",51.47221,3.88347,Kloetingseweg, 4444 AD, 's-Heer Abtskerke,https://waarneming.nl/observation/380255572/
"POINT (3.97843 51.23303)",51.23303,3.97843,Vennepad, 4576 EJ, Koewacht,https://waarneming.nl/observation/380338936/
"POINT (3.58971 51.3279)",51.32790,3.58971,Zevenhofstedenstraat, 4515 RK, IJzendijke,https://waarneming.nl/observation/380263290/
"POINT (3.81623 51.69915)",51.69915,3.81623,Delingsdijk, 4327 AH, Serooskerke,https://waarneming.nl/observation/380487339/
"POINT (3.60604 51.49185)",51.49185,3.60604,Van Heemskerckstraat, 4335 HZ, Middelburg,https://waarneming.nl/observation/380264404/
"POINT (4.03393 51.33653)",51.33653,4.03393,Hulsterweg, 4584 LH, Kuitaart,https://waarneming.nl/observation/380264599/
"POINT (4.08653 51.28259)",51.28259,4.08653,Kijkuitstraat, 4567 PA, Clinge,https://waarneming.nl/observation/380275823/
"POINT (4.07822 51.28256)",51.28256,4.07822,Bietenweg, 4567 PA, Hulst,https://waarneming.nl/observation/380275884/
"POINT (3.76193 51.46215)",51.46215,3.76193,Molendijk, 4453 VA, 's-Heerenhoek,https://waarneming.nl/observation/380305498/
"POINT (4.05298 51.27054)",51.27054,4.05298,Schumannstraat, 4561 VV, Hulst,https://waarneming.nl/observation/380293449/
"POINT (4.10558 51.42127)",51.42127,4.10558,,4414 NA, Waarde,https://waarneming.nl/observation/380299146/
"POINT (4.06362 51.53951)",51.53951,4.06362,Kastelijnsweg, 4695 RT, Sint-Maartensdijk,https://waarneming.nl/observation/380315813/
"POINT (4.04884 51.25805)",51.25805,4.04884,Wilhelminastraat, 4564 AD, Sint Jansteen,https://waarneming.nl/observation/380312815/
"POINT (3.89369 51.50327)",51.50327,3.89369,Oostsingel, 4461 KD, Goes,https://waarneming.nl/observation/380323277/
"POINT (3.61845 51.5719)",51.57190,3.61845,Liebertsweg, 4354 SH, Vrouwenpolder,https://waarneming.nl/observation/380323010/
"POINT (3.8432 51.23886)",51.23886,3.84320,Graafjansdijk B, 4554 LB, Westdorpe,https://waarneming.nl/observation/380327727/
"POINT (3.72057 51.31591)",51.31591,3.72057,Middenweg, 4542 PN, Hoek,https://waarneming.nl/observation/380410769/
"POINT (3.72999 51.31928)",51.31928,3.72999,Wulpenlaan, 4542 GH, Hoek,https://waarneming.nl/observation/380412478/
"POINT (3.72888 51.32016)",51.32016,3.72888,Gruttolaan, 4542 GC, Hoek,https://waarneming.nl/observation/380415354/
"POINT (3.37667 51.35367)",51.35367,3.37667,Noordstraat, 4525 NA, Retranchement,https://waarneming.nl/observation/380360282/
"POINT (3.73241 51.32015)",51.32015,3.73241,Gruttolaan, 4542 GB, Hoek,https://waarneming.nl/observation/380416789/
"POINT (3.82156 51.49214)",51.49214,3.82156,Lange Achterweg, 4458 AA, 's-Heer Arendskerke,https://waarneming.nl/observation/380380452/
"POINT (3.76442 51.28082)",51.28082,3.76442,Kasteelstraat, 4553 AT, Philippine,https://waarneming.nl/observation/380395902/
"POINT (3.85086 51.31164)",51.31164,3.85086,Hunzelaan, 4535 GE, Terneuzen,https://waarneming.nl/observation/380380357/
"POINT (3.51109 51.27279)",51.27279,3.51109,Wilhelminaweg, 4528 ET, Sint Kruis,https://waarneming.nl/observation/380380934/
"POINT (3.91144 51.72363)",51.72363,3.91144,Burgemeester Gaststraat, 4318 BC, Brouwershaven,https://waarneming.nl/observation/380442322/
"POINT (3.57459 51.57138)",51.57138,3.57459,Munnikweg, 4356 EB, Oostkapelle,https://waarneming.nl/observation/380385089/
"POINT (3.62452 51.50313)",51.50313,3.62452,Veersesingel, 4332 TC, Middelburg,https://waarneming.nl/observation/380391349/
"POINT (3.62013 51.48266)",51.48266,3.62013,Prinsenhove, 4336 HA, Middelburg,https://waarneming.nl/observation/380393044/
"POINT (3.87471 51.5127)",51.51270,3.87471,Van Hogendorplaan, 4463 VP, Goes,https://waarneming.nl/observation/380405432/
"POINT (3.45458 51.34024)",51.34024,3.45458,Eikenstraat, 4505 AD, Zuidzande,https://waarneming.nl/observation/380411647/
"POINT (3.6121 51.31664)",51.31664,3.61210,Middenweg, 4515 EC, IJzendijke,https://waarneming.nl/observation/380433949/
"POINT (4.0949 51.65793)",51.65793,4.09490,Plantage, 4311 AD, Bruinisse,https://waarneming.nl/observation/380443039/
"POINT (3.87485 51.44525)",51.44525,3.87485,Lange Mairedijk, 4431 PH, 's-Gravenpolder,https://waarneming.nl/observation/380472995/
"POINT (3.84016 51.31721)",51.31721,3.84016,Valeriaanstraat, 4537 DC, Terneuzen,https://waarneming.nl/observation/380469001/
"POINT (3.83986 51.31776)",51.31776,3.83986,Valeriaanstraat, 4537 DD, Terneuzen,https://waarneming.nl/observation/380468720/
"POINT (3.89186 51.34798)",51.34798,3.89186,Eendragtweg, 4543 PE, Zaamslag,https://waarneming.nl/observation/380479082/
"POINT (3.56725 51.53196)",51.53196,3.56725,Jacob Catsweg, 4364 TE, Grijpskerke,https://waarneming.nl/observation/380507936/
"POINT (3.71433 51.27704)",51.27704,3.71433,Boekhouteweg, 4553 PM, Philippine,https://waarneming.nl/observation/380506810/
"POINT (3.93242 51.69421)",51.69421,3.93242,Zuid Bosweg, 4317 AP, Noordgouwe,https://waarneming.nl/observation/380527110/
"POINT (4.19642 51.62197)",51.62197,4.19642,Hollaerdijk-West, 4675 PW, Sint Philipsland,https://waarneming.nl/observation/380521582/
"POINT (4.05903 51.27805)",51.27805,4.05903,Bollewerck, 4561 JS, Hulst,https://waarneming.nl/observation/380520247/
"POINT (3.59349 51.45844)",51.45844,3.59349,Bermweg, 4388 GW, Oost-Souburg,https://waarneming.nl/observation/380529263/
"POINT (4.00121 51.26485)",51.26485,4.00121,Tarweweg, 4561 PX, Hulst,https://waarneming.nl/observation/380533710/
"POINT (3.59181 51.45863)",51.45863,3.59181,Energieweg, 4388 GA, Vlissingen,https://waarneming.nl/observation/380540184/
"POINT (3.83996 51.40717)",51.40717,3.83996,Tolhoekweg, 4436 RL, Oudelande,https://waarneming.nl/observation/380551108/
"POINT (3.62012 51.51236)",51.51236,3.62012,Prooijenseweg, 4332 RD, Middelburg,https://waarneming.nl/observation/380563361/
"POINT (3.90622 51.26339)",51.26339,3.90622,Burchtlaan, 4571 HR, Axel,https://waarneming.nl/observation/381698324/
"POINT (3.73843 51.46649)",51.46649,3.73843,Coudorp, 4455 AH, Nieuwdorp,https://waarneming.nl/observation/380577921/
"POINT (3.85408 51.3264)",51.32640,3.85408,Jan van Galenstraat, 4535 BX, Terneuzen,https://waarneming.nl/observation/380585567/
"POINT (4.07607 51.41474)",51.41474,4.07607,Weelweg, 4414 AW, Waarde,https://waarneming.nl/observation/380578026/
"POINT (3.60101 51.49078)",51.49078,3.60101,Arnelaan, 4335 TA, Middelburg,https://waarneming.nl/observation/380594264/
"POINT (3.72596 51.49498)",51.49498,3.72596,Oude Veerweg, 4456 NW, Lewedorp,https://waarneming.nl/observation/380790925/
"POINT (3.72654 51.47165)",51.47165,3.72654,Bernhardweg West, 4455 TE, Ritthem,https://waarneming.nl/observation/380589714/
"POINT (3.87588 51.51651)",51.51651,3.87588,Laan der Verenigde Naties, 4463 WN, Goes,https://waarneming.nl/observation/380610947/
"POINT (3.81844 51.42982)",51.42982,3.81844,Plataanweg, 4441 AM, Ovezande,https://waarneming.nl/observation/380684601/
"POINT (3.89468 51.26096)",51.26096,3.89468,Lageweg, 4571 NA, Axel,https://waarneming.nl/observation/380674606/
"POINT (3.77141 51.73905)",51.73905,3.77141,Bremweg, 4325 ET, Renesse,https://waarneming.nl/observation/380666592/
"POINT (3.77267 51.7387)",51.73870,3.77267,Lijsterweg, 4325 GA, Renesse,https://waarneming.nl/observation/380666778/
"POINT (3.60815 51.49928)",51.49928,3.60815,Penninghoeksingel, 4331 PV, Middelburg,https://waarneming.nl/observation/380705269/
"POINT (3.90177 51.64708)",51.64708,3.90177,Zilvermeeuwstraat, 4301 WS, Zierikzee,https://waarneming.nl/observation/381703550/
"POINT (3.61846 51.48852)",51.48852,3.61846,Statenhove, 4336 CA, Middelburg,https://waarneming.nl/observation/380738339/
"POINT (3.59443 51.49105)",51.49105,3.59443,Kruisweg, 4335 CT, Middelburg,https://waarneming.nl/observation/380732539/
"POINT (3.89989 51.68997)",51.68997,3.89989,Weelweg, 4321 AH, Kerkwerve,https://waarneming.nl/observation/380761364/
"POINT (3.8093 51.22718)",51.22718,3.80930,Sint Anthoniekade, 4554 AB, Westdorpe,https://waarneming.nl/observation/380722748/
"POINT (3.61578 51.50084)",51.50084,3.61578,Hof van Sint Pieter, 4331 ET, Middelburg,https://waarneming.nl/observation/380748676/
"POINT (3.92587 51.65236)",51.65236,3.92587,Teelinckstraat, 4301 KM, Zierikzee,https://waarneming.nl/observation/380764942/
"POINT (3.50037 51.32935)",51.32935,3.50037,Schorpioen, 4501 HB, Oostburg,https://waarneming.nl/observation/381039678/
"POINT (3.89571 51.49549)",51.49549,3.89571,Bessestraat, 4462 CL, Goes,https://waarneming.nl/observation/380747561/
"POINT (3.74183 51.47645)",51.47645,3.74183,Kasteelweg, 4455 RW, Nieuwdorp,https://waarneming.nl/observation/380781428/
"POINT (3.85661 51.30976)",51.30976,3.85661,Zeldenrustlaan, 4535 GX, Terneuzen,https://waarneming.nl/observation/380803500/
"POINT (3.85143 51.3322)",51.33220,3.85143,van Swindenstraat, 4532 KC, Terneuzen,https://waarneming.nl/observation/380803304/
"POINT (3.88657 51.51524)",51.51524,3.88657,Oude Zeedijk, 4463 AE, Goes,https://waarneming.nl/observation/380764337/
"POINT (3.83032 51.32756)",51.32756,3.83032,Baandijk, 4537 SW, Terneuzen,https://waarneming.nl/observation/380754056/
"POINT (4.23085 51.40037)",51.40037,4.23085,Brugweg, 4411 SV, Rilland,https://waarneming.nl/observation/380767183/
"POINT (4.22555 51.40839)",51.40839,4.22555,Bathse Schor, 4411 RS, Rilland,https://waarneming.nl/observation/380767141/
"POINT (3.81394 51.22996)",51.22996,3.81394,Graafjansdijk A, 4554 AE, Westdorpe,https://waarneming.nl/observation/380774922/
"POINT (3.89515 51.26996)",51.26996,3.89515,Westsingel, 4571 VE, Axel,https://waarneming.nl/observation/380761751/
"POINT (3.89014 51.23318)",51.23318,3.89014,Fortstraat, 4574 NH, Zuiddorpe,https://waarneming.nl/observation/380774655/
"POINT (3.89608 51.22923)",51.22923,3.89608,Sint Janstraat, 4574 RZ, Zuiddorpe,https://waarneming.nl/observation/380775090/
"POINT (3.89766 51.26491)",51.26491,3.89766,Zuidsingel, 4571 HP, Axel,https://waarneming.nl/observation/380776082/
"POINT (3.87585 51.27951)",51.27951,3.87585,Tractaatweg, 4571 SH, Sluiskil,https://waarneming.nl/observation/380774731/
"POINT (3.87537 51.28118)",51.28118,3.87537,Kruisweg, 4571 SH, Sluiskil,https://waarneming.nl/observation/380774791/
"POINT (4.17678 51.41712)",51.41712,4.17678,Sint Felixstraat, 4411 DB, Rilland,https://waarneming.nl/observation/380772738/
"POINT (3.87988 51.29779)",51.29779,3.87988,Spui, 4539 PB, Spui,https://waarneming.nl/observation/380776363/
"POINT (3.50744 51.30794)",51.30794,3.50744,Slepersdijk, 4528 KE, Oostburg,https://waarneming.nl/observation/380805311/
"POINT (3.79871 51.21264)",51.21264,3.79871,Poeldijk, 4551 BX, Sas van Gent,https://waarneming.nl/observation/380808623/
"POINT (3.58832 51.45765)",51.45765,3.58832,Sloeweg, 4383 NK, Vlissingen,https://waarneming.nl/observation/380802516/
"POINT (4.1457 51.41927)",51.41927,4.14570,Duivenhoek, 4411 SH, Rilland,https://waarneming.nl/observation/380816843/
"POINT (3.61036 51.50689)",51.50689,3.61036,Gerbrandijlaan, 4333 BG, Middelburg,https://waarneming.nl/observation/380826209/
"POINT (3.50521 51.32526)",51.32526,3.50521,Boogschutter, 4501 HT, Oostburg,https://waarneming.nl/observation/380810551/
"POINT (3.81792 51.4195)",51.41950,3.81792,Ruigendijk, 4438 NR, Driewegen,https://waarneming.nl/observation/380841106/
"POINT (4.01087 51.33373)",51.33373,4.01087,Polderweg, 4585 PG, Hengstdijk,https://waarneming.nl/observation/380825320/
"POINT (3.87156 51.3315)",51.33150,3.87156,Reuzenhoeksedijk, 4533 EH, Terneuzen,https://waarneming.nl/observation/380834671/
"POINT (3.83921 51.3344)",51.33440,3.83921,Prinsessestraat, 4532 AJ, Terneuzen,https://waarneming.nl/observation/380838437/
"POINT (4.23744 51.4329)",51.43290,4.23744,Markiezaatsweg, 4411 TD, Rilland,https://waarneming.nl/observation/380884213/
"POINT (4.0406 51.45984)",51.45984,4.04060,Donkerewegje, 4416 PM, Kruiningen,https://waarneming.nl/observation/380887699/
"POINT (3.9175 51.26164)",51.26164,3.91750,van Middelhovenstraat, 4571 AB, Axel,https://waarneming.nl/observation/380888848/
"POINT (4.06512 51.44445)",51.44445,4.06512,1e Vlietweg, 4416 RH, Oostdijk,https://waarneming.nl/observation/380894921/
"POINT (3.75584 51.28207)",51.28207,3.75584,Benedictijnerstraat, 4553 CS, Philippine,https://waarneming.nl/observation/380941336/
"POINT (4.23163 51.40076)",51.40076,4.23163,Brugweg, 4411 SV, Rilland,https://waarneming.nl/observation/380924233/
"POINT (3.82392 51.2279)",51.22790,3.82392,Singel, 4554 CP, Westdorpe,https://waarneming.nl/observation/380934136/
"POINT (4.10485 51.42117)",51.42117,4.10485,Gawege, 4414 NB, Waarde,https://waarneming.nl/observation/380935568/
"POINT (3.39241 51.30547)",51.30547,3.39241,Groenevelt, 4524 MA, Sluis,https://waarneming.nl/observation/380957301/
"POINT (3.59195 51.55018)",51.55018,3.59195,Oostkapelseweg, 4353 EH, Serooskerke,https://waarneming.nl/observation/380996757/
"POINT (3.72752 51.32717)",51.32717,3.72752,Braakmanweg, 4521 PV, Biervliet,https://waarneming.nl/observation/380980172/
"POINT (3.66098 51.54555)",51.54555,3.66098,'t Singeltje, 4351 RA, Zanddijk,https://waarneming.nl/observation/382559207/
"POINT (3.79934 51.23099)",51.23099,3.79934,Oranjestraat, 4551 AB, Sas van Gent,https://waarneming.nl/observation/380984196/
"POINT (3.79692 51.47855)",51.47855,3.79692,Boerendijk, 4451 RS, Heinkenszand,https://waarneming.nl/observation/381068089/
"POINT (3.61339 51.32762)",51.32762,3.61339,Parmastraat, 4515 GC, IJzendijke,https://waarneming.nl/observation/381030843/
"POINT (3.58028 51.46509)",51.46509,3.58028,Kievietsprenk, 4386 DC, Vlissingen,https://waarneming.nl/observation/381031668/
"POINT (3.5634 51.55269)",51.55269,3.56340,Zwanenburgseweg, 4364 RG, Grijpskerke,https://waarneming.nl/observation/381067570/
"POINT (3.79802 51.23488)",51.23488,3.79802,Buitenweg, 4551 AA, Sas van Gent,https://waarneming.nl/observation/381058609/
"POINT (3.88611 51.44947)",51.44947,3.88611,Lange Mairedijk, 4431 NL, 's-Gravenpolder,https://waarneming.nl/observation/381061821/
"POINT (3.89633 51.48935)",51.48935,3.89633,Wagnerlaan, 4462 KH, Goes,https://waarneming.nl/observation/381090322/
"POINT (3.86207 51.33126)",51.33126,3.86207,Opaaldreef, 4533 AM, Terneuzen,https://waarneming.nl/observation/381508382/
"POINT (3.63946 51.45011)",51.45011,3.63946,Oostelijke Bermweg, 4389 TZ, Ritthem,https://waarneming.nl/observation/381113440/
"POINT (3.61759 51.50154)",51.50154,3.61759,Spuistraat, 4331 EX, Middelburg,https://waarneming.nl/observation/381135172/
"POINT (4.05054 51.28448)",51.28448,4.05054,Tivoliweg, 4561 HL, Hulst,https://waarneming.nl/observation/381147589/
"POINT (3.85324 51.45488)",51.45488,3.85324,Zuidweg, 4443 AA, Nisse,https://waarneming.nl/observation/381150237/
"POINT (4.04271 51.48962)",51.48962,4.04271,Moerplein, 4401 HZ, Yerseke,https://waarneming.nl/observation/381210826/
"POINT (3.90642 51.43749)",51.43749,3.90642,Vrouwenweg, 4433 RT, Hoedekenskerke,https://waarneming.nl/observation/381209286/
"POINT (3.67813 51.50379)",51.50379,3.67813,Korenbloemlaan, 4341 JD, Arnemuiden,https://waarneming.nl/observation/381270935/
"POINT (3.90238 51.48278)",51.48278,3.90238,Nansenbaan, 4462 HZ, Goes,https://waarneming.nl/observation/381275250/
"POINT (3.7999 51.23054)",51.23054,3.79990,Westsluis, 4551 BD, Sas van Gent,https://waarneming.nl/observation/381276511/
"POINT (3.61726 51.49361)",51.49361,3.61726,Segeerssingel, 4337 LH, Middelburg,https://waarneming.nl/observation/381791256/
"POINT (3.7367 51.46857)",51.46857,3.73670,Prinses Margrietstraat, 4455 AX, Nieuwdorp,https://waarneming.nl/observation/381755195/
"POINT (3.73939 51.46861)",51.46861,3.73939,Prinses Margrietstraat, 4455 AX, Nieuwdorp,https://waarneming.nl/observation/381755419/
"POINT (3.94185 51.2405)",51.24050,3.94185,Benedenstraat, 4576 CL, Koewacht,https://waarneming.nl/observation/381403102/
"POINT (3.93983 51.67897)",51.67897,3.93983,Donkereweg, 4317 NK, Noordgouwe,https://waarneming.nl/observation/381385126/
"POINT (4.02869 51.33568)",51.33568,4.02869,Meerdijk, 4584 RP, Kuitaart,https://waarneming.nl/observation/381398990/
"POINT (3.59083 51.46988)",51.46988,3.59083,Vrijburgstraat, 4387 AH, Vlissingen,https://waarneming.nl/observation/381467655/
"POINT (3.89708 51.44463)",51.44463,3.89708,Baarlandsezandweg, 4434 RH, Kwadendamme,https://waarneming.nl/observation/381414364/
"POINT (3.98851 51.37234)",51.37234,3.98851,Hooglandsedijk, 4589 RW, Ossenisse,https://waarneming.nl/observation/381567160/
"POINT (3.73884 51.33143)",51.33143,3.73884,Braakmanweg, 4542 SN, Biervliet,https://waarneming.nl/observation/381424345/
"POINT (4.19912 51.4334)",51.43340,4.19912,Bathpolderweg, 4411 RT, Rilland,https://waarneming.nl/observation/381668299/
"POINT (3.90463 51.2635)",51.26350,3.90463,Burchtlaan, 4571 HR, Axel,https://waarneming.nl/observation/381473718/
"POINT (3.85423 51.32397)",51.32397,3.85423,Jan van Galenstraat, 4535 BZ, Terneuzen,https://waarneming.nl/observation/381637434/
"POINT (3.63559 51.45024)",51.45024,3.63559,Barentsweg, 4389 TW, Ritthem,https://waarneming.nl/observation/381530083/
"POINT (3.97238 51.22662)",51.22662,3.97238,Schuttershofweg, 4576 AP, Koewacht,https://waarneming.nl/observation/381551365/
"POINT (3.95768 51.21964)",51.21964,3.95768,Kruispad, 4576 BW, Koewacht,https://waarneming.nl/observation/381551532/
"POINT (3.89549 51.4896)",51.48960,3.89549,Duke Ellingtonlaan, 4462 LK, Goes,https://waarneming.nl/observation/381615109/
"POINT (3.75579 51.44249)",51.44249,3.75579,Westerscheldetunnelweg, 4454 PD, Borssele,https://waarneming.nl/observation/381655805/
"POINT (3.67162 51.52578)",51.52578,3.67162,Verlengde weg naar Veere, 4341 PJ, Arnemuiden,https://waarneming.nl/observation/381679940/
"POINT (3.99678 51.34427)",51.34427,3.99678,Hengstdijkse Kerkstraat, 4585 AB, Hengstdijk,https://waarneming.nl/observation/381649368/
"POINT (3.80174 51.23172)",51.23172,3.80174,Westkade, 4551 CS, Sas van Gent,https://waarneming.nl/observation/381749836/
"POINT (3.82859 51.26091)",51.26091,3.82859,Westkade, 4554 LN, Sas van Gent,https://waarneming.nl/observation/381742450/
"POINT (3.63087 51.51058)",51.51058,3.63087,Veerseweg, 4332 SK, Middelburg,https://waarneming.nl/observation/381791033/
"POINT (4.00565 51.45014)",51.45014,4.00565,Boomdijk, 4417 BE, Hansweert,https://waarneming.nl/observation/381801477/
"POINT (3.77057 51.45742)",51.45742,3.77057,Blikhoek, 4453 BG, 's-Heerenhoek,https://waarneming.nl/observation/381825112/
"POINT (4.00024 51.26595)",51.26595,4.00024,Gerstweg, 4561 PW, Hulst,https://waarneming.nl/observation/381843420/
"POINT (3.86853 51.25026)",51.25026,3.86853,Langeweg, 4574 NA, Zuiddorpe,https://waarneming.nl/observation/381898740/
"POINT (3.70996 51.71611)",51.71611,3.70996,Meidoornweg, 4328 JG, Burgh-Haamstede,https://waarneming.nl/observation/381955242/
"POINT (3.84677 51.25567)",51.25567,3.84677,De Vossekaai, 4554 MB, Westdorpe,https://waarneming.nl/observation/381898941/
"POINT (3.60906 51.4999)",51.49990,3.60906,Stadhuisstraat, 4331 PK, Middelburg,https://waarneming.nl/observation/381970678/
"POINT (3.61556 51.56539)",51.56539,3.61556,Rijkebuurtweg, 4354 SE, Vrouwenpolder,https://waarneming.nl/observation/382124504/
"POINT (3.44907 51.2435)",51.24350,3.44907,Rijksweg, 4529 JC, Eede,https://waarneming.nl/observation/382159533/
"POINT (3.94599 51.51447)",51.51447,3.94599,Monnikendijk, 4474 NB, Kattendijke,https://waarneming.nl/observation/382181184/
"POINT (3.74316 51.704)",51.70400,3.74316,Hogezoom, 4328 EE, Haamstede,https://waarneming.nl/observation/382251032/
"POINT (3.56441 51.58136)",51.58136,3.56441,Vroonweg, 4356 EK, Oostkapelle,https://waarneming.nl/observation/382270540/
"POINT (4.00092 51.44819)",51.44819,4.00092,Pluimpot, 4417 CH, Hansweert,https://waarneming.nl/observation/383103723/
"POINT (3.90684 51.48713)",51.48713,3.90684,Motte, 4481 PP, Kloetinge,https://waarneming.nl/observation/382481455/
"POINT (3.92337 51.26157)",51.26157,3.92337,Zonnemare, 4571 CW, Axel,https://waarneming.nl/observation/382462732/
"POINT (4.15821 51.42484)",51.42484,4.15821,Drie Haasjes, 4411 NJ, Rilland,https://waarneming.nl/observation/382446928/
"POINT (3.61911 51.48958)",51.48958,3.61911,Meiveldpad, 4336 CA, Middelburg,https://waarneming.nl/observation/382637064/
"POINT (3.59463 51.45865)",51.45865,3.59463,Zuiderzeestraat, 4388 GP, Oost-Souburg,https://waarneming.nl/observation/382593875/
"POINT (4.04219 51.48867)",51.48867,4.04219,Moerplein, 4401 HZ, Yerseke,https://waarneming.nl/observation/382602648/
"POINT (3.8985 51.3994)",51.39940,3.89850,Langepolderweg, 4435 ND, Baarland,https://waarneming.nl/observation/382668154/
"POINT (3.52219 51.5699)",51.56990,3.52219,Duinvlietweg, 4356 ND, Oostkapelle,https://waarneming.nl/observation/382656565/
"POINT (3.64052 51.44903)",51.44903,3.64052,Oostelijke Bermweg, 4389 TZ, Ritthem,https://waarneming.nl/observation/382662917/
"POINT (3.94855 51.51927)",51.51927,3.94855,Zuidweg, 4474 NE, Kattendijke,https://waarneming.nl/observation/382810603/
"POINT (3.94287 51.2945)",51.29450,3.94287,Oude Zeedijk, 4571 PP, Axel,https://waarneming.nl/observation/382880588/
"POINT (3.54775 51.45731)",51.45731,3.54775,Westduinpad, 4384 LT, Vlissingen,https://waarneming.nl/observation/383084238/
"POINT (3.57955 51.46488)",51.46488,3.57955,Nieuwe Zuidbeekseweg, 4385 GP, Vlissingen,https://waarneming.nl/observation/383138194/
"POINT (3.93158 51.65359)",51.65359,3.93158,Van Veenlaan, 4301 NN, Zierikzee,https://waarneming.nl/observation/383179669/
"POINT (3.45383 51.27072)",51.27072,3.45383,Akkerstraat, 4527 GG, Aardenburg,https://waarneming.nl/observation/383296653/
