WKT,latitude,longitude,street,postalcode,city,description
"POINT (4.24359 51.90084)",51.90084,4.24359,van Ostadelaan, 3181 HS, Rozenburg,https://waarneming.nl/observation/336233609/
"POINT (4.43923 51.9413)",51.94130,4.43923,Zestienhovensekade, 3043 KT, Rotterdam,https://waarneming.nl/observation/336709219/
"POINT (4.51279 51.87779)",51.87779,4.51279,Cartesiusstraat, 3076 DD, Rotterdam,https://waarneming.nl/observation/337504063/
"POINT (4.78799 51.81779)",51.81779,4.78799,Rembrandtlaan, 3362 AW, Sliedrecht,https://waarneming.nl/observation/337530879/
"POINT (4.22146 51.87914)",51.87914,4.22146,Henry Fordstraat, 3238 BE, Zwartewaal,https://waarneming.nl/observation/337685830/
"POINT (4.71169 52.03336)",52.03336,4.71169,Plaswijckweg, 2804 LS, Gouda,https://waarneming.nl/observation/337664531/
"POINT (4.56093 51.73644)",51.73644,4.56093,Schenkeldijk, 3291 EP, Strijen,https://waarneming.nl/observation/338427367/
"POINT (4.6139 51.74617)",51.74617,4.61390,Schenkeldijk, 3295 EJ, 's-Gravendeel,https://waarneming.nl/observation/338033149/
"POINT (4.76604 51.82686)",51.82686,4.76604,Kilstraat, 3363 CD, Sliedrecht,https://waarneming.nl/observation/338683904/
"POINT (3.88837 51.7854)",51.78540,3.88837,De Eco Punt, 3253 ML, Ouddorp,https://waarneming.nl/observation/339981105/
"POINT (3.88852 51.78571)",51.78571,3.88852,De Eco Punt, 3253 ML, Ouddorp,https://waarneming.nl/observation/340130953/
"POINT (4.6082 51.92271)",51.92271,4.60820,Olympiade, 2924 AN, Krimpen aan den IJssel,https://waarneming.nl/observation/341485432/
"POINT (4.57239 51.81467)",51.81467,4.57239,Borgmanpad, 3297 LH, Zwijndrecht,https://waarneming.nl/observation/341317633/
"POINT (4.58223 52.30176)",52.30176,4.58223,Burgemeester Wentholtstraat, 2182 GX, Hillegom,https://waarneming.nl/observation/342953602/
"POINT (4.57515 51.81547)",51.81547,4.57515,Lindtsedijk, 2995 XL, Heerjansdam,https://waarneming.nl/observation/342923045/
"POINT (4.54174 51.87647)",51.87647,4.54174,Hordijk, 3079 DE, Rotterdam,https://waarneming.nl/observation/343024333/
"POINT (4.53956 51.70434)",51.70434,4.53956,Buitendijk, 4782 SZ, Strijensas,https://waarneming.nl/observation/343133790/
"POINT (4.66574 52.07494)",52.07494,4.66574,Populierenhof, 2771 DM, Boskoop,https://waarneming.nl/observation/343402430/
"POINT (4.41753 51.81976)",51.81976,4.41753,Margrietstraat, 3261 AN, Oud-Beijerland,https://waarneming.nl/observation/343595215/
"POINT (4.96016 51.84495)",51.84495,4.96016,Klaproos, 4205 MA, Gorinchem,https://waarneming.nl/observation/343728871/
"POINT (4.68024 52.15144)",52.15144,4.68024,Elzekrulzoom, 2403 SK, Alphen aan den Rijn,https://waarneming.nl/observation/343763197/
"POINT (4.53339 51.91592)",51.91592,4.53339,K.P. van der Mandelelaan, 3062 MA, Rotterdam,https://waarneming.nl/observation/344079867/
"POINT (4.34511 51.68047)",51.68047,4.34511,'t Meulentje, 3257 BJ, Ooltgensplaat,https://waarneming.nl/observation/343995295/
"POINT (4.0782 51.90852)",51.90852,4.07820,F H G van Itersonlaan, 3233 EL, Oostvoorne,https://waarneming.nl/observation/344723354/
"POINT (4.30983 52.02179)",52.02179,4.30983,Van der Kooijweg, 2286 MB, Rijswijk,https://waarneming.nl/observation/344381715/
"POINT (4.62523 51.87126)",51.87126,4.62523,Gorzenweg, 2984 BN, Ridderkerk,https://waarneming.nl/observation/377801355/
"POINT (4.46732 51.93365)",51.93365,4.46732,Troelstrastraat, 3038 KV, Rotterdam,https://waarneming.nl/observation/344836754/
"POINT (4.61619 51.86004)",51.86004,4.61619,Pelikaan, 2986 TE, Ridderkerk,https://waarneming.nl/observation/344945940/
"POINT (4.54833 51.74108)",51.74108,4.54833,Leeuwerikstraat, 3291 XJ, Strijen,https://waarneming.nl/observation/344992597/
"POINT (4.71852 52.04392)",52.04392,4.71852,Van Staverenstraat, 2811 TJ, Reeuwijk,https://waarneming.nl/observation/345418312/
"POINT (4.27799 51.68916)",51.68916,4.27799,Bommelsedijk, 3256 LC, Achthuizen,https://waarneming.nl/observation/345518929/
"POINT (4.4007 51.92428)",51.92428,4.40070,Johan Braakensiekstraat, 3119 NL, Schiedam,https://waarneming.nl/observation/345832820/
"POINT (4.5668 51.83451)",51.83451,4.56680,Johannes Postlaan, 2995 VH, Heerjansdam,https://waarneming.nl/observation/346111722/
"POINT (4.21413 51.69274)",51.69274,4.21413,Wilhelminastraat, 3255 BR, Oude-Tonge,https://waarneming.nl/observation/346508959/
"POINT (4.43676 51.73259)",51.73259,4.43676,Rozenlaan, 3281 CS, Numansdorp,https://waarneming.nl/observation/347394707/
"POINT (4.33562 51.79574)",51.79574,4.33562,Oud Piershilseweg, 3265 LE, Piershil,https://waarneming.nl/observation/346594915/
"POINT (4.55461 51.84548)",51.84548,4.55461,Willem-Alexanderplantsoen, 2991 NC, Barendrecht,https://waarneming.nl/observation/346674376/
"POINT (4.65859 51.82157)",51.82157,4.65859,W.H. Vliegenstraat, 3332 CV, Zwijndrecht,https://waarneming.nl/observation/346858955/
"POINT (4.3317 51.86653)",51.86653,4.33170,,3197 LB, Rotterdam,https://waarneming.nl/observation/347431304/
"POINT (4.50901 52.06553)",52.06553,4.50901,Vuurdoornpark, 2724 HG, Zoetermeer,https://waarneming.nl/observation/347449123/
"POINT (4.56682 51.92206)",51.92206,4.56682,Brahmsstraat, 2901 JE, Capelle aan den IJssel,https://waarneming.nl/observation/354869606/
"POINT (4.56593 51.80054)",51.80054,4.56593,Binnenkruier, 3297 TA, Puttershoek,https://waarneming.nl/observation/347617561/
"POINT (4.47877 52.03894)",52.03894,4.47877,Camee, 2719 RM, Zoetermeer,https://waarneming.nl/observation/347708135/
"POINT (4.63518 52.16778)",52.16778,4.63518,Bateweg, 2481 AN, Woubrugge,https://waarneming.nl/observation/347843991/
"POINT (4.20683 51.69159)",51.69159,4.20683,Jozefdreef, 3255 AE, Oude-Tonge,https://waarneming.nl/observation/347969157/
"POINT (4.49399 51.75759)",51.75759,4.49399,Oudendijk, 3291 LM, Strijen,https://waarneming.nl/observation/347942898/
"POINT (4.43462 51.76927)",51.76927,4.43462,Oud-Cromstrijensedijk Westzijde, 3286 BS, Klaaswaal,https://waarneming.nl/observation/348178329/
"POINT (4.08448 51.91369)",51.91369,4.08448,Duinlaan, 3233 EB, Oostvoorne,https://waarneming.nl/observation/348030648/
"POINT (4.44788 51.76019)",51.76019,4.44788,Boomdijk, 3286 LD, Klaaswaal,https://waarneming.nl/observation/348067881/
"POINT (4.6722 51.78493)",51.78493,4.67220,Kometenlaan, 3318 JD, Dordrecht,https://waarneming.nl/observation/348163328/
"POINT (4.43465 51.76899)",51.76899,4.43465,Oud-Cromstrijensedijk Westzijde, 3286 BS, Klaaswaal,https://waarneming.nl/observation/348194438/
"POINT (4.26283 51.81892)",51.81892,4.26283,Israëllaan, 3214 EG, Zuidland,https://waarneming.nl/observation/348503467/
"POINT (4.31335 51.84115)",51.84115,4.31335,Nieuwe Westdijk, 3204 LC, Spijkenisse,https://waarneming.nl/observation/350472480/
"POINT (4.59239 51.91835)",51.91835,4.59239,De Vroedschap, 2922 VC, Krimpen aan den IJssel,https://waarneming.nl/observation/348614366/
"POINT (4.38929 51.80511)",51.80511,4.38929,Zinkweg, 3262 BH, Oud-Beijerland,https://waarneming.nl/observation/348945771/
"POINT (4.04848 51.76906)",51.76906,4.04848,Maanezeese Gorsdijk, 3248 LA, Melissant,https://waarneming.nl/observation/349071965/
"POINT (4.53945 51.95895)",51.95895,4.53945,Robert Kochplaats, 3068 JD, Rotterdam,https://waarneming.nl/observation/349612478/
"POINT (4.25896 52.06617)",52.06617,4.25896,Kornoeljestraat, 2564 LS, Den Haag,https://waarneming.nl/observation/349480046/
"POINT (4.64187 51.8414)",51.84140,4.64187,Aert de Gelderstraat, 3343 DC, Hendrik-Ido-Ambacht,https://waarneming.nl/observation/349934449/
"POINT (4.60592 51.93175)",51.93175,4.60592,Cycladen, 2904 VG, Capelle aan den IJssel,https://waarneming.nl/observation/349788583/
"POINT (4.84023 51.94887)",51.94887,4.84023,Van 't Hoffplaats, 2871 KL, Schoonhoven,https://waarneming.nl/observation/349768806/
"POINT (4.35954 52.12672)",52.12672,4.35954,Prins Frederiklaan, 2243 HW, Wassenaar,https://waarneming.nl/observation/349825786/
"POINT (4.62473 51.77855)",51.77855,4.62473,Bevershoekstraat, 3295 AE, 's-Gravendeel,https://waarneming.nl/observation/349866475/
"POINT (4.85581 51.94905)",51.94905,4.85581,Lopikerweg, 2871 AV, Schoonhoven,https://waarneming.nl/observation/350029180/
"POINT (4.16291 51.90614)",51.90614,4.16291,Maarland Noordzijde, 3231 CH, Brielle,https://waarneming.nl/observation/350559168/
"POINT (4.28843 51.71663)",51.71663,4.28843,Beneden Oostdijk, 3258 AB, Den Bommel,https://waarneming.nl/observation/351044893/
"POINT (4.67367 51.77794)",51.77794,4.67367,Zwaluwenburg, 3328 CN, Dordrecht,https://waarneming.nl/observation/351558146/
"POINT (4.21891 52.04778)",52.04778,4.21891,Monsterseweg, 2553 NR, Den Haag,https://waarneming.nl/observation/352275481/
"POINT (4.23824 51.86737)",51.86737,4.23824,Burggraafstraat, 3218 VB, Heenvliet,https://waarneming.nl/observation/352783285/
"POINT (4.19447 51.7115)",51.71150,4.19447,Oudelandsedijk, 3255 LN, Oude-Tonge,https://waarneming.nl/observation/353389901/
"POINT (4.53585 51.89015)",51.89015,4.53585,Darinckdelversstraat, 3078 WE, Rotterdam,https://waarneming.nl/observation/353315990/
"POINT (4.23695 51.90974)",51.90974,4.23695,,3181 TB, Rozenburg,https://waarneming.nl/observation/353822445/
"POINT (4.00884 51.83124)",51.83124,4.00884,Haveneind, 3252 LE, Goedereede,https://waarneming.nl/observation/353924383/
"POINT (4.47006 52.04449)",52.04449,4.47006,Raminhout, 2719 KM, Zoetermeer,https://waarneming.nl/observation/353880588/
"POINT (4.33341 51.82407)",51.82407,4.33341,Moleneind, 3209 AK, Hekelingen,https://waarneming.nl/observation/369160514/
"POINT (4.25975 51.92606)",51.92606,4.25975,Touwbaan, 3142 BV, Maassluis,https://waarneming.nl/observation/354125584/
"POINT (4.88792 51.85084)",51.85084,4.88792,Giessenlaan, 3381 AK, Giessenburg,https://waarneming.nl/observation/354165041/
"POINT (4.3227 52.02062)",52.02062,4.32270,Slanke Waterbies, 2286 JZ, Rijswijk,https://waarneming.nl/observation/354572896/
"POINT (4.43929 51.94286)",51.94286,4.43929,Pilotenpad, 3045 XK, Rotterdam,https://waarneming.nl/observation/355851745/
"POINT (4.62512 51.84426)",51.84426,4.62512,Aert van Nesstraat, 3342 CB, Hendrik-Ido-Ambacht,https://waarneming.nl/observation/356009774/
"POINT (4.63748 52.16857)",52.16857,4.63748,Comriekade, 2481 AE, Woubrugge,https://waarneming.nl/observation/356119579/
"POINT (4.45195 51.9431)",51.94310,4.45195,Copernicuslaan, 3045 BD, Rotterdam,https://waarneming.nl/observation/356514750/
"POINT (4.60963 51.93215)",51.93215,4.60963,Atolpad, 2904 VK, Capelle aan den IJssel,https://waarneming.nl/observation/356705633/
"POINT (4.81157 51.92743)",51.92743,4.81157,Den Hoeff, 2865 XR, Ammerstol,https://waarneming.nl/observation/356736478/
"POINT (4.45584 51.87618)",51.87618,4.45584,Schulpweg, 3084 NH, Rotterdam,https://waarneming.nl/observation/357122722/
"POINT (4.66613 51.77734)",51.77734,4.66613,Mildenburg, 3328 JE, Dordrecht,https://waarneming.nl/observation/357173022/
"POINT (4.98764 51.86232)",51.86232,4.98764,Burgemeester Schefferstraat, 4241 CZ, Arkel,https://waarneming.nl/observation/357794927/
"POINT (4.14187 51.84146)",51.84146,4.14187,Ireneplaats, 3223 XH, Hellevoetsluis,https://waarneming.nl/observation/371463178/
"POINT (4.53748 51.85104)",51.85104,4.53748,Botter, 2991 PB, Barendrecht,https://waarneming.nl/observation/357569296/
"POINT (4.51956 51.8697)",51.86970,4.51956,Maeterlinckweg, 3076 HX, Rotterdam,https://waarneming.nl/observation/357799149/
"POINT (4.65483 51.83277)",51.83277,4.65483,Brasem, 3344 JD, Hendrik-Ido-Ambacht,https://waarneming.nl/observation/357950418/
"POINT (4.16269 51.89652)",51.89652,4.16269,Spuilaan, 3232 EP, Brielle,https://waarneming.nl/observation/358439671/
"POINT (4.69013 51.80781)",51.80781,4.69013,Soembastraat, 3312 HV, Dordrecht,https://waarneming.nl/observation/358522767/
"POINT (4.34016 52.02032)",52.02032,4.34016,Haantje, 2288 CW, Rijswijk,https://waarneming.nl/observation/358793877/
"POINT (4.66735 51.86515)",51.86515,4.66735,Willem de Zwijgerlaan, 2951 XW, Alblasserdam,https://waarneming.nl/observation/359118704/
"POINT (4.72796 51.79665)",51.79665,4.72796,Aletta Jacobs-erf, 3315 EA, Dordrecht,https://waarneming.nl/observation/359051577/
"POINT (4.31395 51.90764)",51.90764,4.31395,van Maerlantlaan, 3132 PP, Vlaardingen,https://waarneming.nl/observation/359202491/
"POINT (4.44143 51.72678)",51.72678,4.44143,Schuringsedijk, 3281 KP, Numansdorp,https://waarneming.nl/observation/359424064/
"POINT (4.65981 51.80299)",51.80299,4.65981,Camphuijzenstraat, 3314 ZB, Dordrecht,https://waarneming.nl/observation/359664456/
"POINT (4.08281 51.90815)",51.90815,4.08281,F H G van Itersonlaan, 3233 EL, Oostvoorne,https://waarneming.nl/observation/361334632/
"POINT (4.69963 51.83864)",51.83864,4.69963,Lijsterbeshof, 3355 CC, Papendrecht,https://waarneming.nl/observation/359935099/
"POINT (4.11556 51.98106)",51.98106,4.11556,Seinpad, 3151 HP, Hoek van Holland,https://waarneming.nl/observation/360005562/
"POINT (4.56 52.25974)",52.25974,4.56000,Kanaalstraat, 2161 JR, Lisse,https://waarneming.nl/observation/360082267/
"POINT (4.25179 51.71855)",51.71855,4.25179,Tilsedijk, 3243 LH, Den Bommel,https://waarneming.nl/observation/360205874/
"POINT (4.69688 51.83453)",51.83453,4.69688,Haagbeukhof, 3355 AG, Papendrecht,https://waarneming.nl/observation/360340612/
"POINT (4.24162 51.90937)",51.90937,4.24162,Stuurboord, 3181 NM, Rozenburg,https://waarneming.nl/observation/360293903/
"POINT (4.37792 52.01504)",52.01504,4.37792,Korftlaan, 2616 LJ, Delft,https://waarneming.nl/observation/360507482/
"POINT (4.56127 52.25933)",52.25933,4.56127,Kanaalstraat, 2161 JD, Lisse,https://waarneming.nl/observation/360681910/
"POINT (4.50295 52.15091)",52.15091,4.50295,De Meij van Streefkerkstraat, 2313 JM, Leiden,https://waarneming.nl/observation/368669043/
"POINT (4.28209 51.688)",51.68800,4.28209,Achthuizensedijk, 3256 BD, Achthuizen,https://waarneming.nl/observation/360853555/
"POINT (4.50453 52.1516)",52.15160,4.50453,De Meij van Streefkerkstraat, 2313 JN, Leiden,https://waarneming.nl/observation/361078682/
"POINT (4.13957 51.97633)",51.97633,4.13957,Willem Barentsstraat, 3151 WG, Hoek van Holland,https://waarneming.nl/observation/361281626/
"POINT (4.71061 51.81528)",51.81528,4.71061,Adjudant H.P. Kosterstraat, 3313 AM, Dordrecht,https://waarneming.nl/observation/361522267/
"POINT (4.95152 51.8359)",51.83590,4.95152,Gruttershof, 4204 SE, Gorinchem,https://waarneming.nl/observation/361576075/
"POINT (4.33766 51.8083)",51.80830,4.33766,Akkerdreef, 3264 PM, Nieuw-Beijerland,https://waarneming.nl/observation/361607853/
"POINT (4.08899 51.90032)",51.90032,4.08899,Berkenrijsweg, 3235 ND, Rockanje,https://waarneming.nl/observation/361650841/
"POINT (4.06824 51.87168)",51.87168,4.06824,Abeelstraat, 3235 VA, Rockanje,https://waarneming.nl/observation/361953593/
"POINT (4.32924 52.01076)",52.01076,4.32924,Schietglas, 2614 SP, Delft,https://waarneming.nl/observation/361950632/
"POINT (4.08272 51.90781)",51.90781,4.08272,F H G van Itersonlaan, 3233 EL, Oostvoorne,https://waarneming.nl/observation/362002809/
"POINT (4.85635 51.8263)",51.82630,4.85635,Sluisweg, 3371 ES, Hardinxveld-Giessendam,https://waarneming.nl/observation/362164763/
"POINT (4.49143 51.72908)",51.72908,4.49143,Schuringsedijk, 3281 KS, Numansdorp,https://waarneming.nl/observation/362238463/
"POINT (4.50737 51.92923)",51.92923,4.50737,1e Jerichostraat, 3061 GJ, Rotterdam,https://waarneming.nl/observation/365136105/
"POINT (4.35222 51.99385)",51.99385,4.35222,Menno ter Braaklaan, 2624 TH, Delft,https://waarneming.nl/observation/363202561/
"POINT (3.9345 51.80729)",51.80729,3.93450,Spaanseweg, 3253 XJ, Ouddorp,https://waarneming.nl/observation/363069643/
"POINT (4.26276 51.91295)",51.91295,4.26276,Vlaardingsedijk, 3143 LN, Maassluis,https://waarneming.nl/observation/362868724/
"POINT (4.22068 51.88115)",51.88115,4.22068,Hollemarestraat, 3238 XH, Zwartewaal,https://waarneming.nl/observation/362996285/
"POINT (4.09545 51.90875)",51.90875,4.09545,Fazantenlaan, 3233 BB, Oostvoorne,https://waarneming.nl/observation/362996090/
"POINT (4.14849 51.85803)",51.85803,4.14849,Rijksstraatweg, 3222 KE, Hellevoetsluis,https://waarneming.nl/observation/362996411/
"POINT (4.23819 51.73418)",51.73418,4.23819,Molendijk, 3243 AM, Stad aan 't Haringvliet,https://waarneming.nl/observation/363135428/
"POINT (4.16781 51.84549)",51.84549,4.16781,Kanaalweg Westzijde, 3225 LZ, Hellevoetsluis,https://waarneming.nl/observation/363210792/
"POINT (4.37751 52.08726)",52.08726,4.37751,Noordelijke Randweg, 2272 VL, Voorburg,https://waarneming.nl/observation/363298669/
"POINT (4.20898 51.70319)",51.70319,4.20898,Blauwepannenweg, 3255 LA, Oude-Tonge,https://waarneming.nl/observation/363906474/
"POINT (3.97696 51.82153)",51.82153,3.97696,De Goede Ree, 3252 LJ, Goedereede,https://waarneming.nl/observation/364124084/
"POINT (4.2824 51.71733)",51.71733,4.28240,Boven Oostdijk, 3258 AD, Den Bommel,https://waarneming.nl/observation/364190110/
"POINT (4.24457 51.90771)",51.90771,4.24457,Bernhardstraat, 3181 GB, Rozenburg,https://waarneming.nl/observation/364292208/
"POINT (4.24175 51.90574)",51.90574,4.24175,Wilhelminastraat, 3181 VN, Rozenburg,https://waarneming.nl/observation/364433943/
"POINT (3.97732 51.82131)",51.82131,3.97732,De Goede Ree, 3252 LJ, Goedereede,https://waarneming.nl/observation/364813567/
"POINT (4.56301 52.04816)",52.04816,4.56301,Rottedijk, 2751 DJ, Moerkapelle,https://waarneming.nl/observation/365144175/
"POINT (4.79823 51.8228)",51.82280,4.79823,Batelier, 3362 JS, Sliedrecht,https://waarneming.nl/observation/365073079/
"POINT (4.43902 51.94104)",51.94104,4.43902,Zestienhovensekade, 3043 KT, Rotterdam,https://waarneming.nl/observation/365116742/
"POINT (4.27331 51.93009)",51.93009,4.27331,Haagwinde, 3155 WB, Maasland,https://waarneming.nl/observation/365198029/
"POINT (4.54259 51.87086)",51.87086,4.54259,Wester Hordijk, 3079 DM, Rotterdam,https://waarneming.nl/observation/365667065/
"POINT (4.10952 51.91023)",51.91023,4.10952,Hoektoren, 3233 RN, Oostvoorne,https://waarneming.nl/observation/367720197/
"POINT (4.68309 51.80634)",51.80634,4.68309,Timorstraat, 3312 CW, Dordrecht,https://waarneming.nl/observation/366128668/
"POINT (4.07001 51.89039)",51.89039,4.07001,Middelweg, 3235 NM, Rockanje,https://waarneming.nl/observation/366337061/
"POINT (4.76925 51.82648)",51.82648,4.76925,IJsselstraat, 3363 CX, Sliedrecht,https://waarneming.nl/observation/366788648/
"POINT (4.34232 52.09053)",52.09053,4.34232,Cornelis van der Lijnstraat, 2593 NJ, Den Haag,https://waarneming.nl/observation/366820349/
"POINT (4.0705 51.87098)",51.87098,4.07050,Lindenhorst, 3235 VH, Rockanje,https://waarneming.nl/observation/367722470/
"POINT (5.00291 51.83107)",51.83107,5.00291,Het Fluitketeltje, 4207 WP, Gorinchem,https://waarneming.nl/observation/366939027/
"POINT (4.34185 52.09039)",52.09039,4.34185,Cornelis van der Lijnstraat, 2593 NC, Den Haag,https://waarneming.nl/observation/368044200/
"POINT (4.40764 51.82916)",51.82916,4.40764,Roodpad, 3263 EM, Oud-Beijerland,https://waarneming.nl/observation/367370825/
"POINT (4.39975 51.92244)",51.92244,4.39975,Jan van Zutphenstraat, 3119 BP, Schiedam,https://waarneming.nl/observation/367219903/
"POINT (4.32736 52.08623)",52.08623,4.32736,Zuiderpad, 2594 NC, Den Haag,https://waarneming.nl/observation/368228411/
"POINT (4.51572 52.03969)",52.03969,4.51572,Lansingpad, 2718 RH, Zoetermeer,https://waarneming.nl/observation/367444288/
"POINT (4.3352 51.91529)",51.91529,4.33520,Engelsche Boomgaert, 3131 NN, Vlaardingen,https://waarneming.nl/observation/367506636/
"POINT (4.07472 51.90231)",51.90231,4.07472,Duinstraat, 3235 NK, Rockanje,https://waarneming.nl/observation/367724191/
"POINT (4.01838 51.80499)",51.80499,4.01838,Langeweg, 3251 CZ, Stellendam,https://waarneming.nl/observation/367718633/
"POINT (4.04934 51.77742)",51.77742,4.04934,Bouwdijk, 3248 LA, Melissant,https://waarneming.nl/observation/367816311/
"POINT (4.96517 51.83617)",51.83617,4.96517,Dokter Biegelstraat, 4205 AM, Gorinchem,https://waarneming.nl/observation/367935997/
"POINT (4.73666 51.8437)",51.84370,4.73666,Truus Snijderpad, 3356 LS, Papendrecht,https://waarneming.nl/observation/368135028/
"POINT (4.26649 51.91463)",51.91463,4.26649,Vlaardingsedijk, 3143 LN, Maassluis,https://waarneming.nl/observation/368083340/
"POINT (4.33546 51.80869)",51.80869,4.33546,Damgaarde, 3264 PS, Nieuw-Beijerland,https://waarneming.nl/observation/368309028/
"POINT (4.38621 51.91145)",51.91145,4.38621,Vondellaan, 3117 PS, Schiedam,https://waarneming.nl/observation/368162509/
"POINT (4.24473 51.92279)",51.92279,4.24473,P.J. Troelstraweg, 3144 CW, Maassluis,https://waarneming.nl/observation/368192636/
"POINT (4.14064 51.84887)",51.84887,4.14064,Stoofweg, 3223 CC, Hellevoetsluis,https://waarneming.nl/observation/368191667/
"POINT (4.08838 51.89844)",51.89844,4.08838,Heveringseweg, 3235 LZ, Rockanje,https://waarneming.nl/observation/368237432/
"POINT (4.25402 51.921)",51.92100,4.25402,Zuiddijk, 3143 AS, Maassluis,https://waarneming.nl/observation/368297078/
"POINT (4.70891 52.19336)",52.19336,4.70891,F.J. Nuijensplein, 2461 RX, Langeraar,https://waarneming.nl/observation/368525142/
"POINT (4.82485 51.82295)",51.82295,4.82485,Neptunusstraat, 3371 TH, Hardinxveld-Giessendam,https://waarneming.nl/observation/368418128/
"POINT (4.16968 52.00213)",52.00213,4.16968,van der Kest Wittensstraat, 2691 XD, 's-Gravenzande,https://waarneming.nl/observation/368395317/
"POINT (4.42311 51.86441)",51.86441,4.42311,Graaf Bentincklaan, 3161 KA, Rhoon,https://waarneming.nl/observation/368473550/
"POINT (4.15966 51.84953)",51.84953,4.15966,Moeder Teresalaan, 3223 MP, Hellevoetsluis,https://waarneming.nl/observation/368565066/
"POINT (4.9744 51.83323)",51.83323,4.97440,Altenastraat, 4201 BD, Gorinchem,https://waarneming.nl/observation/368585107/
"POINT (4.48205 51.89869)",51.89869,4.48205,Maashavenkade, 3072 ES, Rotterdam,https://waarneming.nl/observation/368746690/
"POINT (4.31325 52.09809)",52.09809,4.31325,Van Nijenrodestraat, 2597 RJ, Den Haag,https://waarneming.nl/observation/368781486/
"POINT (4.7253 51.83028)",51.83028,4.72530,Tiendweg-Oost, 3356 AB, Papendrecht,https://waarneming.nl/observation/369024842/
"POINT (4.65439 52.06987)",52.06987,4.65439,Julianastraat, 2771 DZ, Boskoop,https://waarneming.nl/observation/368925305/
"POINT (4.66393 52.07555)",52.07555,4.66393,A.P. van Neslaan, 2771 DE, Boskoop,https://waarneming.nl/observation/368921729/
"POINT (4.98506 51.83537)",51.83537,4.98506,Stenen Beer, 4207 GC, Gorinchem,https://waarneming.nl/observation/369102377/
"POINT (4.99029 51.84377)",51.84377,4.99029,Arkelsedijk, 4206 AC, Gorinchem,https://waarneming.nl/observation/371311404/
"POINT (4.39225 52.09829)",52.09829,4.39225,Duivenvoorde, 2261 AL, Leidschendam,https://waarneming.nl/observation/369065183/
"POINT (4.3893 51.9282)",51.92820,4.38930,Ganzenpad, 3121 KK, Schiedam,https://waarneming.nl/observation/369165841/
"POINT (4.55177 51.74736)",51.74736,4.55177,Boomgaard, 3291 TR, Strijen,https://waarneming.nl/observation/369170867/
"POINT (4.54296 51.92803)",51.92803,4.54296,Jean Augierstraat, 3065 JG, Rotterdam,https://waarneming.nl/observation/369189428/
"POINT (4.14032 51.83268)",51.83268,4.14032,A M de Jonglaan, 3221 VD, Hellevoetsluis,https://waarneming.nl/observation/369329127/
"POINT (4.34311 51.83579)",51.83579,4.34311,Kikkerveen, 3205 GB, Spijkenisse,https://waarneming.nl/observation/369305978/
"POINT (4.46331 51.93452)",51.93452,4.46331,Abraham Kuyperlaan, 3038 PE, Rotterdam,https://waarneming.nl/observation/369445102/
"POINT (4.38371 51.7572)",51.75720,4.38371,Noord-Achterweg, 3284 LR, Zuid-Beijerland,https://waarneming.nl/observation/369468927/
"POINT (4.36487 52.12677)",52.12677,4.36487,Kievietslaan, 2243 GB, Wassenaar,https://waarneming.nl/observation/369460887/
"POINT (4.26711 51.91212)",51.91212,4.26711,Vlaardingsedijk, 3143 LN, Maassluis,https://waarneming.nl/observation/369622524/
"POINT (4.54476 52.00407)",52.00407,4.54476,Beukenlaan, 2665 DX, Bleiswijk,https://waarneming.nl/observation/369913270/
"POINT (4.69339 51.75001)",51.75001,4.69339,Nieuwe Merwedeweg, 3329 KM, Dordrecht,https://waarneming.nl/observation/369769115/
"POINT (4.01942 51.80472)",51.80472,4.01942,Narcissenpad, 3251 CZ, Stellendam,https://waarneming.nl/observation/369779772/
"POINT (4.74878 51.80956)",51.80956,4.74878,Baanhoekweg, 3313 LN, Dordrecht,https://waarneming.nl/observation/369840719/
"POINT (4.34761 51.68589)",51.68589,4.34761,Sportlaan, 3257 XN, Ooltgensplaat,https://waarneming.nl/observation/370006945/
"POINT (4.85669 51.82641)",51.82641,4.85669,Sluisweg, 3371 ES, Hardinxveld-Giessendam,https://waarneming.nl/observation/369911147/
"POINT (4.56298 52.29544)",52.29544,4.56298,3e Loosterweg, 2182 CV, Hillegom,https://waarneming.nl/observation/370008677/
"POINT (4.69355 51.74952)",51.74952,4.69355,Nieuwe Merwedeweg, 3329 KM, Dordrecht,https://waarneming.nl/observation/370597476/
"POINT (4.52458 51.85031)",51.85031,4.52458,Mozartstraat, 2992 RJ, Barendrecht,https://waarneming.nl/observation/370519665/
"POINT (4.49593 52.25508)",52.25508,4.49593,Sperwerkroft, 2211 LN, Noordwijkerhout,https://waarneming.nl/observation/370550307/
"POINT (4.49312 52.26975)",52.26975,4.49312,'t Hoogtlaan, 2212 TR, Noordwijkerhout,https://waarneming.nl/observation/370550515/
"POINT (4.38729 52.03105)",52.03105,4.38729,Veenwortel, 2498 EK, Den Haag,https://waarneming.nl/observation/370688004/
"POINT (4.21231 52.04625)",52.04625,4.21231,Max Euweweg, 2553 PT, Den Haag,https://waarneming.nl/observation/370724418/
"POINT (4.58735 51.87104)",51.87104,4.58735,Boksdoornstraat, 2982 BA, Slikkerveer,https://waarneming.nl/observation/370749757/
"POINT (4.6737 52.07769)",52.07769,4.67370,Tuinstraat, 2771 CA, Boskoop,https://waarneming.nl/observation/370852851/
"POINT (4.29885 51.90269)",51.90269,4.29885,Maassluissedijk, 3133 KA, Vlaardingen,https://waarneming.nl/observation/370852087/
"POINT (4.39835 51.90484)",51.90484,4.39835,Westfrankelandsedijk, 3114 VX, Schiedam,https://waarneming.nl/observation/370897503/
"POINT (4.26955 51.91356)",51.91356,4.26955,Vlaardingsedijk, 3143 LT, Maassluis,https://waarneming.nl/observation/370851481/
"POINT (4.61368 51.92784)",51.92784,4.61368,Stuurboord, 2904 LK, Capelle aan den IJssel,https://waarneming.nl/observation/370880184/
"POINT (4.2183 51.69072)",51.69072,4.21830,Lincolnplein, 3255 XG, Oude-Tonge,https://waarneming.nl/observation/370935694/
"POINT (4.6291 51.87126)",51.87126,4.62910,Gorzenweg, 2984 BN, Ridderkerk,https://waarneming.nl/observation/371020461/
"POINT (4.69451 51.74975)",51.74975,4.69451,Nieuwe Merwedeweg, 3329 KM, Dordrecht,https://waarneming.nl/observation/371127188/
"POINT (4.69365 51.74982)",51.74982,4.69365,Nieuwe Merwedeweg, 3329 KM, Dordrecht,https://waarneming.nl/observation/371138471/
"POINT (4.31974 51.84058)",51.84058,4.31974,Denebstraat, 3204 AJ, Spijkenisse,https://waarneming.nl/observation/371380554/
"POINT (4.40123 51.91321)",51.91321,4.40123,Gerrit Verboonstraat, 3111 AA, Schiedam,https://waarneming.nl/observation/371162316/
"POINT (4.40258 51.9134)",51.91340,4.40258,Tuinlaan, 3111 AX, Schiedam,https://waarneming.nl/observation/371162323/
"POINT (4.10369 51.91629)",51.91629,4.10369,Jacoba van Beierenlaan, 3233 AP, Oostvoorne,https://waarneming.nl/observation/371727544/
"POINT (4.98359 51.84113)",51.84113,4.98359,Van Hoornestraat, 4206 XE, Gorinchem,https://waarneming.nl/observation/371189493/
"POINT (4.35309 51.91506)",51.91506,4.35309,Plein 1940, 3135 PR, Vlaardingen,https://waarneming.nl/observation/371197182/
"POINT (4.0622 51.86857)",51.86857,4.06220,Oudeweg, 3235 CD, Rockanje,https://waarneming.nl/observation/371147207/
"POINT (4.19993 51.99334)",51.99334,4.19993,Meidoorn, 2671 PN, Naaldwijk,https://waarneming.nl/observation/371472269/
"POINT (4.2719 51.93043)",51.93043,4.27190,Ingeland, 3155 GC, Maasland,https://waarneming.nl/observation/371265972/
"POINT (4.83836 51.94638)",51.94638,4.83836,Zernikelaan, 2871 LP, Schoonhoven,https://waarneming.nl/observation/371266872/
"POINT (4.62365 51.96268)",51.96268,4.62365,Rijskade, 2911 CC, Nieuwerkerk aan den IJssel,https://waarneming.nl/observation/371293035/
"POINT (4.71423 51.81026)",51.81026,4.71423,Balsa, 3315 NL, Dordrecht,https://waarneming.nl/observation/371347701/
"POINT (4.06756 51.86591)",51.86591,4.06756,Duinzoom, 3235 CD, Rockanje,https://waarneming.nl/observation/371345918/
"POINT (4.53759 51.85062)",51.85062,4.53759,Botter, 2991 PA, Barendrecht,https://waarneming.nl/observation/371353166/
"POINT (4.13338 51.97659)",51.97659,4.13338,Kleine Schoolstraat, 3151 AD, Hoek van Holland,https://waarneming.nl/observation/371400210/
"POINT (4.35228 51.91527)",51.91527,4.35228,Anthony Knottenbeltsingel, 3135 HL, Vlaardingen,https://waarneming.nl/observation/371626023/
"POINT (4.4895 52.26172)",52.26172,4.48950,Victoriberg, 2211 DH, Noordwijkerhout,https://waarneming.nl/observation/371626849/
"POINT (4.74634 51.89945)",51.89945,4.74634,Beneden Tiendweg, 2959 CH, Streefkerk,https://waarneming.nl/observation/372063049/
"POINT (4.2974 52.0449)",52.04490,4.29740,Guntersteinweg, 2532 VZ, Den Haag,https://waarneming.nl/observation/371589597/
"POINT (4.31098 51.91165)",51.91165,4.31098,Buys-Ballotlaan, 3132 SC, Vlaardingen,https://waarneming.nl/observation/371625274/
"POINT (4.62509 51.81391)",51.81391,4.62509,Begoniastraat, 3333 EA, Zwijndrecht,https://waarneming.nl/observation/371619558/
"POINT (4.46024 52.05519)",52.05519,4.46024,Herikerberg, 2716 EV, Zoetermeer,https://waarneming.nl/observation/371757970/
"POINT (4.56256 52.29547)",52.29547,4.56256,Beeklaan, 2182 NN, Hillegom,https://waarneming.nl/observation/371687760/
"POINT (4.24158 51.85003)",51.85003,4.24158,Zweedsestraat, 3216 BG, Abbenbroek,https://waarneming.nl/observation/371771724/
"POINT (4.66851 51.78294)",51.78294,4.66851,Graveerstift, 3328 KK, Dordrecht,https://waarneming.nl/observation/371685273/
"POINT (4.56403 51.9458)",51.94580,4.56403,Istanboeldreef, 3067 WP, Rotterdam,https://waarneming.nl/observation/372247882/
"POINT (4.69302 51.74965)",51.74965,4.69302,Nieuwe Merwedeweg, 3329 KM, Dordrecht,https://waarneming.nl/observation/371874903/
"POINT (4.33901 52.00654)",52.00654,4.33901,Winterpad, 2614 WE, Delft,https://waarneming.nl/observation/371866499/
"POINT (4.64382 52.20988)",52.20988,4.64382,Praam, 2377 BW, Oude Wetering,https://waarneming.nl/observation/372035622/
"POINT (4.67609 52.13828)",52.13828,4.67609,President Kennedylaan, 2406 LJ, Alphen aan den Rijn,https://waarneming.nl/observation/371975947/
"POINT (4.33157 52.028)",52.02800,4.33157,Hazepad, 2287 DE, Rijswijk,https://waarneming.nl/observation/372019732/
"POINT (4.53405 52.13258)",52.13258,4.53405,Rijksweg N11, 2382 BJ, Zoeterwoude-Rijndijk,https://waarneming.nl/observation/372090141/
"POINT (4.37316 51.85662)",51.85662,4.37316,Kievit, 3191 DH, Hoogvliet,https://waarneming.nl/observation/372030240/
"POINT (4.25735 51.9248)",51.92480,4.25735,Glanzerij, 3142 BC, Maassluis,https://waarneming.nl/observation/372460226/
"POINT (4.70197 51.79827)",51.79827,4.70197,Reewegpad, 3319 CJ, Dordrecht,https://waarneming.nl/observation/372354406/
"POINT (4.45377 52.13556)",52.13556,4.45377,Schubertplantsoen, 2253 SL, Voorschoten,https://waarneming.nl/observation/372193406/
"POINT (4.43898 51.94024)",51.94024,4.43898,Zestienhovensekade, 3042 XV, Rotterdam,https://waarneming.nl/observation/377303920/
"POINT (4.39746 51.95691)",51.95691,4.39746,Kandelaarweg, 3047 EV, Rotterdam,https://waarneming.nl/observation/372338566/
"POINT (4.86521 51.84423)",51.84423,4.86521,Oudkerkseweg, 3381 KR, Giessen-Oudekerk,https://waarneming.nl/observation/372509589/
"POINT (4.46229 52.2405)",52.24050,4.46229,Gooweg, 2203 AB, Noordwijk,https://waarneming.nl/observation/372435923/
"POINT (4.33617 52.00979)",52.00979,4.33617,Teding van Berkhoutlaan, 2614 GD, Delft,https://waarneming.nl/observation/372454186/
"POINT (4.56851 51.94921)",51.94921,4.56851,Rondedans, 2907 AA, Capelle aan den IJssel,https://waarneming.nl/observation/372522992/
"POINT (4.24469 52.02865)",52.02865,4.24469,Wenpad, 2685 SJ, Poeldijk,https://waarneming.nl/observation/372632061/
"POINT (4.42042 52.19472)",52.19472,4.42042,Vinkeweg, 2223 JH, Katwijk,https://waarneming.nl/observation/372696300/
"POINT (4.63323 51.89387)",51.89387,4.63323,Onder de Waal, 2931 AS, Krimpen aan de Lek,https://waarneming.nl/observation/372688002/
"POINT (4.49894 51.79781)",51.79781,4.49894,Landheerlaan, 3271 TN, Mijnsheerenland,https://waarneming.nl/observation/372849461/
"POINT (4.46619 52.0542)",52.05420,4.46619,Fivelingo, 2716 BB, Zoetermeer,https://waarneming.nl/observation/372722091/
"POINT (4.64366 51.84282)",51.84282,4.64366,,3341 GC, Hendrik-Ido-Ambacht,https://waarneming.nl/observation/372815138/
"POINT (4.70467 52.0355)",52.03550,4.70467,Oosthoef, 2804 ST, Gouda,https://waarneming.nl/observation/372874880/
"POINT (4.74521 52.0752)",52.07520,4.74521,Emmakade, 2411 JH, Bodegraven,https://waarneming.nl/observation/372866388/
"POINT (4.39276 51.82129)",51.82129,4.39276,Lijster, 3263 RC, Oud-Beijerland,https://waarneming.nl/observation/372867550/
"POINT (4.42414 51.82811)",51.82811,4.42414,Crayenbosch, 3261 TD, Oud-Beijerland,https://waarneming.nl/observation/372874592/
"POINT (4.3984 51.8303)",51.83030,4.39840,Henri Dunantstraat, 3263 SC, Oud-Beijerland,https://waarneming.nl/observation/372891845/
"POINT (4.30692 52.03922)",52.03922,4.30692,Generaal Spoorlaan, 2285 AA, Rijswijk,https://waarneming.nl/observation/372921145/
"POINT (4.35244 51.98647)",51.98647,4.35244,Landbouwpad, 2622 JC, Delft,https://waarneming.nl/observation/372916431/
"POINT (4.22202 51.87937)",51.87937,4.22202,Henry Fordstraat, 3238 BE, Zwartewaal,https://waarneming.nl/observation/372918316/
"POINT (4.25143 51.89907)",51.89907,4.25143,Amstelpad, 3181 EA, Rozenburg,https://waarneming.nl/observation/372920371/
"POINT (4.25387 51.90239)",51.90239,4.25387,Kerkweg, 3181 AK, Rozenburg,https://waarneming.nl/observation/372977185/
"POINT (4.30681 52.04047)",52.04047,4.30681,de Mare, 2285 SR, Rijswijk,https://waarneming.nl/observation/372941437/
"POINT (4.34464 51.99059)",51.99059,4.34464,Buitenhofdreef, 2625 RE, Delft,https://waarneming.nl/observation/372968775/
"POINT (4.63508 51.835)",51.83500,4.63508,Boskamp, 3343 EC, Hendrik-Ido-Ambacht,https://waarneming.nl/observation/373056378/
"POINT (4.52621 51.84967)",51.84967,4.52621,Strausslaan, 2992 PC, Barendrecht,https://waarneming.nl/observation/373157217/
"POINT (4.67457 51.77396)",51.77396,4.67457,Slangenburg, 3328 DT, Dordrecht,https://waarneming.nl/observation/373176971/
"POINT (4.37787 52.01619)",52.01619,4.37787,Korftlaan, 2616 LJ, Delft,https://waarneming.nl/observation/373271804/
"POINT (4.54017 51.95766)",51.95766,4.54017,President Rooseveltweg, 3068 BD, Rotterdam,https://waarneming.nl/observation/373273040/
"POINT (4.42468 52.01693)",52.01693,4.42468,Dokter W. van der Horstlaan, 2641 RW, Pijnacker,https://waarneming.nl/observation/373315820/
"POINT (4.13675 51.82567)",51.82567,4.13675,Kanaalweg Oostzijde, 3224 AC, Hellevoetsluis,https://waarneming.nl/observation/373447236/
"POINT (3.86265 51.80089)",51.80089,3.86265,Westeinde, 3253 LW, Ouddorp,https://waarneming.nl/observation/373499535/
"POINT (4.45251 52.06585)",52.06585,4.45251,Buytenparklaan, 2716 NP, Zoetermeer,https://waarneming.nl/observation/373745527/
"POINT (4.3794 52.0862)",52.08620,4.37940,Via Verdi, 2272 WE, Voorburg,https://waarneming.nl/observation/373494976/
"POINT (4.43875 51.73634)",51.73634,4.43875,Burgemeester de Zeeuwstraat, 3281 AH, Numansdorp,https://waarneming.nl/observation/373439329/
"POINT (4.20448 51.99935)",51.99935,4.20448,De Dintel, 2673 BB, Naaldwijk,https://waarneming.nl/observation/373436205/
"POINT (4.10751 51.92902)",51.92902,4.10751,Brielse Meeroever, 3233 XG, Oostvoorne,https://waarneming.nl/observation/373576419/
"POINT (4.07291 51.90152)",51.90152,4.07291,Duinzoom, 3233 EG, Rockanje,https://waarneming.nl/observation/373593091/
"POINT (4.22363 52.02327)",52.02327,4.22363,De Backerstraat, 2685 TB, Poeldijk,https://waarneming.nl/observation/373635336/
"POINT (4.37254 51.84871)",51.84871,4.37254,Vleugel, 3192 WE, Hoogvliet,https://waarneming.nl/observation/373719048/
"POINT (4.39863 51.90518)",51.90518,4.39863,Mookhoeksestraat, 3114 BZ, Schiedam,https://waarneming.nl/observation/373869106/
"POINT (4.32802 52.00554)",52.00554,4.32802,Boomkwekerij, 2635 KC, Den Hoorn,https://waarneming.nl/observation/373701549/
"POINT (4.43402 52.2399)",52.23990,4.43402,Emmaweg, 2202 CP, Noordwijk,https://waarneming.nl/observation/373788310/
"POINT (4.36685 52.09821)",52.09821,4.36685,Isabellaland, 2591 SX, Den Haag,https://waarneming.nl/observation/373847834/
"POINT (4.38526 52.02074)",52.02074,4.38526,Korftlaan, 2616 LW, Delft,https://waarneming.nl/observation/373810892/
"POINT (4.4826 52.18678)",52.18678,4.48260,Vincent van Goghlaan, 2343 RR, Oegstgeest,https://waarneming.nl/observation/373806217/
"POINT (4.69417 51.75071)",51.75071,4.69417,Nieuwe Merwedeweg, 3329 KM, Dordrecht,https://waarneming.nl/observation/373887354/
"POINT (4.31178 51.83816)",51.83816,4.31178,Hoornbaan, 3204 LC, Spijkenisse,https://waarneming.nl/observation/373870168/
"POINT (4.52112 51.87782)",51.87782,4.52112,Ovinkstraat, 3076 CX, Rotterdam,https://waarneming.nl/observation/373871186/
"POINT (4.94999 51.87787)",51.87787,4.94999,Kromme Giessen, 4223 MA, Hoornaar,https://waarneming.nl/observation/373906876/
"POINT (4.24175 52.07761)",52.07761,4.24175,Laan van Poot, 2566 DL, Den Haag,https://waarneming.nl/observation/373943899/
"POINT (4.24351 52.07793)",52.07793,4.24351,Pauwenlaan, 2566 TN, Den Haag,https://waarneming.nl/observation/373944561/
"POINT (4.49481 52.13355)",52.13355,4.49481,Boerenpad, 2322 LA, Leiden,https://waarneming.nl/observation/373986099/
"POINT (4.99071 51.83315)",51.83315,4.99071,Verdistraat, 4207 DE, Gorinchem,https://waarneming.nl/observation/374037598/
"POINT (4.23303 52.03974)",52.03974,4.23303,Thomas Mannsingel, 2553 DA, Den Haag,https://waarneming.nl/observation/374025935/
"POINT (4.22959 51.90489)",51.90489,4.22959,Marjolein, 3181 RM, Rozenburg,https://waarneming.nl/observation/374028825/
"POINT (4.58937 51.93917)",51.93917,4.58937,Kalundborg, 2905 AK, Capelle aan den IJssel,https://waarneming.nl/observation/374154504/
"POINT (4.15661 51.83139)",51.83139,4.15661,Vuurvlinder, 3225 CE, Hellevoetsluis,https://waarneming.nl/observation/374199063/
"POINT (4.7049 51.93038)",51.93038,4.70490,Loet, 2941 LH, Lekkerkerk,https://waarneming.nl/observation/374153634/
"POINT (4.22113 51.89424)",51.89424,4.22113,Visserijweg, 3198 LV, Brielle,https://waarneming.nl/observation/377579963/
"POINT (4.69959 52.0224)",52.02240,4.69959,Abel Tasmanlaan, 2803 GL, Gouda,https://waarneming.nl/observation/374201014/
"POINT (4.69524 51.75131)",51.75131,4.69524,Nieuwe Merwedeweg, 3329 KM, Dordrecht,https://waarneming.nl/observation/374214309/
"POINT (4.55037 51.78391)",51.78391,4.55037,Binnenmaasoever, 3299 LV, Maasdam,https://waarneming.nl/observation/374353394/
"POINT (4.37826 51.92264)",51.92264,4.37826,Sportpad, 3118 JC, Schiedam,https://waarneming.nl/observation/374404985/
"POINT (4.53952 51.84899)",51.84899,4.53952,Kempenaar, 2991 PL, Barendrecht,https://waarneming.nl/observation/374316816/
"POINT (4.9374 51.83937)",51.83937,4.93740,Kleine Schelluinsekade, 4204 TZ, Gorinchem,https://waarneming.nl/observation/374381035/
"POINT (3.86153 51.80164)",51.80164,3.86153,Westeinde, 3253 LW, Ouddorp,https://waarneming.nl/observation/374346206/
"POINT (4.68451 51.74824)",51.74824,4.68451,,3329 KR, Dordrecht,https://waarneming.nl/observation/374418138/
"POINT (4.97739 51.8312)",51.83120,4.97739,Stationsweg, 4201 HL, Gorinchem,https://waarneming.nl/observation/374454284/
"POINT (4.32066 52.02981)",52.02981,4.32066,Prinses Beatrixlaan, 2287 SE, Rijswijk,https://waarneming.nl/observation/374514082/
"POINT (4.32328 52.04008)",52.04008,4.32328,Henriette Roland Holstlaan, 2283 HC, Rijswijk,https://waarneming.nl/observation/374513636/
"POINT (4.66073 51.86005)",51.86005,4.66073,Polderstraat, 2952 AK, Alblasserdam,https://waarneming.nl/observation/376651151/
"POINT (4.27756 52.09975)",52.09975,4.27756,Van Dorpstraat, 2584 AH, Den Haag,https://waarneming.nl/observation/374756524/
"POINT (4.39231 51.82135)",51.82135,4.39231,Lijster, 3263 RC, Oud-Beijerland,https://waarneming.nl/observation/374768777/
"POINT (4.66142 52.15579)",52.15579,4.66142,Alida de Jongstraat, 2401 KT, Alphen aan den Rijn,https://waarneming.nl/observation/374771825/
"POINT (4.43354 52.24035)",52.24035,4.43354,Emmaweg, 2202 CM, Noordwijk,https://waarneming.nl/observation/374868951/
"POINT (4.40457 51.81724)",51.81724,4.40457,Breughelstraat, 3262 TB, Oud-Beijerland,https://waarneming.nl/observation/374786766/
"POINT (3.97558 51.81724)",51.81724,3.97558,Nieuwstraat, 3252 BG, Goedereede,https://waarneming.nl/observation/374848310/
"POINT (4.08247 51.90994)",51.90994,4.08247,Duinzoom, 3233 EM, Oostvoorne,https://waarneming.nl/observation/374835091/
"POINT (4.23634 51.95413)",51.95413,4.23634,Coldenhovelaan, 2678 PS, De Lier,https://waarneming.nl/observation/374864817/
"POINT (4.61435 51.86516)",51.86516,4.61435,Patrijs, 2986 CC, Ridderkerk,https://waarneming.nl/observation/374866357/
"POINT (4.71089 51.81503)",51.81503,4.71089,Jekerstraat, 3313 AN, Dordrecht,https://waarneming.nl/observation/374958753/
"POINT (4.71137 51.81468)",51.81468,4.71137,Generaal S.H. Spoorstraat, 3313 AJ, Dordrecht,https://waarneming.nl/observation/374879240/
"POINT (4.23722 52.04652)",52.04652,4.23722,Karperdaal, 2553 PG, Den Haag,https://waarneming.nl/observation/374932826/
"POINT (4.3967 52.14533)",52.14533,4.39670,Van Zuylen van Nijeveltstraat, 2242 LE, Wassenaar,https://waarneming.nl/observation/374932911/
"POINT (4.69845 52.02223)",52.02223,4.69845,Willem Bontekoesingel, 2803 XM, Gouda,https://waarneming.nl/observation/374904967/
"POINT (4.31725 52.05173)",52.05173,4.31725,Schimmelweg, 2524 XH, Den Haag,https://waarneming.nl/observation/374933148/
"POINT (4.48383 52.25032)",52.25032,4.48383,De Vlashoven, 2211 WL, Noordwijkerhout,https://waarneming.nl/observation/374933409/
"POINT (4.30105 51.84329)",51.84329,4.30105,Konijnendijk, 3208 KD, Spijkenisse,https://waarneming.nl/observation/375098649/
"POINT (4.30897 51.84137)",51.84137,4.30897,Laarzenpad, 3208 DK, Spijkenisse,https://waarneming.nl/observation/374951996/
"POINT (4.62487 51.83593)",51.83593,4.62487,Zuidwende, 3343 PH, Hendrik-Ido-Ambacht,https://waarneming.nl/observation/374958536/
"POINT (4.41087 51.86168)",51.86168,4.41087,Oud Rhoonsedijk, 3176 PM, Poortugaal,https://waarneming.nl/observation/374960267/
"POINT (4.68687 51.75446)",51.75446,4.68687,Nieuwe Merwedeweg, 3329 KM, Dordrecht,https://waarneming.nl/observation/374979553/
"POINT (4.6839 51.84538)",51.84538,4.68390,Burgemeester Keijzerweg, 3352 AR, Papendrecht,https://waarneming.nl/observation/375004577/
"POINT (4.79449 51.82266)",51.82266,4.79449,Stobbe, 3362 JH, Sliedrecht,https://waarneming.nl/observation/375010003/
"POINT (4.70215 51.81626)",51.81626,4.70215,Beekmanstraat, 3313 CE, Dordrecht,https://waarneming.nl/observation/375014786/
"POINT (4.24948 52.08067)",52.08067,4.24948,Laan van Poot, 2566 TE, Den Haag,https://waarneming.nl/observation/375043853/
"POINT (4.37188 51.84851)",51.84851,4.37188,Vleugel, 3192 WD, Hoogvliet,https://waarneming.nl/observation/375082784/
"POINT (4.1476 51.71677)",51.71677,4.14760,Duivenwaardsedijk, 3244 LG, Nieuwe-Tonge,https://waarneming.nl/observation/375175960/
"POINT (4.46852 51.92499)",51.92499,4.46852,Provenierstunnel, 3013 EA, Rotterdam,https://waarneming.nl/observation/375140665/
"POINT (4.39656 52.14558)",52.14558,4.39656,Van Zuylen van Nijeveltstraat, 2242 LL, Wassenaar,https://waarneming.nl/observation/375147836/
"POINT (4.31033 51.84062)",51.84062,4.31033,Hoornbaan, 3204 LC, Spijkenisse,https://waarneming.nl/observation/375161414/
"POINT (4.97696 51.83187)",51.83187,4.97696,Kortendijk, 4201 KW, Gorinchem,https://waarneming.nl/observation/375238706/
"POINT (4.62387 51.91051)",51.91051,4.62387,lobelia, 2925 LB, Krimpen aan den IJssel,https://waarneming.nl/observation/375290511/
"POINT (4.97734 51.83066)",51.83066,4.97734,Stationsweg, 4201 HL, Gorinchem,https://waarneming.nl/observation/375303393/
"POINT (4.7271 51.8069)",51.80690,4.72710,Wantijdijk, 3315 DV, Dordrecht,https://waarneming.nl/observation/375413457/
"POINT (4.30942 51.84153)",51.84153,4.30942,Laarzenpad, 3208 DK, Spijkenisse,https://waarneming.nl/observation/375367985/
"POINT (4.48744 52.13905)",52.13905,4.48744,Vlietweg, 2323 LB, Leiden,https://waarneming.nl/observation/375529328/
"POINT (4.70135 52.02653)",52.02653,4.70135,Burgemeester van Reenensingel, 2803 EA, Gouda,https://waarneming.nl/observation/375408500/
"POINT (4.56599 51.71542)",51.71542,4.56599,Buitendijk, 3292 LB, Strijensas,https://waarneming.nl/observation/375412907/
"POINT (4.07362 51.89038)",51.89038,4.07362,Torenweg, 3235 NS, Rockanje,https://waarneming.nl/observation/375509962/
"POINT (4.34543 52.00123)",52.00123,4.34543,Mienette Stormstraat, 2614 HS, Delft,https://waarneming.nl/observation/376143279/
"POINT (4.60916 51.88753)",51.88753,4.60916,Prins Bernhardstraat, 2983 SM, Slikkerveer,https://waarneming.nl/observation/375449017/
"POINT (4.08837 51.80492)",51.80492,4.08837,Zuiderdiepdijk, 3247 LP, Dirksland,https://waarneming.nl/observation/375460762/
"POINT (4.30771 52.09249)",52.09249,4.30771,Balistraat, 2585 XX, Den Haag,https://waarneming.nl/observation/375449076/
"POINT (4.61564 51.86481)",51.86481,4.61564,Rosmolen, 2986 EE, Ridderkerk,https://waarneming.nl/observation/376992090/
"POINT (4.3719 51.76314)",51.76314,4.37190,Dijkgraaf van der Lindenpad, 3284 WC, Zuid-Beijerland,https://waarneming.nl/observation/375467042/
"POINT (4.35819 52.11233)",52.11233,4.35819,Groot Hoefijzerlaan, 2244 GG, Wassenaar,https://waarneming.nl/observation/375495717/
"POINT (4.35268 52.0609)",52.06090,4.35268,Fonteynenburghlaan, 2275 CX, Voorburg,https://waarneming.nl/observation/375534819/
"POINT (4.21281 52.03292)",52.03292,4.21281,Madepolderweg, 2553 EG, Den Haag,https://waarneming.nl/observation/375633100/
"POINT (4.21179 52.03242)",52.03242,4.21179,Madeweg, 2681 PL, Monster,https://waarneming.nl/observation/375564772/
"POINT (4.20263 52.04401)",52.04401,4.20263,Haagweg, 2681 PD, Monster,https://waarneming.nl/observation/375636170/
"POINT (4.70284 52.02648)",52.02648,4.70284,Livingstonelaan, 2803 GW, Gouda,https://waarneming.nl/observation/375565966/
"POINT (4.3782 51.92288)",51.92288,4.37820,Sportpad, 3118 JC, Schiedam,https://waarneming.nl/observation/376167036/
"POINT (4.79738 51.82249)",51.82249,4.79738,Hoepel, 3362 JB, Sliedrecht,https://waarneming.nl/observation/376056629/
"POINT (4.79711 51.82277)",51.82277,4.79711,Hoepel, 3362 JA, Sliedrecht,https://waarneming.nl/observation/376056594/
"POINT (4.05513 51.81904)",51.81904,4.05513,Deltahaven, 3251 LC, Stellendam,https://waarneming.nl/observation/375648760/
"POINT (4.37581 51.75873)",51.75873,4.37581,Hogeweg, 3284 WC, Zuid-Beijerland,https://waarneming.nl/observation/375887970/
"POINT (4.29711 51.69565)",51.69565,4.29711,Oudelandsedijk, 3257 KE, Ooltgensplaat,https://waarneming.nl/observation/375710557/
"POINT (4.24999 52.08056)",52.08056,4.24999,Laan van Poot, 2566 DB, Den Haag,https://waarneming.nl/observation/375726195/
"POINT (4.2313 51.91402)",51.91402,4.23130,Zanddijk, 3181 HW, Rozenburg,https://waarneming.nl/observation/377100717/
"POINT (4.59055 51.71621)",51.71621,4.59055,Sassedijk, 3292 LD, Strijensas,https://waarneming.nl/observation/375761574/
"POINT (4.16815 51.96582)",51.96582,4.16815,Bonnenweg, 3151 XA, Hoek van Holland,https://waarneming.nl/observation/375753689/
"POINT (4.17637 51.97114)",51.97114,4.17637,Oude Hooislag, 2691 NH, Heenweg,https://waarneming.nl/observation/375781489/
"POINT (4.27194 52.08395)",52.08395,4.27194,Segbroeklaan, 2566 LA, Den Haag,https://waarneming.nl/observation/375846253/
"POINT (4.58375 51.94053)",51.94053,4.58375,Ooievaarspad, 2907 LA, Capelle aan den IJssel,https://waarneming.nl/observation/375798251/
"POINT (4.37527 51.91729)",51.91729,4.37527,Dijk, 3118 JM, Schiedam,https://waarneming.nl/observation/375803853/
"POINT (4.58363 51.94111)",51.94111,4.58363,Kikkerpad, 2907 LB, Capelle aan den IJssel,https://waarneming.nl/observation/375801506/
"POINT (4.37518 51.91767)",51.91767,4.37518,Dijk, 3118 JM, Schiedam,https://waarneming.nl/observation/375802810/
"POINT (4.56632 51.71505)",51.71505,4.56632,Buitendijk, 3292 LB, Strijensas,https://waarneming.nl/observation/375863349/
"POINT (4.25294 51.78891)",51.78891,4.25294,Daan Monsterpad, 3214 LP, Zuidland,https://waarneming.nl/observation/377123940/
"POINT (4.78794 51.82138)",51.82138,4.78794,Kievitlaan, 3362 NG, Sliedrecht,https://waarneming.nl/observation/376109915/
"POINT (4.6916 51.7956)",51.79560,4.69160,Dubbelmondepad, 3319 PH, Dordrecht,https://waarneming.nl/observation/376231257/
"POINT (4.06971 51.76555)",51.76555,4.06971,Nieuweweg, 3248 BE, Melissant,https://waarneming.nl/observation/376132937/
"POINT (4.22072 51.89453)",51.89453,4.22072,Visserijweg, 3198 LV, Brielle,https://waarneming.nl/observation/376194837/
"POINT (4.2649 52.04376)",52.04376,4.26490,Ruimzicht, 2543 RJ, Den Haag,https://waarneming.nl/observation/376390437/
"POINT (4.69704 51.75068)",51.75068,4.69704,Nieuwe Merwedeweg, 3329 KM, Dordrecht,https://waarneming.nl/observation/376375487/
"POINT (4.77311 51.81858)",51.81858,4.77311,Middeldiepstraat, 3361 VP, Sliedrecht,https://waarneming.nl/observation/376346040/
"POINT (4.30735 52.09229)",52.09229,4.30735,Curaçaostraat, 2585 XZ, Den Haag,https://waarneming.nl/observation/376437040/
"POINT (4.67556 51.85135)",51.85135,4.67556,Rijksweg A15, 2952 CA, Alblasserdam,https://waarneming.nl/observation/376395942/
"POINT (4.36294 52.12468)",52.12468,4.36294,Emmalaan, 2243 HC, Wassenaar,https://waarneming.nl/observation/376434736/
"POINT (4.10873 51.86071)",51.86071,4.10873,Hilseweg, 3235 KE, Rockanje,https://waarneming.nl/observation/376431420/
"POINT (4.6178 51.95799)",51.95799,4.61780,Waterschapsweg, 2911 CR, Nieuwerkerk aan den IJssel,https://waarneming.nl/observation/376449408/
"POINT (4.31195 51.93117)",51.93117,4.31195,Vlaardingen-cultuurpad, 3155 EZ, Vlaardingen,https://waarneming.nl/observation/376484439/
"POINT (4.78978 51.82248)",51.82248,4.78978,Thorbeckelaan, 3362 BS, Sliedrecht,https://waarneming.nl/observation/376448575/
"POINT (4.14643 51.75552)",51.75552,4.14643,Groene Zoom, 3245 CJ, Sommelsdijk,https://waarneming.nl/observation/376468998/
"POINT (4.33824 51.93411)",51.93411,4.33824,Bingelkruid, 3137 WE, Vlaardingen,https://waarneming.nl/observation/377601803/
"POINT (4.62443 51.91067)",51.91067,4.62443,azalea, 2925 LB, Krimpen aan den IJssel,https://waarneming.nl/observation/376538027/
"POINT (4.23208 52.05428)",52.05428,4.23208,Ouverturestraat, 2553 VP, Den Haag,https://waarneming.nl/observation/376494570/
"POINT (4.36127 51.67883)",51.67883,4.36127,Havendijk, 3257 LH, Ooltgensplaat,https://waarneming.nl/observation/376622983/
"POINT (4.3698 51.70183)",51.70183,4.36980,N59, 3257 XS, Ooltgensplaat,https://waarneming.nl/observation/376537136/
"POINT (4.36568 52.12119)",52.12119,4.36568,Schouwweg, 2243 BP, Wassenaar,https://waarneming.nl/observation/376565754/
"POINT (4.70526 52.02546)",52.02546,4.70526,Heempad, 2804 AC, Gouda,https://waarneming.nl/observation/376563844/
"POINT (4.65534 51.80191)",51.80191,4.65534,Viottakade, 3314 EV, Dordrecht,https://waarneming.nl/observation/376556314/
"POINT (4.70555 52.02561)",52.02561,4.70555,Heempad, 2804 RG, Gouda,https://waarneming.nl/observation/376566829/
"POINT (4.23182 51.91404)",51.91404,4.23182,Zanddijk, 3181 HW, Rozenburg,https://waarneming.nl/observation/376765288/
"POINT (4.26432 51.82647)",51.82647,4.26432,Trambaan, 3214 LV, Simonshaven,https://waarneming.nl/observation/376744646/
"POINT (4.25396 51.91813)",51.91813,4.25396,Jan van Galenstraat, 3143 KC, Maassluis,https://waarneming.nl/observation/376806777/
"POINT (4.42066 51.82069)",51.82069,4.42066,Asterstraat, 3261 AD, Oud-Beijerland,https://waarneming.nl/observation/376684508/
"POINT (4.68366 51.76424)",51.76424,4.68366,Cannemanspad, 3329 LR, Dordrecht,https://waarneming.nl/observation/376709532/
"POINT (4.68567 51.76189)",51.76189,4.68567,Cannemanspad, 3329 LA, Dordrecht,https://waarneming.nl/observation/376726801/
"POINT (4.68566 51.76321)",51.76321,4.68566,Cannemanspad, 3329 LA, Dordrecht,https://waarneming.nl/observation/376711938/
"POINT (4.61571 51.86528)",51.86528,4.61571,Rosmolen, 2986 ED, Ridderkerk,https://waarneming.nl/observation/376748334/
"POINT (4.1841 51.74129)",51.74129,4.18410,Vliegerspad, 3241 MZ, Middelharnis,https://waarneming.nl/observation/377212811/
"POINT (4.22801 51.91607)",51.91607,4.22801,Vinkseweg, 3181 HT, Rozenburg,https://waarneming.nl/observation/376799272/
"POINT (4.58423 51.94058)",51.94058,4.58423,Ooievaarspad, 2907 LA, Capelle aan den IJssel,https://waarneming.nl/observation/376884844/
"POINT (4.16577 51.89014)",51.89014,4.16577,Tas, 3232 RJ, Brielle,https://waarneming.nl/observation/376886846/
"POINT (4.57129 51.94284)",51.94284,4.57129,Schenkelpad, 2907 XE, Capelle aan den IJssel,https://waarneming.nl/observation/376908511/
"POINT (4.31809 52.09844)",52.09844,4.31809,Van Hogenhoucklaan, 2596 TE, Den Haag,https://waarneming.nl/observation/377077364/
"POINT (4.44325 51.94215)",51.94215,4.44325,Axelpad, 3045 LR, Rotterdam,https://waarneming.nl/observation/377076194/
"POINT (4.44299 51.94449)",51.94449,4.44299,Deelenpad, 3045 XK, Rotterdam,https://waarneming.nl/observation/377036744/
"POINT (4.0566 51.90991)",51.90991,4.05660,Inspectiepad, 3233 CW, Oostvoorne,https://waarneming.nl/observation/377974963/
"POINT (3.93909 51.81817)",51.81817,3.93909,Vijverweg, 3253 KE, Ouddorp,https://waarneming.nl/observation/377043725/
"POINT (4.52046 52.07408)",52.07408,4.52046,Mien Ruyspad, 2728 BR, Zoetermeer,https://waarneming.nl/observation/377076780/
"POINT (4.70163 52.02617)",52.02617,4.70163,Orteliuslaan, 2803 EA, Gouda,https://waarneming.nl/observation/377060146/
"POINT (4.65246 51.80427)",51.80427,4.65246,Diepenbrockweg, 3314 CC, Dordrecht,https://waarneming.nl/observation/377114159/
"POINT (4.69854 51.74844)",51.74844,4.69854,Nieuwe Merwedeweg, 3329 KM, Dordrecht,https://waarneming.nl/observation/377123064/
"POINT (4.46621 51.92564)",51.92564,4.46621,Stationssingel, 3033 HC, Rotterdam,https://waarneming.nl/observation/377164815/
"POINT (4.71212 52.01799)",52.01799,4.71212,Graaf Florisweg, 2805 AL, Gouda,https://waarneming.nl/observation/377168481/
"POINT (4.56019 51.93217)",51.93217,4.56019,Mahatma Gandhistraat, 3066 VA, Rotterdam,https://waarneming.nl/observation/377210972/
"POINT (4.12027 51.98195)",51.98195,4.12027,Strandweg, 3151 HL, Hoek van Holland,https://waarneming.nl/observation/377210233/
"POINT (4.24098 51.90391)",51.90391,4.24098,Laan van Nieuw Blankenburg, 3181 HK, Rozenburg,https://waarneming.nl/observation/377181594/
"POINT (4.68378 51.83491)",51.83491,4.68378,Frans Halsstraat, 3351 VC, Papendrecht,https://waarneming.nl/observation/377279905/
"POINT (4.68474 51.80852)",51.80852,4.68474,Denpasarstraat, 3312 GW, Dordrecht,https://waarneming.nl/observation/377311154/
"POINT (4.168 51.89685)",51.89685,4.16800,Wielingen, 3232 HH, Brielle,https://waarneming.nl/observation/377246498/
"POINT (4.0564 51.90888)",51.90888,4.05640,Inspectiepad, 3233 CW, Oostvoorne,https://waarneming.nl/observation/377280516/
"POINT (4.56677 51.80348)",51.80348,4.56677,Kastanjelaan, 3297 BB, Puttershoek,https://waarneming.nl/observation/377288659/
"POINT (4.25004 52.0697)",52.06970,4.25004,Pioenweg, 2565 AX, Den Haag,https://waarneming.nl/observation/377368453/
"POINT (4.71309 52.00407)",52.00407,4.71309,Gouderaksedijk, 2808 ND, Gouda,https://waarneming.nl/observation/377350850/
"POINT (4.77759 51.81929)",51.81929,4.77759,Joost van den Vondelstraat, 3362 TR, Sliedrecht,https://waarneming.nl/observation/377386479/
"POINT (4.34905 52.08085)",52.08085,4.34905,Nicolaas Beetslaan, 2273 TR, Voorburg,https://waarneming.nl/observation/377370718/
"POINT (4.83463 51.82323)",51.82323,4.83463,Rijnstraat, 3371 ST, Hardinxveld-Giessendam,https://waarneming.nl/observation/377371885/
"POINT (4.27737 52.09898)",52.09898,4.27737,Johan van Oldenbarneveltlaan, 2582 NM, Den Haag,https://waarneming.nl/observation/377603817/
"POINT (4.58222 52.00877)",52.00877,4.58222,Wethouder Kreftlaan, 2761 TZ, Zevenhuizen,https://waarneming.nl/observation/377416131/
"POINT (4.7106 52.03061)",52.03061,4.71060,Weerestein, 2804 GG, Gouda,https://waarneming.nl/observation/377425788/
"POINT (4.0596 51.90684)",51.90684,4.05960,A J Bootpad, 3235 NA, Oostvoorne,https://waarneming.nl/observation/377461804/
"POINT (4.06863 51.76669)",51.76669,4.06863,Nieuweweg, 3248 BE, Melissant,https://waarneming.nl/observation/377643744/
"POINT (4.73835 51.98835)",51.98835,4.73835,Beijerscheweg, 2821 NG, Stolwijk,https://waarneming.nl/observation/377455217/
"POINT (4.6263 51.91137)",51.91137,4.62630,Pad, 2925 LA, Krimpen aan den IJssel,https://waarneming.nl/observation/377669953/
"POINT (4.15241 51.85946)",51.85946,4.15241,Rijksstraatweg, 3222 KE, Hellevoetsluis,https://waarneming.nl/observation/377462189/
"POINT (4.68321 51.83491)",51.83491,4.68321,Frans Halsstraat, 3351 VE, Papendrecht,https://waarneming.nl/observation/377458146/
"POINT (4.32969 52.01078)",52.01078,4.32969,Schietglas, 2614 SP, Delft,https://waarneming.nl/observation/377521236/
"POINT (4.569 51.88274)",51.88274,4.56900,Charles Binghamweg, 3077 PZ, Rotterdam,https://waarneming.nl/observation/377511941/
"POINT (4.59748 51.88013)",51.88013,4.59748,Reijerweg, 2983 AK, Slikkerveer,https://waarneming.nl/observation/377531089/
"POINT (4.57977 51.87233)",51.87233,4.57977,Prunuslaan, 2982 TL, Ridderkerk,https://waarneming.nl/observation/377597468/
"POINT (4.3709 51.76355)",51.76355,4.37090,Hogeweg, 3284 WC, Zuid-Beijerland,https://waarneming.nl/observation/377623219/
"POINT (4.37453 52.07198)",52.07198,4.37453,Oosteinde, 2271 EV, Voorburg,https://waarneming.nl/observation/377607205/
"POINT (4.54605 51.85164)",51.85164,4.54605,Binnenlaantje, 2991 EC, Barendrecht,https://waarneming.nl/observation/377887577/
"POINT (4.70633 51.78711)",51.78711,4.70633,Abeelstraat, 3329 AA, Dordrecht,https://waarneming.nl/observation/377684409/
"POINT (4.60358 51.93476)",51.93476,4.60358,Reitdiep, 2904 RD, Capelle aan den IJssel,https://waarneming.nl/observation/377691509/
"POINT (4.9733 51.84124)",51.84124,4.97330,,4205 CT, Gorinchem,https://waarneming.nl/observation/377694393/
"POINT (4.61215 51.88603)",51.88603,4.61215,Electropark, 2983 EN, Slikkerveer,https://waarneming.nl/observation/377702010/
"POINT (4.60759 51.88872)",51.88872,4.60759,Reijerweg, 2983 AT, Slikkerveer,https://waarneming.nl/observation/377703144/
"POINT (4.65978 51.80273)",51.80273,4.65978,Bosboom-Toussaintstraat, 3314 GC, Dordrecht,https://waarneming.nl/observation/377717193/
"POINT (4.41144 51.86998)",51.86998,4.41144,Slotsedijk, 3161 PH, Rhoon,https://waarneming.nl/observation/377756370/
"POINT (4.59777 51.87907)",51.87907,4.59777,Dolfijnpark, 2983 AZ, Slikkerveer,https://waarneming.nl/observation/377800216/
"POINT (4.12364 51.98246)",51.98246,4.12364,Ganzenduin, 3151 TP, Hoek van Holland,https://waarneming.nl/observation/377758084/
"POINT (4.3046 52.10264)",52.10264,4.30460,Duinroospad, 2597 KB, Den Haag,https://waarneming.nl/observation/377740596/
"POINT (4.72464 51.80565)",51.80565,4.72464,Van Ravesteyn-erf, 3315 DP, Dordrecht,https://waarneming.nl/observation/377741699/
"POINT (4.11076 51.91067)",51.91067,4.11076,Hoektoren, 3233 RN, Oostvoorne,https://waarneming.nl/observation/377753315/
"POINT (4.09049 51.8361)",51.83610,4.09049,Parkweg, 3221 LV, Hellevoetsluis,https://waarneming.nl/observation/377770737/
"POINT (4.47711 51.83061)",51.83061,4.47711,Dijk Kooimansland, 3274 CK, Heinenoord,https://waarneming.nl/observation/377795861/
"POINT (4.17365 51.97222)",51.97222,4.17365,Oude Hooislag, 2691 NH, Heenweg,https://waarneming.nl/observation/377798638/
"POINT (4.70079 52.11523)",52.11523,4.70079,Kortsteekterweg, 2407 AH, Alphen aan den Rijn,https://waarneming.nl/observation/377888350/
"POINT (4.65463 52.07051)",52.07051,4.65463,Kersengaarde, 2771 PR, Boskoop,https://waarneming.nl/observation/377888421/
"POINT (4.67608 52.13892)",52.13892,4.67608,Edelsteensingel, 2403 AA, Alphen aan den Rijn,https://waarneming.nl/observation/377888225/
"POINT (4.74599 52.08879)",52.08879,4.74599,Sportlaan, 2411 XD, Bodegraven,https://waarneming.nl/observation/377889404/
"POINT (4.3879 52.0083)",52.00830,4.38790,Hoflaan, 2616 AA, Delft,https://waarneming.nl/observation/377816285/
"POINT (4.58475 51.88613)",51.88613,4.58475,Kievitsweg, 2987 VN, Bolnes,https://waarneming.nl/observation/377884060/
"POINT (4.35525 51.97776)",51.97776,4.35525,Abtswoude, 2626 ND, Delft,https://waarneming.nl/observation/377957608/
"POINT (4.20576 51.9976)",51.99760,4.20576,Kleine Woerdlaan, 2671 AR, Naaldwijk,https://waarneming.nl/observation/377936201/
"POINT (4.20615 51.99817)",51.99817,4.20615,Midden Woerd, 2671 DL, Naaldwijk,https://waarneming.nl/observation/377907885/
"POINT (4.43992 51.9409)",51.94090,4.43992,Zestienhovensekade, 3042 XV, Rotterdam,https://waarneming.nl/observation/377955632/
"POINT (4.68303 51.76489)",51.76489,4.68303,Cannemanspad, 3329 LR, Dordrecht,https://waarneming.nl/observation/377953418/
"POINT (4.54928 51.87432)",51.87432,4.54928,Zevenbergsedijkje, 3079 DR, Rotterdam,https://waarneming.nl/observation/378404782/
"POINT (4.22935 51.9047)",51.90470,4.22935,Bramenpad, 3181 PX, Rozenburg,https://waarneming.nl/observation/378434631/
"POINT (4.35053 51.75356)",51.75356,4.35053,Molendijk, 3284 LG, Zuid-Beijerland,https://waarneming.nl/observation/378482655/
"POINT (4.36617 51.86249)",51.86249,4.36617,Kouwenaardseweg, 3191 SB, Hoogvliet,https://waarneming.nl/observation/378539206/
"POINT (4.4669 51.92572)",51.92572,4.46690,Stationssingel, 3033 HB, Rotterdam,https://waarneming.nl/observation/378513449/
"POINT (4.59883 51.87996)",51.87996,4.59883,Kievitsweg, 2983 AD, Slikkerveer,https://waarneming.nl/observation/378520189/
"POINT (4.61532 51.90559)",51.90559,4.61532,CG Roosweg, 2931 LK, Krimpen aan de Lek,https://waarneming.nl/observation/378733209/
"POINT (4.06306 51.86902)",51.86902,4.06306,Strandweg, 3235 EW, Rockanje,https://waarneming.nl/observation/378861505/
"POINT (4.20022 51.76437)",51.76437,4.20022,Van Pallandtpad, 3241 LN, Middelharnis,https://waarneming.nl/observation/378873943/
"POINT (3.86263 51.80106)",51.80106,3.86263,Westeinde, 3253 LW, Ouddorp,https://waarneming.nl/observation/379216967/
"POINT (3.93927 51.81715)",51.81715,3.93927,Eikenhof, 3253 CG, Ouddorp,https://waarneming.nl/observation/379011058/
"POINT (4.43921 51.94005)",51.94005,4.43921,Zestienhovensekade, 3042 XV, Rotterdam,https://waarneming.nl/observation/379286216/
"POINT (4.66796 52.07727)",52.07727,4.66796,Rozenlaan, 2771 DC, Boskoop,https://waarneming.nl/observation/379205803/
"POINT (4.24698 51.86494)",51.86494,4.24698,Toldijk, 3218 BG, Heenvliet,https://waarneming.nl/observation/379185427/
"POINT (4.9871 51.83158)",51.83158,4.98710,Componistenstraat, 4207 CL, Gorinchem,https://waarneming.nl/observation/379247584/
"POINT (4.57109 51.81636)",51.81636,4.57109,Lindtsedijk, 2995 XL, Heerjansdam,https://waarneming.nl/observation/379307693/
"POINT (4.57744 51.81647)",51.81647,4.57744,Lindtsedijk, 2995 XL, Heerjansdam,https://waarneming.nl/observation/379376481/
"POINT (4.23374 51.91279)",51.91279,4.23374,Zanddijk, 3181 HW, Rozenburg,https://waarneming.nl/observation/379272315/
"POINT (4.69587 51.76032)",51.76032,4.69587,Noorder Elsweg, 3329 KH, Dordrecht,https://waarneming.nl/observation/380128242/
"POINT (4.35359 52.11309)",52.11309,4.35359,Laan van Koot, 2244 AV, Wassenaar,https://waarneming.nl/observation/379365708/
"POINT (4.84087 51.94665)",51.94665,4.84087,Robert Kochlaan, 2871 LH, Schoonhoven,https://waarneming.nl/observation/379317451/
"POINT (4.28836 52.09953)",52.09953,4.28836,Hogeweg, 2585 JD, Den Haag,https://waarneming.nl/observation/379317948/
"POINT (4.30138 51.84149)",51.84149,4.30138,Rietbroekweg, 3212 LP, Simonshaven,https://waarneming.nl/observation/379487571/
"POINT (4.69449 51.76022)",51.76022,4.69449,Noorder Elsweg, 3329 KH, Dordrecht,https://waarneming.nl/observation/379343199/
"POINT (4.69509 51.76055)",51.76055,4.69509,Noorder Elsweg, 3329 KM, Dordrecht,https://waarneming.nl/observation/379343283/
"POINT (4.4961 52.27725)",52.27725,4.49610,Langevelderweg, 2211 AD, Noordwijkerhout,https://waarneming.nl/observation/379353406/
"POINT (4.79316 51.82507)",51.82507,4.79316,Tiendweg, 3362 JK, Sliedrecht,https://waarneming.nl/observation/379384258/
"POINT (4.69305 52.02432)",52.02432,4.69305,Wilde Wingerdlaan, 2803 WC, Gouda,https://waarneming.nl/observation/379377253/
"POINT (4.21901 51.89642)",51.89642,4.21901,Visserijweg, 3198 LV, Brielle,https://waarneming.nl/observation/379423846/
"POINT (4.22171 51.89383)",51.89383,4.22171,Visserijweg, 3198 LV, Brielle,https://waarneming.nl/observation/379423679/
"POINT (4.65665 52.14917)",52.14917,4.65665,Vliestroom, 2401 VP, Alphen aan den Rijn,https://waarneming.nl/observation/379414203/
"POINT (4.41122 51.87005)",51.87005,4.41122,Slotsedijk, 3161 PG, Rhoon,https://waarneming.nl/observation/379452675/
"POINT (4.37157 51.76369)",51.76369,4.37157,Dijkgraaf van der Lindenpad, 3284 WC, Zuid-Beijerland,https://waarneming.nl/observation/379558757/
"POINT (4.47593 51.82926)",51.82926,4.47593,Buitenpolderpad, 3274 AA, Heinenoord,https://waarneming.nl/observation/379411843/
"POINT (4.20694 51.89761)",51.89761,4.20694,Buitengronden, 3237 LW, Vierpolders,https://waarneming.nl/observation/379427620/
"POINT (4.18177 51.89216)",51.89216,4.18177,De Nolle, 3237 KA, Vierpolders,https://waarneming.nl/observation/379428133/
"POINT (4.20625 51.99796)",51.99796,4.20625,Midden Woerd, 2671 DL, Naaldwijk,https://waarneming.nl/observation/380825844/
"POINT (4.18489 51.74194)",51.74194,4.18489,Vliegerspad, 3241 MZ, Middelharnis,https://waarneming.nl/observation/379535760/
"POINT (4.69185 52.14479)",52.14479,4.69185,Ooievaarspad, 2403 GL, Alphen aan den Rijn,https://waarneming.nl/observation/379991735/
"POINT (4.05412 51.81891)",51.81891,4.05412,Deltahaven, 3251 LC, Stellendam,https://waarneming.nl/observation/379744502/
"POINT (4.83459 51.82371)",51.82371,4.83459,Rijnstraat, 3371 ST, Hardinxveld-Giessendam,https://waarneming.nl/observation/380243592/
"POINT (4.83518 51.82338)",51.82338,4.83518,Rijnstraat, 3371 AL, Hardinxveld-Giessendam,https://waarneming.nl/observation/380243864/
"POINT (4.45433 51.74259)",51.74259,4.45433,Middelsluissedijk Oostzijde, 3281 LD, Numansdorp,https://waarneming.nl/observation/379695058/
"POINT (4.65286 51.80418)",51.80418,4.65286,Diepenbrockweg, 3314 CC, Dordrecht,https://waarneming.nl/observation/379707371/
"POINT (4.56885 51.80552)",51.80552,4.56885,Pieter Repelaerstraat, 3297 BM, Puttershoek,https://waarneming.nl/observation/379716512/
"POINT (4.66589 51.8258)",51.82580,4.66589,Noordpark, 3332 CJ, Zwijndrecht,https://waarneming.nl/observation/379754377/
"POINT (4.55245 51.89456)",51.89456,4.55245,C.D. Tuinenburgstraat, 3078 GG, Rotterdam,https://waarneming.nl/observation/379827261/
"POINT (4.65475 51.82083)",51.82083,4.65475,Gerbrandyplein, 3332 XA, Zwijndrecht,https://waarneming.nl/observation/379857861/
"POINT (4.3972 52.13746)",52.13746,4.39720,Prinses Marielaan, 2242 CJ, Wassenaar,https://waarneming.nl/observation/380228923/
"POINT (4.43252 51.73046)",51.73046,4.43252,Vlielanderstraat, 3281 XS, Numansdorp,https://waarneming.nl/observation/379778002/
"POINT (4.31037 51.93248)",51.93248,4.31037,Broekpolderpad, 3155 EZ, Vlaardingen,https://waarneming.nl/observation/379971191/
"POINT (4.68386 51.76412)",51.76412,4.68386,Cannemanspad, 3329 LA, Dordrecht,https://waarneming.nl/observation/379820898/
"POINT (4.15398 51.90362)",51.90362,4.15398,Anna-Hoevestraat, 3232 VA, Brielle,https://waarneming.nl/observation/380190490/
"POINT (4.49288 51.79923)",51.79923,4.49288,Binnenbans, 3271 TE, Mijnsheerenland,https://waarneming.nl/observation/379825528/
"POINT (4.24496 51.78664)",51.78664,4.24496,Daan Monsterpad, 3214 LE, Zuidland,https://waarneming.nl/observation/379864351/
"POINT (4.69394 51.74974)",51.74974,4.69394,Nieuwe Merwedeweg, 3329 KM, Dordrecht,https://waarneming.nl/observation/380556154/
"POINT (4.3207 51.75556)",51.75556,4.32070,Vikingstraat, 3284 BG, Zuid-Beijerland,https://waarneming.nl/observation/379865999/
"POINT (4.44019 51.86029)",51.86029,4.44019,Rhoonse Baan, 3161 EV, Rhoon,https://waarneming.nl/observation/379892246/
"POINT (4.73731 51.84592)",51.84592,4.73731,Matenaweg, 3356 LS, Papendrecht,https://waarneming.nl/observation/379875250/
"POINT (4.99067 51.83321)",51.83321,4.99067,Verdistraat, 4207 DE, Gorinchem,https://waarneming.nl/observation/380290996/
"POINT (4.08549 51.90341)",51.90341,4.08549,Gentianenlaan, 3233 VC, Oostvoorne,https://waarneming.nl/observation/379903933/
"POINT (4.54601 51.85164)",51.85164,4.54601,Binnenlaantje, 2991 EC, Barendrecht,https://waarneming.nl/observation/379915670/
"POINT (4.43264 51.81918)",51.81918,4.43264,Multatulipad, 3261 SM, Oud-Beijerland,https://waarneming.nl/observation/379921535/
"POINT (4.40129 52.10135)",52.10135,4.40129,De Haar, 2261 ZB, Leidschendam,https://waarneming.nl/observation/380228716/
"POINT (4.36642 51.70134)",51.70134,4.36642,,3257 LA, Ooltgensplaat,https://waarneming.nl/observation/380293757/
"POINT (4.58636 51.87119)",51.87119,4.58636,Meidoornlaan, 2982 BG, Slikkerveer,https://waarneming.nl/observation/380545349/
"POINT (4.62424 51.81354)",51.81354,4.62424,Kort-Ambachtlaan, 3333 EP, Zwijndrecht,https://waarneming.nl/observation/380030367/
"POINT (4.61816 51.95855)",51.95855,4.61816,Waterschapsweg, 2911 CR, Nieuwerkerk aan den IJssel,https://waarneming.nl/observation/380111493/
"POINT (4.55944 51.96639)",51.96639,4.55944,Kurt Weillstraat, 3069 ML, Rotterdam,https://waarneming.nl/observation/379993416/
"POINT (4.08996 51.89406)",51.89406,4.08996,Verlengde Lodderlandsedijk, 3235 NT, Rockanje,https://waarneming.nl/observation/379994752/
"POINT (4.26987 51.82066)",51.82066,4.26987,Stompaardsedijk, 3212 LW, Simonshaven,https://waarneming.nl/observation/380008082/
"POINT (4.14054 51.82992)",51.82992,4.14054,Kanaalweg Oostzijde, 3224 XT, Hellevoetsluis,https://waarneming.nl/observation/380011624/
"POINT (4.57898 51.89597)",51.89597,4.57898,Retiefstraat, 2987 AP, Bolnes,https://waarneming.nl/observation/380053251/
"POINT (4.27025 51.91366)",51.91366,4.27025,Vlaardingsedijk, 3143 LT, Maassluis,https://waarneming.nl/observation/380083345/
"POINT (4.05981 51.87226)",51.87226,4.05981,Duinzoom, 3235 CD, Rockanje,https://waarneming.nl/observation/380089067/
"POINT (4.31764 52.05195)",52.05195,4.31764,Prudens van Duysestraat, 2524 EA, Den Haag,https://waarneming.nl/observation/380096422/
"POINT (4.69127 51.79588)",51.79588,4.69127,Dubbelmondepad, 3319 PH, Dordrecht,https://waarneming.nl/observation/380101221/
"POINT (4.96775 51.84434)",51.84434,4.96775,Keizer Maximiliaanstraat, 4205 SZ, Gorinchem,https://waarneming.nl/observation/380104737/
"POINT (4.21177 51.67917)",51.67917,4.21177,Suisendijk, 3255 LS, Oude-Tonge,https://waarneming.nl/observation/380107627/
"POINT (4.08292 51.91461)",51.91461,4.08292,Duinlaan, 3233 EB, Oostvoorne,https://waarneming.nl/observation/380177087/
"POINT (4.83182 51.82094)",51.82094,4.83182,Rijksweg A15, 3371 SN, Hardinxveld-Giessendam,https://waarneming.nl/observation/380131752/
"POINT (4.26937 51.91338)",51.91338,4.26937,Vlaardingsedijk, 3143 LT, Maassluis,https://waarneming.nl/observation/380212295/
"POINT (4.61921 51.96207)",51.96207,4.61921,Dinkel, 2911 ED, Nieuwerkerk aan den IJssel,https://waarneming.nl/observation/380198490/
"POINT (4.72951 51.84356)",51.84356,4.72951,Pim Louwaarspad, 3356 LR, Papendrecht,https://waarneming.nl/observation/380209751/
"POINT (4.59797 51.91545)",51.91545,4.59797,Nieuwe Tiendweg, 2923 BS, Krimpen aan den IJssel,https://waarneming.nl/observation/380142855/
"POINT (4.97332 51.84123)",51.84123,4.97332,,4205 CT, Gorinchem,https://waarneming.nl/observation/380188343/
"POINT (3.86399 51.75758)",51.75758,3.86399,Middelplaat, 3253 MU, Ouddorp,https://waarneming.nl/observation/380218585/
"POINT (4.42201 51.86165)",51.86165,4.42201,Kerklaan, 3161 KH, Rhoon,https://waarneming.nl/observation/380221382/
"POINT (4.38282 52.1324)",52.13240,4.38282,Schouwweg, 2243 BG, Wassenaar,https://waarneming.nl/observation/380229220/
"POINT (4.5884 51.95875)",51.95875,4.58840,Burgemeester Schalijlaan, 2908 LS, Capelle aan den IJssel,https://waarneming.nl/observation/380232103/
"POINT (4.68114 51.78479)",51.78479,4.68114,Zuidendijk, 3318 TG, Dordrecht,https://waarneming.nl/observation/380242412/
"POINT (4.7058 52.01443)",52.01443,4.70580,De Blaauwe Haan, 2801 AW, Gouda,https://waarneming.nl/observation/380384040/
"POINT (4.95849 51.84327)",51.84327,4.95849,Dokter Hiemstralaan, 4205 KN, Gorinchem,https://waarneming.nl/observation/380298440/
"POINT (4.05634 51.90885)",51.90885,4.05634,Inspectiepad, 3233 CW, Oostvoorne,https://waarneming.nl/observation/380287602/
"POINT (4.74756 51.82361)",51.82361,4.74756,Baanhoek, 3361 GD, Sliedrecht,https://waarneming.nl/observation/380373435/
"POINT (4.73625 51.79834)",51.79834,4.73625,Bildersteeg, 3315 GK, Dordrecht,https://waarneming.nl/observation/380293654/
"POINT (4.96115 51.84349)",51.84349,4.96115,Dokter Hiemstralaan, 4205 KM, Gorinchem,https://waarneming.nl/observation/380310299/
"POINT (4.47587 51.83102)",51.83102,4.47587,Dijk Kooimansland, 3274 CK, Heinenoord,https://waarneming.nl/observation/380317068/
"POINT (4.06711 51.91598)",51.91598,4.06711,Strandweg, 3233 CW, Oostvoorne,https://waarneming.nl/observation/380360433/
"POINT (4.52584 51.91682)",51.91682,4.52584,Burgemeester Oudlaan, 3062 PA, Rotterdam,https://waarneming.nl/observation/380407361/
"POINT (4.24442 51.86454)",51.86454,4.24442,Branderf, 3218 AC, Heenvliet,https://waarneming.nl/observation/380431739/
"POINT (4.3854 52.14263)",52.14263,4.38540,Duinrell, 2242 SX, Wassenaar,https://waarneming.nl/observation/380414275/
"POINT (4.56681 51.80322)",51.80322,4.56681,Orion, 3297 VD, Puttershoek,https://waarneming.nl/observation/380395552/
"POINT (4.36623 51.77069)",51.77069,4.36623,Dijkgraaf van der Lindenpad, 3284 KE, Zuid-Beijerland,https://waarneming.nl/observation/380405673/
"POINT (4.29008 52.05215)",52.05215,4.29008,Melis Stokelaan, 2533 CT, Den Haag,https://waarneming.nl/observation/380406279/
"POINT (4.28767 52.09905)",52.09905,4.28767,Dwarsweg, 2585 JD, Den Haag,https://waarneming.nl/observation/380408406/
"POINT (4.46885 51.9558)",51.95580,4.46885,Wilgenlei, 3053 CH, Rotterdam,https://waarneming.nl/observation/380410931/
"POINT (4.12814 51.83518)",51.83518,4.12814,Cornelis van Kleiburgstraat, 3222 CD, Hellevoetsluis,https://waarneming.nl/observation/380419564/
"POINT (4.31284 51.86092)",51.86092,4.31284,Voorweg, 3202 LC, Spijkenisse,https://waarneming.nl/observation/380546333/
"POINT (4.3879 52.15836)",52.15836,4.38790,Van Bronckhorstlaan, 2242 PX, Wassenaar,https://waarneming.nl/observation/380454246/
"POINT (4.43985 51.73822)",51.73822,4.43985,Burgemeester de Zeeuwstraat, 3281 AL, Numansdorp,https://waarneming.nl/observation/380476856/
"POINT (4.77951 51.81731)",51.81731,4.77951,Rivierdijk, 3361 BX, Sliedrecht,https://waarneming.nl/observation/380486018/
"POINT (4.56718 51.79874)",51.79874,4.56718,Boezemkade, 3297 AC, Puttershoek,https://waarneming.nl/observation/380459898/
"POINT (4.30572 52.04127)",52.04127,4.30572,Van Vredenburchweg, 2285 SC, Rijswijk,https://waarneming.nl/observation/380459932/
"POINT (4.63985 51.87043)",51.87043,4.63985,Noordenstraat, 2953 CN, Alblasserdam,https://waarneming.nl/observation/380465846/
"POINT (4.72533 51.80566)",51.80566,4.72533,Van Ravesteyn-erf, 3315 DP, Dordrecht,https://waarneming.nl/observation/380462660/
"POINT (4.0792 51.71138)",51.71138,4.07920,Buitenplaats Herkingen, 3249 BX, Herkingen,https://waarneming.nl/observation/380476966/
"POINT (4.59684 51.87953)",51.87953,4.59684,Dolfijnpark, 2983 AZ, Slikkerveer,https://waarneming.nl/observation/380483051/
"POINT (4.31238 52.04208)",52.04208,4.31238,Steenvoordelaan, 2284 ED, Rijswijk,https://waarneming.nl/observation/380473507/
"POINT (4.26514 51.91468)",51.91468,4.26514,Vlaardingsedijk, 3143 LT, Maassluis,https://waarneming.nl/observation/380485039/
"POINT (4.52215 52.2293)",52.22930,4.52215,Teijlingerlaan, 2171 CC, Sassenheim,https://waarneming.nl/observation/380503852/
"POINT (4.39513 51.90789)",51.90789,4.39513,Prins Bernhardlaan, 3116 HE, Schiedam,https://waarneming.nl/observation/380520647/
"POINT (4.96141 51.83883)",51.83883,4.96141,Banneweg, 4205 JS, Gorinchem,https://waarneming.nl/observation/380554160/
"POINT (4.60335 51.93475)",51.93475,4.60335,Reitdiep, 2904 RD, Capelle aan den IJssel,https://waarneming.nl/observation/380521814/
"POINT (4.3136 51.83947)",51.83947,4.31360,Baljuwlaan, 3204 LC, Spijkenisse,https://waarneming.nl/observation/380521975/
"POINT (4.07131 51.76458)",51.76458,4.07131,Nieuweweg, 3248 BE, Melissant,https://waarneming.nl/observation/380790342/
"POINT (4.52845 51.91889)",51.91889,4.52845,Burgemeester Oudlaan, 3062 PA, Rotterdam,https://waarneming.nl/observation/381096732/
"POINT (4.23182 52.0625)",52.06250,4.23182,Laan van Meerdervoort, 2555 SJ, Den Haag,https://waarneming.nl/observation/380810573/
"POINT (4.58746 51.87095)",51.87095,4.58746,Boksdoornstraat, 2982 BA, Slikkerveer,https://waarneming.nl/observation/380548506/
"POINT (4.54584 51.8872)",51.88720,4.54584,Ruigewaard, 3078 AV, Rotterdam,https://waarneming.nl/observation/380580485/
"POINT (4.39482 51.83992)",51.83992,4.39482,Berenplaat, 3207 LB, Spijkenisse,https://waarneming.nl/observation/380612126/
"POINT (4.59767 51.8791)",51.87910,4.59767,Dolfijnpark, 2983 AZ, Slikkerveer,https://waarneming.nl/observation/380589025/
"POINT (4.59997 51.92111)",51.92111,4.59997,Driekamp, 2924 VT, Krimpen aan den IJssel,https://waarneming.nl/observation/380594224/
"POINT (4.17582 51.7614)",51.76140,4.17582,Delta Boulevard, 3241 PH, Middelharnis,https://waarneming.nl/observation/380597123/
"POINT (4.35357 52.06994)",52.06994,4.35357,Koningin Wilhelminalaan, 2274 AB, Voorburg,https://waarneming.nl/observation/380600610/
"POINT (4.40037 52.10127)",52.10127,4.40037,De Haar, 2261 XS, Leidschendam,https://waarneming.nl/observation/380776216/
"POINT (4.20733 51.75784)",51.75784,4.20733,Kadeweg, 3241 LN, Middelharnis,https://waarneming.nl/observation/380748208/
"POINT (4.4895 52.06579)",52.06579,4.48950,Zwaardslootseweg, 2726 BR, Zoetermeer,https://waarneming.nl/observation/380624865/
"POINT (4.05771 51.87292)",51.87292,4.05771,Swinsedreef, 3235 AR, Rockanje,https://waarneming.nl/observation/380662711/
"POINT (4.70178 51.79828)",51.79828,4.70178,Reewegpad, 3319 CJ, Dordrecht,https://waarneming.nl/observation/380687305/
"POINT (4.53364 51.8987)",51.89870,4.53364,Van Brienenoord, 3077 AE, Rotterdam,https://waarneming.nl/observation/381005163/
"POINT (4.28363 52.09868)",52.09868,4.28363,Scheveningseweg, 2517 KX, Den Haag,https://waarneming.nl/observation/380696990/
"POINT (4.55848 51.95952)",51.95952,4.55848,President Rooseveltweg, 3068 TS, Rotterdam,https://waarneming.nl/observation/380676692/
"POINT (4.69539 51.75076)",51.75076,4.69539,Nieuwe Merwedeweg, 3329 KM, Dordrecht,https://waarneming.nl/observation/380706279/
"POINT (4.32229 51.92704)",51.92704,4.32229,Klokbekerpad, 3138 HE, Vlaardingen,https://waarneming.nl/observation/380694255/
"POINT (4.32057 51.92728)",51.92728,4.32057,Bronstijdpad, 3138 HE, Vlaardingen,https://waarneming.nl/observation/380718717/
"POINT (4.76962 51.82671)",51.82671,4.76962,IJsselstraat, 3363 CX, Sliedrecht,https://waarneming.nl/observation/380727602/
"POINT (4.59762 51.93201)",51.93201,4.59762,Couwenhoekseweg, 2904 XB, Capelle aan den IJssel,https://waarneming.nl/observation/380716829/
"POINT (4.6821 51.78937)",51.78937,4.68210,Stierstraat, 3318 BK, Dordrecht,https://waarneming.nl/observation/380777273/
"POINT (4.69904 51.75379)",51.75379,4.69904,Oude Veerweg, 3329 KM, Dordrecht,https://waarneming.nl/observation/380752214/
"POINT (4.689 51.79606)",51.79606,4.68900,Dordwijklaan, 3319 AD, Dordrecht,https://waarneming.nl/observation/380804661/
"POINT (4.77597 51.80987)",51.80987,4.77597,Merwelanden, 3361 VV, Dordrecht,https://waarneming.nl/observation/381005569/
"POINT (4.11249 51.91939)",51.91939,4.11249,Windhoek, 3233 WZ, Oostvoorne,https://waarneming.nl/observation/380761016/
"POINT (4.54929 51.89269)",51.89269,4.54929,Koninginneweg, 3078 GP, Rotterdam,https://waarneming.nl/observation/380761471/
"POINT (4.69297 51.75032)",51.75032,4.69297,Nieuwe Merwedeweg, 3329 KM, Dordrecht,https://waarneming.nl/observation/380768206/
"POINT (4.78644 51.82128)",51.82128,4.78644,Merelstraat, 3362 RK, Sliedrecht,https://waarneming.nl/observation/380782252/
"POINT (4.78786 51.82179)",51.82179,4.78786,Meerkoetstraat, 3362 PB, Sliedrecht,https://waarneming.nl/observation/380778724/
"POINT (4.3705 51.85386)",51.85386,4.37050,Aalreep, 3192 SE, Hoogvliet,https://waarneming.nl/observation/380817525/
"POINT (4.51072 51.92854)",51.92854,4.51072,1e Jerichostraat, 3061 GE, Rotterdam,https://waarneming.nl/observation/382544599/
"POINT (4.66206 51.78997)",51.78997,4.66206,Nolensweg, 3317 LG, Dordrecht,https://waarneming.nl/observation/380806694/
"POINT (4.60913 51.87078)",51.87078,4.60913,Donkerslootweg, 2984 BH, Slikkerveer,https://waarneming.nl/observation/380835926/
"POINT (4.47546 52.24279)",52.24279,4.47546,Leeweg, 2211 XZ, Noordwijkerhout,https://waarneming.nl/observation/381118240/
"POINT (4.28386 52.08677)",52.08677,4.28386,Alexander Gogelweg, 2517 JD, Den Haag,https://waarneming.nl/observation/381654236/
"POINT (4.59681 51.88094)",51.88094,4.59681,Kievitsweg, 2983 AE, Slikkerveer,https://waarneming.nl/observation/380826202/
"POINT (4.15239 51.86004)",51.86004,4.15239,Dammenweg, 3222 LB, Hellevoetsluis,https://waarneming.nl/observation/380860574/
"POINT (4.50511 52.17215)",52.17215,4.50511,Havikpad, 2317 AL, Leiden,https://waarneming.nl/observation/380860330/
"POINT (4.07145 51.89263)",51.89263,4.07145,Middelweg, 3235 NN, Rockanje,https://waarneming.nl/observation/380865268/
"POINT (4.22876 51.95128)",51.95128,4.22876,Bandijkweg, 2676 LH, Maasdijk,https://waarneming.nl/observation/380872106/
"POINT (4.65054 51.84722)",51.84722,4.65054,Halfweg, 3341 BC, Hendrik-Ido-Ambacht,https://waarneming.nl/observation/380874561/
"POINT (4.64807 51.84757)",51.84757,4.64807,Antoniuslaan, 3341 CL, Hendrik-Ido-Ambacht,https://waarneming.nl/observation/380877835/
"POINT (4.64682 51.84231)",51.84231,4.64682,Van Renesseborch, 3341 RC, Hendrik-Ido-Ambacht,https://waarneming.nl/observation/380883440/
"POINT (4.94414 51.84032)",51.84032,4.94414,Bataafsekade, 4204 AX, Gorinchem,https://waarneming.nl/observation/380892694/
"POINT (4.35962 51.84891)",51.84891,4.35962,Vossendijk, 3192 JS, Hoogvliet,https://waarneming.nl/observation/381000356/
"POINT (4.55929 51.94803)",51.94803,4.55929,Varnasingel, 3067 EZ, Rotterdam,https://waarneming.nl/observation/380951829/
"POINT (4.40674 51.96041)",51.96041,4.40674,Hofweg, 3046 NJ, Rotterdam,https://waarneming.nl/observation/380975203/
"POINT (4.81216 51.92807)",51.92807,4.81216,Den Hoeff, 2865 XR, Ammerstol,https://waarneming.nl/observation/380982317/
"POINT (4.80849 51.92607)",51.92607,4.80849,Achterweg, 2865 XB, Ammerstol,https://waarneming.nl/observation/380955045/
"POINT (4.18394 51.74152)",51.74152,4.18394,Vliegerspad, 3241 MZ, Middelharnis,https://waarneming.nl/observation/382927200/
"POINT (4.6522 51.78535)",51.78535,4.65220,Maarten Harpertszoon Trompweg, 3317 NE, Dordrecht,https://waarneming.nl/observation/380980870/
"POINT (4.6523 52.144)",52.14400,4.65230,Groenoord, 2401 AJ, Alphen aan den Rijn,https://waarneming.nl/observation/381158590/
"POINT (4.14306 51.84034)",51.84034,4.14306,Oostdijk, 3223 CB, Hellevoetsluis,https://waarneming.nl/observation/381027624/
"POINT (4.68619 51.75733)",51.75733,4.68619,Zuidwestdijk, 3329 KM, Dordrecht,https://waarneming.nl/observation/381066872/
"POINT (4.69472 51.76212)",51.76212,4.69472,Oude Veerweg, 3329 KM, Dordrecht,https://waarneming.nl/observation/381066484/
"POINT (4.30412 52.09824)",52.09824,4.30412,Sint Hubertusweg, 2597 JG, Den Haag,https://waarneming.nl/observation/383580647/
"POINT (4.17576 51.89618)",51.89618,4.17576,Amer, 3232 HA, Brielle,https://waarneming.nl/observation/381049356/
"POINT (4.96025 51.83375)",51.83375,4.96025,Voermanstraat, 4204 RH, Gorinchem,https://waarneming.nl/observation/381055486/
"POINT (4.12708 51.98787)",51.98787,4.12708,Dirk van den Burgweg, 3151 TK, Hoek van Holland,https://waarneming.nl/observation/381069190/
"POINT (4.37872 52.01578)",52.01578,4.37872,Heempad, 2616 LP, Delft,https://waarneming.nl/observation/381173842/
"POINT (4.69643 51.76099)",51.76099,4.69643,Noorder Elsweg, 3329 KH, Dordrecht,https://waarneming.nl/observation/381261665/
"POINT (4.41152 51.84536)",51.84536,4.41152,Molenpolderpad, 3172 VA, Poortugaal,https://waarneming.nl/observation/381148194/
"POINT (4.247 51.85718)",51.85718,4.24700,Middeldijk, 3211 LH, Geervliet,https://waarneming.nl/observation/381100489/
"POINT (4.74397 52.06421)",52.06421,4.74397,Reeuwijkse Hout, 2411 ZZ, Reeuwijk,https://waarneming.nl/observation/381097354/
"POINT (4.63402 51.78465)",51.78465,4.63402,Amstelwijckweg, 3316 BB, Dordrecht,https://waarneming.nl/observation/381127896/
"POINT (4.24751 51.86445)",51.86445,4.24751,Toldijk, 3211 BM, Geervliet,https://waarneming.nl/observation/381114788/
"POINT (4.72661 52.00789)",52.00789,4.72661,Zuider IJsseldijk, 2808 PB, Gouda,https://waarneming.nl/observation/381156502/
"POINT (4.71171 52.00807)",52.00807,4.71171,Peperstraat, 2801 RH, Gouda,https://waarneming.nl/observation/381158806/
"POINT (4.99225 51.84679)",51.84679,4.99225,Zuiderlingedijk, 4207 GL, Gorinchem,https://waarneming.nl/observation/381191688/
"POINT (4.66194 52.15491)",52.15491,4.66194,Zegerpad, 2402 ZM, Alphen aan den Rijn,https://waarneming.nl/observation/381204579/
"POINT (4.44494 51.83029)",51.83029,4.44494,Bosschendijk, 3261 MG, Oud-Beijerland,https://waarneming.nl/observation/381273216/
"POINT (4.67153 51.79345)",51.79345,4.67153,Salvia, 3317 JN, Dordrecht,https://waarneming.nl/observation/381307291/
"POINT (4.83134 51.82136)",51.82136,4.83134,Rijksweg A15, 3371 SN, Hardinxveld-Giessendam,https://waarneming.nl/observation/381298508/
"POINT (4.33779 51.90958)",51.90958,4.33779,Markgraaflaan, 3131 VR, Vlaardingen,https://waarneming.nl/observation/381303617/
"POINT (4.48295 52.05189)",52.05189,4.48295,Stadhoudersring, 2713 GA, Zoetermeer,https://waarneming.nl/observation/381342529/
"POINT (4.60714 51.91227)",51.91227,4.60714,Graafkade, 2926 PT, Krimpen aan den IJssel,https://waarneming.nl/observation/381376872/
"POINT (4.65682 52.15102)",52.15102,4.65682,Klompenmaker, 2401 PW, Alphen aan den Rijn,https://waarneming.nl/observation/381758551/
"POINT (4.96119 51.84002)",51.84002,4.96119,Busschieterstraat, 4205 PN, Gorinchem,https://waarneming.nl/observation/381396489/
"POINT (4.83681 52.18321)",52.18321,4.83681,Park Kromme Mijdrecht, 2435 NH, Zevenhoven,https://waarneming.nl/observation/381451024/
"POINT (4.31201 51.9312)",51.93120,4.31201,Vlaardingen-cultuurpad, 3155 EZ, Vlaardingen,https://waarneming.nl/observation/381491549/
"POINT (4.42385 51.82638)",51.82638,4.42385,Ravenswey, 3261 VB, Oud-Beijerland,https://waarneming.nl/observation/381550944/
"POINT (4.24808 51.86724)",51.86724,4.24808,Wieldijk, 3218 LL, Heenvliet,https://waarneming.nl/observation/381580253/
"POINT (4.63538 51.83691)",51.83691,4.63538,Vredenborg, 3343 NJ, Hendrik-Ido-Ambacht,https://waarneming.nl/observation/381560784/
"POINT (4.05878 51.87204)",51.87204,4.05878,D van Voornelaan, 3235 AC, Rockanje,https://waarneming.nl/observation/381547208/
"POINT (4.74115 51.82069)",51.82069,4.74115,Baanhoek, 3361 GG, Sliedrecht,https://waarneming.nl/observation/381548655/
"POINT (4.72123 51.79898)",51.79898,4.72123,Selma Lagerlöf-erf, 3315 AC, Dordrecht,https://waarneming.nl/observation/381597120/
"POINT (4.98658 51.83089)",51.83089,4.98658,Vestingweg, 4207 CE, Gorinchem,https://waarneming.nl/observation/381671501/
"POINT (4.37156 52.11703)",52.11703,4.37156,Van der Oudermeulenlaan, 2243 CR, Wassenaar,https://waarneming.nl/observation/381649868/
"POINT (4.36134 51.67883)",51.67883,4.36134,Havendijk, 3257 LH, Ooltgensplaat,https://waarneming.nl/observation/381666542/
"POINT (4.30605 52.04207)",52.04207,4.30605,Van Vredenburchweg, 2285 SC, Rijswijk,https://waarneming.nl/observation/381666835/
"POINT (4.51921 51.871)",51.87100,4.51921,Bijenpark, 3076 TR, Rotterdam,https://waarneming.nl/observation/381666026/
"POINT (4.32064 51.9268)",51.92680,4.32064,Bronstijdpad, 3138 HE, Vlaardingen,https://waarneming.nl/observation/381712307/
"POINT (4.83286 51.82153)",51.82153,4.83286,Rijksweg A15, 3371 SN, Hardinxveld-Giessendam,https://waarneming.nl/observation/381781495/
"POINT (4.7312 51.84317)",51.84317,4.73120,Pim Louwaarspad, 3356 LR, Papendrecht,https://waarneming.nl/observation/382186381/
"POINT (4.48616 51.83771)",51.83771,4.48616,Truus Visscherpad, 3161 GE, Rhoon,https://waarneming.nl/observation/381753628/
"POINT (4.3184 52.09701)",52.09701,4.31840,Goetlijfstraat, 2596 RM, Den Haag,https://waarneming.nl/observation/381775886/
"POINT (4.33684 52.08369)",52.08369,4.33684,Juliana van Stolberglaan, 2595 HH, Den Haag,https://waarneming.nl/observation/381960657/
"POINT (4.96737 51.83912)",51.83912,4.96737,Koningin Julianalaan, 4205 RB, Gorinchem,https://waarneming.nl/observation/381908639/
"POINT (4.35864 51.67802)",51.67802,4.35864,Havendijk, 3257 LH, Ooltgensplaat,https://waarneming.nl/observation/381898808/
"POINT (4.73468 52.01836)",52.01836,4.73468,Spaanse Ruiterpad, 2805 KJ, Gouda,https://waarneming.nl/observation/381890166/
"POINT (4.36801 51.70186)",51.70186,4.36801,N59, 3257 XS, Ooltgensplaat,https://waarneming.nl/observation/381932214/
"POINT (4.31997 51.85767)",51.85767,4.31997,Mimosastraat, 3202 CC, Spijkenisse,https://waarneming.nl/observation/382161998/
"POINT (4.54608 51.8877)",51.88770,4.54608,Ruigewaard, 3078 AV, Rotterdam,https://waarneming.nl/observation/381970747/
"POINT (4.28844 51.90817)",51.90817,4.28844,Rijksweg nr 24, 3133 KB, Vlaardingen,https://waarneming.nl/observation/382007685/
"POINT (4.51959 51.83733)",51.83733,4.51959,Achterzeedijk, 2992 SC, Barendrecht,https://waarneming.nl/observation/382031671/
"POINT (4.64581 51.77232)",51.77232,4.64581,Kiltunnelweg, 3316 EH, Dordrecht,https://waarneming.nl/observation/382030871/
"POINT (4.40107 51.82282)",51.82282,4.40107,Uitloop, 3262 CE, Oud-Beijerland,https://waarneming.nl/observation/382050213/
"POINT (4.63253 51.83684)",51.83684,4.63253,De Liesewey, 3343 PD, Hendrik-Ido-Ambacht,https://waarneming.nl/observation/382098357/
"POINT (4.40543 51.83901)",51.83901,4.40543,Berenplaat, 3261 TE, Spijkenisse,https://waarneming.nl/observation/382101143/
"POINT (4.56247 51.78797)",51.78797,4.56247,Fazant, 3299 BS, Maasdam,https://waarneming.nl/observation/382060844/
"POINT (4.99359 51.84987)",51.84987,4.99359,Kerkeind, 4241 XC, Arkel,https://waarneming.nl/observation/382088500/
"POINT (4.12035 51.98227)",51.98227,4.12035,Strandweg, 3151 HD, Hoek van Holland,https://waarneming.nl/observation/382061234/
"POINT (4.36092 51.7012)",51.70120,4.36092,,3257 LA, Ooltgensplaat,https://waarneming.nl/observation/382137179/
"POINT (4.36592 51.70195)",51.70195,4.36592,N59, 3257 XS, Ooltgensplaat,https://waarneming.nl/observation/382137549/
"POINT (4.71662 51.83222)",51.83222,4.71662,Steilsteven, 3356 MC, Papendrecht,https://waarneming.nl/observation/382197429/
"POINT (4.68728 51.75492)",51.75492,4.68728,Nieuwe Merwedeweg, 3329 KM, Dordrecht,https://waarneming.nl/observation/382595133/
"POINT (4.38531 52.02028)",52.02028,4.38531,Korftlaan, 2616 LW, Delft,https://waarneming.nl/observation/382217925/
"POINT (4.38396 52.02585)",52.02585,4.38396,Noordeindseweg, 2616 LW, Delfgauw,https://waarneming.nl/observation/382237259/
"POINT (4.63187 51.83631)",51.83631,4.63187,De Liesewey, 3343 PD, Hendrik-Ido-Ambacht,https://waarneming.nl/observation/382332950/
"POINT (4.77274 51.81347)",51.81347,4.77274,Merwelanden, 3361 HA, Dordrecht,https://waarneming.nl/observation/382300943/
"POINT (4.15337 51.85707)",51.85707,4.15337,Rijksstraatweg, 3223 KE, Hellevoetsluis,https://waarneming.nl/observation/382490504/
"POINT (4.23817 52.04207)",52.04207,4.23817,Mien van Breepad, 2553 NE, Den Haag,https://waarneming.nl/observation/382644380/
"POINT (4.09548 51.90583)",51.90583,4.09548,Parklaan, 3233 VH, Oostvoorne,https://waarneming.nl/observation/382602967/
"POINT (4.47256 51.90909)",51.90909,4.47256,Westzeedijk, 3016 AH, Rotterdam,https://waarneming.nl/observation/382676074/
"POINT (4.47281 51.91178)",51.91178,4.47281,Museumtuin, 3015 CX, Rotterdam,https://waarneming.nl/observation/382670562/
"POINT (4.52152 51.86682)",51.86682,4.52152,Kooiwalpad, 2992 LA, Barendrecht,https://waarneming.nl/observation/383252371/
"POINT (4.1207 51.98475)",51.98475,4.12070,Doornstraat, 3151 VC, Hoek van Holland,https://waarneming.nl/observation/382865760/
"POINT (4.12259 51.9831)",51.98310,4.12259,Strandweg, 3151 HD, Hoek van Holland,https://waarneming.nl/observation/382911546/
"POINT (4.43288 51.81823)",51.81823,4.43288,Heijermansstraat, 3261 SW, Oud-Beijerland,https://waarneming.nl/observation/382990974/
"POINT (4.37182 51.76109)",51.76109,4.37182,Dijkgraaf van der Lindenpad, 3284 WC, Zuid-Beijerland,https://waarneming.nl/observation/383158745/
"POINT (4.42697 51.81706)",51.81706,4.42697,Boezemsingel, 3261 BD, Oud-Beijerland,https://waarneming.nl/observation/383207649/
"POINT (4.24296 52.07401)",52.07401,4.24296,Kraaienlaan, 2566 RK, Den Haag, https://waarneming.nl/observation/374111963/